Name,Address,Place_ID,Latitude,Longitude
Maou Pilates Studio - Hegyvidék,"Budapest, Greguss utca 4",ChIJod7XfNvdQUcReXZEE6pEXwY,47.4989447,19.02298619999999
Tigers Gym,"Budapest, Havanna utca 3",ChIJf1WyVVnCQUcR__6E5CJPVCI,47.44351219999999,19.1682589
Familia Fitness Sport & Shop,"Budapest, Fő utca 80",ChIJlwMxQhvcQUcRiF3_839pNDU,47.5101938,19.0379421
Erőmű Fitness Stúdió,"Pécel, Rákóczi út 36-B.ép",ChIJL5X8kwTHQUcRAV0BywHjAxc,47.4948713,19.3247339
Tibi Bá' Box Academy,"Budaörs, Víg utca 24",ChIJp-9vEgDfQUcR1Z0xxWCaMc4,47.462324,18.9473862
PRIMEFIT-Újpalota,"Budapest, Zsókavár utca 41-47",ChIJVxGeKN_bQUcRuEt_grjdRtU,47.54039770000001,19.1433287
Infinity Jóga és Gerinctréning,"Budapest, Rozsos utca 42",ChIJ-_SsMfrEQUcR51Y-_zlr7v0,47.53747920000001,19.1876415
Nr1 Fitness Óbuda 24/7,"Budapest, Lajos utca 66",ChIJ0YgcqvPZQUcRwzTwczGscX0,47.530624,19.0394799
Life1 Fitness Corvin mélygarázs/parkoló,"Budapest, Nagy Templom utca 25",ChIJWZkye_fcQUcRvXImh94SSao,47.4851951,19.0751914
IN SHAPE STÚDIÓ- Reformer Pilates Paradise- Aesthetics Clinic well-aging a teljes megújulásért.,"Nagytarcsa, Rákóczi utca 31",ChIJ5dsK8kXHQUcRnuV720y0ux4,47.525732,19.2849951
Havasi Judo Club,"Budapest, Krisztina körút 23",ChIJU2QSbCPcQUcRr9WR6A5zUAM,47.5047165,19.0235892
Fény Jógaterápiás Intézet,"Budapest, Szegfű utca 2",ChIJg8UPltTYQUcRe2OzKjSApW4,47.5490314,18.9648918
City Squash Club,"Budapest, Marczibányi tér 13",ChIJ4XdewqXeQUcRAgKwWRoWHQ0,47.5124254,19.0220392
Ajna Jóga - és Mozgásstúdió,"Budapest, Bartók Béla út 80",ChIJ43-LBLTdQUcRXz8QXutFToU,47.4757269,19.0420793
Ventura Fitness,"Budapest, Fehérvári út 179",ChIJi7yUrpvdQUcRFPWKXD89ItI,47.4541356,19.0389126
Birds of Paradise,"Budapest, Hattyú utca 14",ChIJM2FHDh7cQUcRK6BLSYXgaaQ,47.5075683,19.0289683
Body Flex Gym,"Budapest, Öregfalusi utca 12",ChIJYYYX1V7aQUcRAKH1TUz7Vcc,47.56342049999999,19.1219742
PoleCenter Boutique,"Budapest, Árpád út 88",ChIJOYwv_qPbQUcR5P06JYd-HPs,47.5602375,19.092337
Albert utcai pingpongasztalok,"Budapest, Albert utca 32",ChIJc_4dTgDdQUcRNP5jHnjWamM,47.4550866,19.0377147
Ferencvárosi Evezős Club,"Budapest, Vízisport utca 24",ChIJ2Ycq7v_nQUcRLoEeoRLoSxo,47.4305275,19.0919293
Arnold Gym,"Budapest, Szépvölgyi út 15",ChIJ3S1NllbZQUcRqCdUlj1DLXY,47.5278855,19.0363166
Nr1 Fitness Rákóczi 24/7,"Budapest, József körút 35",ChIJo90zQbXdQUcRNSra8BZnZkI,47.49205389999999,19.0707302
Szabadtéri edzőpark,Budapest,ChIJFXtwewrZQUcR73KsV1cJPyM,47.5383222,18.9988935
Egészségház,"Budapest, Átlós utca 17",ChIJAyL6eBzoQUcRGn5JXogdt1A,47.4235446,19.1070447
Kriya Jóga,"Budapest, Naphegy utca",ChIJxXMb3jrcQUcRFdZpvxMCHAI,47.4939478,19.0351465
Relight Mozgásstúdió,"Budakeszi, Szanatórium köz 3",ChIJ-3EzMADfQUcRjHMh6qd03GM,47.52093319999999,18.936835
Erzsébet Terem,"Budapest, Török Flóris utca 84",ChIJya27Ga7CQUcRkxseCbFvqTs,47.43801430000001,19.1071269
Szilla Infra Szalon,"Budapest, Vaskapu utca 26",ChIJpbmDy-LdQUcRqEr3jKocCH4,47.4762785,19.07283809999999
InfraTrainer Liget tér,Budapest Kőrösi Csoma Sándor út 3 fszt. (épületen kivül,ChIJizGNsbPDQUcRvKxdR8iJ6pg,47.4826299,19.1314374
B-Cool táncstúdió,"Budapest, Üllői út 243",ChIJIWksMtnCQUcRTBio9l2tACo,47.46126339999999,19.1356892
Korona Fitness,"Budapest, Törökvész út 87-91-5. emelet",ChIJx-IFnjTZQUcR7AmIVDROmPE,47.52898269999999,19.00549359999999
SzandiAerial,"Budapest, Erzsébet körút 54",ChIJ53c3hvndQUcRdTqWaze9Jic,47.5026237,19.0660778
Mozgáscentrum,"Budapest, Lövölde tér 7",ChIJa9ZufqbdQUcRDjxRicFmOt8,47.5069607,19.0718911
Power Point gym,"Budapest, Katona József utca 17",ChIJFVnwpw7cQUcR806F_jszTHc,47.5133242,19.0537109
Street workout,"Budapest, Haller utca 68",ChIJUcVkJgDdQUcREiSDvJno75A,47.4777413,19.0851882
Aditi jóga - Családi tér,"Budapest, Óhegy utca 38b",ChIJ2SFo6oXDQUcRyvoh9sr-vd0,47.4769742,19.146098
Dorisz Fitness,"Budapest, Városház tér 19",ChIJmXwJvi3nQUcRF3s2JwzTAzI,47.4272299,19.0392037
Belvárosi Női Mozgásstúdió,"Budapest, Akadémia utca 11",ChIJZxgekmrcQUcRryeWBKfabow,47.5028228,19.0466649
Downdog Jóga Hegyvidék,"Budapest, Kiss János altábornagy utca 47",ChIJExrfBwDdQUcRCNZBHW6fxM8,47.4922208,19.0175145
Lookx Beauty and Fitness fitnesz terem,"Budapest, Szépvölgyi út 92e",ChIJ3RPC8E7ZQUcRhOQb2-HDYN0,47.53096969999999,19.0244852
Kültéri fitneszpark,"Budapest, Gyökér utca 25",ChIJy9Dm7MTBQUcRr8ckD3fDVeY,47.4769788,19.2497303
Utcai edzőterem,"Budapest, Nagyvárad tér 500",ChIJ_505jWrdQUcRS_KttDVi5d8,47.4802845,19.0909858
Vinyasa Flow Jógaoktató Képzés Budapest | Jóga Oktató Budapesten,"Budapest, Király utca 28",ChIJp5_NKB_dQUcRHbS7tQcqpks,47.499745,19.059188
JógaJelen Önfejlesztő tér,"Budapest, Bimbó út 5",ChIJ899izqHfQUcRSelgOA_tmsM,47.5128747,19.0304359
Harappa jógastúdió,"Budapest, Telepes utca 68",ChIJ3-XGIBzbQUcRjf81AHX3W9k,47.5264565,19.1167421
Hegyvidék Harcosai Küzdősport Akadémia,"Budapest, Csaba utca 7",ChIJOQWuw6HeQUcR4ycA-zjBNfQ,47.5053159,19.0207913
Zöldfa Jóga és masszázs,"Budapest, Szabadság utca 38",ChIJO38S9aPFQUcRVni5U2AQUns,47.5148146,19.1877991
TMS Pilates Római,"Budapest, Nánási út 5-7",ChIJqQvalgXZQUcRjY8NkNa0dy4,47.5677086,19.064154
Magyar Kettlebell Akadémia,"Budapest, Szentkirályi utca 10",ChIJg-2s5VzcQUcRW5rRwJVcRZY,47.4937005,19.0650062
"Böröcz Csilla - Gyógymasszőr, Pilates oktató","Budapest, Vörösmarty utca 5-fszt. 1",ChIJbZQyBbnJQUcR-KNUCLOYvWM,47.50316040000001,19.0715466
Mandír Jóga-sziget,"Budapest, Lőcse utca 31",ChIJfY90sM7DQUcRsKzRgdgOv_8,47.43460959999999,19.211431
Jól-Lét Egészségpont: Natural Terápia & Jógavilág,"Budapest, Király utca 25",ChIJg69x2v3bQUcRtR_2mQHRDcE,47.5614839,19.0979103
"Adria Fitness Gym Budapest, New Mountain Promenade 10, 1108","Budapest, Újhegyi sétány 10",ChIJUduEpgXDQUcRPnibLIAg_cc,47.46912760000001,19.1600971
Balance Stúdió,"Budapest, Vihar utca 36",ChIJYfPIRfrcQUcRSeaRaZznm04,47.5481229,19.0379042
A Bázis edzőterem,"Budapest, Taksony utca 1",ChIJoxC-JwrcQUcRVrzqIXQZWcA,47.5205646,19.067496
AgiYoga Jóga - Meditáció,"Budapest, Kévevágó utca 7",ChIJpYYXTgDBQUcRajwElDFBG9A,47.4738325,19.2589288
funXional Gym - Savoya Park,"Budapest, Hunyadi János út 19",ChIJ7Up10aznQUcR7hjRJvtcYUU,47.43580619999999,19.0397529
Jógaporta,"Budapest, Szerencs utca 127",ChIJXw0CMtTZQUcRzwQVi4IaY6o,47.54882600000001,19.1227677
Gyermekmozgás,"Budapest, Ipar utca 3",ChIJIwxrOV2fQEcRCkxIQMOkMf0,47.477765,19.0696829
Ökölvívás csoportos és személyi edzések (BoxPlusz),"Budapest, Rökk Szilárd utca 7",ChIJ8ZflVKvdQUcRUhhP4xArajQ,47.4921535,19.0696263
Vibe Reformer Pilates Studio,"Budapest, Bartl János utca 2",ChIJGxvpXvDbQUcRLLwYEH29_Js,47.5234664,19.1281329
"Ayurvédikus Masszázs, olajos masszázs hölgyeknek","Budapest, Pilisi utca 40",ChIJM12TMO7FQUcRy-ZuQyimgT0,47.5006839,19.1635501
Akadémia Fitnesz,"Budapest, Nagyszalonta utca 25",ChIJR8XMBGXdQUcREBNwPf-u4d4,47.43871490000001,19.2198958
budayoga,"Budapest, Szilágyi Erzsébet fasor 69",ChIJox7FG7zeQUcR9Gt434vqrMk,47.5107464,19.0081506
Sószoba ellátó,"Budapest, Taliga utca 29",ChIJNX2mVLDZQUcR1qpQ_xVC4oE,47.5751087,19.026376
Pink Lotus Cosmetics,"Budapest, Nagybánya utca 9",ChIJkxB3DfPBQUcRpiV97DnnbaM,47.4299032,19.21886539999999
W54 Fitness,"Budapest, Wesselényi utca 54",ChIJJ7ysxGXcQUcRvRNxWe-fTpU,47.50154089999999,19.0702858
TFWG12 Sport Budakeszi,"Budakeszi, Tiefenweg utca 12",ChIJbXOIAnnfQUcR7WVuYc3NCxE,47.5043855,18.9169702
Magyar Országos Jóga Unió - Szatszang Jógaközpont,"Budapest, Nagyenyed utca 16",ChIJZ1JHXCfcQUcRnv0cEVtlR9w,47.497962,19.021611
Pindi Gym,"Budapest, Telepy utca 17",ChIJD6FoUczdQUcR4vAt1K922Dw,47.4787973,19.0833387
Bunker Fitness,"Budapest, Széchenyi István utca 95",ChIJoXnKyivDQUcRyZn1AItNrrc,47.45426369999999,19.18253
Egészség Mindenkinek,"Budapest, Vízimolnár utca 15-17",ChIJ_aP6tzHZQUcRsThlSUoEJs0,47.5683707,19.0528198
ShapeYou - Body Shaping Studio,"Budapest, Székely Mihály utca 12",ChIJz1TAzmvcQUcRhHBElIy5QPU,47.5007653,19.058691
Body Shaper Power Plate & Személyi Edző,"Budapest, Mosoly utca 42",ChIJD4XwJgDbQUcRcBkxH76NVIM,47.5454717,19.0819274
CrossFit Urban Athletics,"Budapest, Kunigunda útja 68-Building B",ChIJYVn7S2DZQUcRqVgoufS-vng,47.5616886,19.0342334
Kick-Box Edzés | SA GYM - Horváth János Instruktor,"Budapest, Victor Hugo utca 6",ChIJ93QOA8ndQUcRnPPnHFMC7LQ,47.517414,19.0585774
FEELGOOD YOGA,"Budapest, Vitéz utca 9",ChIJY0cW2InfQUcRjz3tRlM1bD8,47.509208,19.0363669
Erdei Edzőpálya,"Budapest, GXRQ+36",ChIJtxgZHUXZQUcRKpEu31aHIIs,47.5401999,18.9880208
BestFit CrossBox,"Budapest, Jégverem utca 5",ChIJe1MdftLdQUcR8QL-OVUNjRI,47.50007429999999,19.0392889
BUSHIDO Se. - SHIDOKAN,"Budapest, Lakatos út 30",ChIJbYCxxVbCQUcRTV2vpd1hUII,47.4508409,19.1721768
PowerBuilder Óbuda,"Budapest, Bogdáni út 1-3",ChIJSYPpIyHZQUcRboSevAsfzkg,47.54980559999999,19.045159
Szabadtéri edzőpark,"Budapest, 525. tér",ChIJ44NU5rnDQUcRHWxcEWlg5ek,47.4813596,19.2200278
Infratrainer Óbuda,"Budapest, Lajos utca 49/a",ChIJJ_hwB1fZQUcRGWt43gwrEhM,47.52889030000001,19.0391541
Gábor Jóga Budakeszi,"Budakeszi, Úrbéres utca 3",ChIJv1Omw1phakcR_LVOb_S-zXQ,47.5076538,18.9172501
Street Workout park,Budapest,ChIJ386c6srdQUcRSgxDHaes3dM,47.5096642,19.0502072
SCHANANDA Balance Yoga Center,"Budapest, Szamorodni utca 25a",ChIJNRUUa5jYQUcRSovYZ9sKSkM,47.55717869999999,18.956126
Kacsa Fitness,"Budapest, Vadkacsa utca 57",ChIJn8EG_uTDQUcR747JmT1b4-E,47.47564999999999,19.2319687
Türkiz Stúdió,"Budapest, Szélső utca 36/b",ChIJWY3k6PHpQUcRZCrZIgMOBfI,47.4083011,19.1715902
Delta Fitness,"Budapest, Béla utca 39",ChIJha5-g1LFQUcRHIxUFUWBh1o,47.5211148,19.1637317
Kondipark,"Budapest, Rákospalota",ChIJo0k3LADbQUcRWj4smN5jXpM,47.5426935,19.1084845
Bri To You,"Budapest, Almássy tér 13",ChIJW6iaTGTcQUcR5_xSiqsdgyw,47.50219339999999,19.072267
Springday Health Club,"Budapest, Árpád út 47-49",ChIJf7ttyjbaQUcRVp4a0SrX-Is,47.5604591,19.087016
KE2 GYM Újpest,"Budapest, Kiss Ernő utca 2",ChIJTceC7zjaQUcRUHIdLafX8mM,47.5661549,19.0952098
Budapest Honvéd Akadémia MFA,"Budapest, Unnamed Road",ChIJD59AsOnDQUcRXc-XBhvdnNM,47.4358529,19.1517904
Sukha Jóga Stúdió,"Budapest, Andocs utca 42",ChIJO5tuAlzFQUcRkglt4nXrEPk,47.5090769,19.2220343
FORTIUS GYM,"Budapest, Károlyi István utca 11",ChIJfxIiAVLbQUcRen80v2BS6hw,47.563874,19.0823591
Mandala Jóga Nyugati,"Budapest, Kresz Géza utca 27",ChIJnQ_FlgvcQUcRGySaYXfiwDY,47.5143594,19.0570526
Intuitive Pilates,"Budapest, Szemere utca 21",ChIJJ7zvn6fdQUcRBswloPQ_BsM,47.5106594,19.0517973
"Luxury Private Fitness - Infratrainer, Speedfitness, Power Plate edzések","Budapest, Tóth Lőrinc utca 35",ChIJZ3yl4JzeQUcRGnjMCZxye7I,47.4963504,19.015685
Hottie Pilates Studio,"Budapest, Visegrádi utca 3-földszint 3",ChIJnV8vLILdQUcRFV2p4zyeW4U,47.5118169,19.0538093
"Sarasvati Alapítvány, Jóga-, és Oktatási Központ","Budapest, Erzsébet királyné útja",ChIJ0YKBIDHaQUcRGp0kbF1XNWA,47.5253526,19.104533
Shape and Soul Budapest,"Budapest, Rácz Aladár út 158 fsz. 3",ChIJGwi2UOjfQUcRXRPPubFFWAE,47.4873552,18.9890939
ElfogadóTér Jógastúdió,"Budapest, X. utca 4",ChIJmxddN5vHQUcRwJU3bA2zPc0,47.4894866,19.2610402
MAG47 Kft.,"Budapest, utcai bejarat, Kada utca 144",ChIJpTr4usPDQUcRgHGDpP2GzEo,47.4820667,19.1567677
Bindusar Yoga studio,"Budapest, Jókai tér 3",ChIJ3wNv7KjdQUcRyarrz7zZ3LE,47.504788,19.0616623
Fitness Five Óbuda,"Budapest, Pünkösdfürdő utca 54",ChIJj-JtKdzZQUcRFdiImywXxVQ,47.5947952,19.054409
Szabadtéri GYM,Budapest,ChIJBxLvWkLFQUcRQCGCyVQ37Mk,47.50809,19.148288
Body Flow Energy Alakformáló Studio,"Budapest, Pannónia utca 9-5 emelet. 5-ös ajtó 155-ös kapucsengő",ChIJ2y7Mz-fdQUcRGTHXOZ5HRfk,47.5140143,19.0522348
Shitokai Hungary Szentkorona Karate Dojo,"Budapest, Szent Korona útja 5",ChIJoejpoOvbQUcRabfKSZuJnpk,47.54616110000001,19.116538
Face & Shape Plastic Surgery,"Budapest, Remete köz 6",ChIJMZcXa0fZQUcR524T-NgkCgY,47.538778,19.0204384
Choco Sun Szolárium & InfraslimX Studió,"Budapest, Hímző utca 10",ChIJ-_NoHDjZQUcRONPaB24iH80,47.59661799999999,19.059219
Healing Movement Studio,"Budapest, Varsó utca 4",ChIJi1V65efdQUcRhsLiS6gPyn0,47.51752030000001,19.1074957
Forró Jóga Angyalföld,"Budapest, Moszkva sétány",ChIJef168unbQUcRYMUTxRkAIxY,47.5317962,19.0565295
Oxygen Wellness,"Budapest, 67, Naphegy utca",ChIJs4a1dTrcQUcRhoR7sjnXUIo,47.491152,19.03802899999999
Mázsaház,"Budapest, Kassák Lajos utca 78",ChIJGVwe8ezbQUcRh8Y289QqyzA,47.5300915,19.0697516
Independent Bjj Hungary x Ares Bjj,"Budapest, Dob utca 107",ChIJE8aOK_7dQUcRi0LHyLyyQPA,47.5048575,19.0735162
"OM SANTIH Egészség-, Oktatási & Mozgásstúdió","Budapest, Lukács György utca 5",ChIJkwO6aBzXQUcRtvcPx-bvclY,47.6012351,19.0531576
[concrete],"Budapest, Teréz körút 54",ChIJf570aNbdQUcRpHOTIaVC_1o,47.5086024,19.058084
Pilathera Studio Buda,"Budapest, Széna tér 7",ChIJ83HGzT3dQUcROEmYac5cGhY,47.5072844,19.0266586
Nr1 Fitness Kálvin 24/7,"Budapest, Kecskeméti utca 14",ChIJKdd6L1vcQUcRG4PRmpnrxMs,47.4898169,19.0611272
New Body Stúdió,"Budapest, Görgey Artúr utca 92",ChIJqzERWPvcQUcR8DmWxdcT43A,47.5656134,19.1100202
Amrita Jógaközpont,"Budapest, Bartók Béla út 34",ChIJKfLBUU3cQUcRQjByNhN16KA,47.4790985,19.0515841
Justfit by Popa Fitness,"Budapest, Hernád utca 50",ChIJBzjdA57bQUcR88hsNQT29cg,47.50685819999999,19.0802617
Avoslimx,"Budapest, Bajcsy-Zsilinszky út 19/b",ChIJF-mrPgDdQUcRgUw7AxaxB7k,47.502102,19.0552439
Fitness Five & Gym,"Budapest, Szentmihályi út 131 / Galéria",ChIJnf9HPeTaQUcRg9pFOY0n9Z8,47.5542786,19.1424941
Sasadfit,"Budapest, Nagyszeben út 16",ChIJg7E1gd3dQUcRLJq_9GaJ5IY,47.4658549,19.009384
Bambusz Egészség Kuckó,"Budapest, Kárpát utca 10",ChIJM7YBqwncQUcRui-Kt9rRE1Y,47.51669810000001,19.0526584
Thor Gym Zugló,"Budapest, Füredi utca 72-76",ChIJ80GFGlPbQUcRl4AsuqPrrNU,47.5139493,19.1486177
Universum Fitness Récsei,"Budapest, Szabó József utca 2",ChIJ_yiJKITcQUcR_E52iN7_gVw,47.50542979999999,19.0928063
Gazdagréti futópálya,"Budapest, Kaptató sétány",ChIJAVutBNnfQUcRGCY23JemHEM,47.47036139999999,18.9987537
Power Pilates Stúdió,"Budapest, Diós árok 7",ChIJU1ro-J3fQUcRugmdkMgiL8Q,47.5092801,18.9999635
Vegán Blog,"Budapest, Szigetcsép utca 151",ChIJF_EkmWbBQUcRZwcU7_KuWPM,47.4675857,19.3091139
Női önvédelem,"Budapest, Mária utca 2",ChIJg3CRK1zcQUcRRPJhhebo-Tc,47.4925961,19.0693777
Joga Placc,"Budapest, Tahi utca 69",ChIJ5fVsXLzbQUcRKKNs7YYMpuE,47.536948,19.0882158
THERM-l97Bt,"Budapest, Vörösmarty utca 6",ChIJr3uJeCTaQUcRAXm82xSbp5U,47.57009619999999,19.0815358
Hidvégi Andi Pilates Studio és GerincPilates Akadémia Pilates Oktató Képzés,"Budapest, Talpfa utca 1",ChIJ74WNfzHFQUcRPsB6rj7KfBM,47.5089716,19.1726267
Nagytarcsa Grund street workout park,Nagytarcsa,ChIJrxj26yDHQUcRwGFaqS5z8bo,47.528804,19.2883873
Primefit Újhegy,"Budapest, Gyömrői út 99",ChIJRfXHhhvDQUcRNc9huA9uAmk,47.46560210000001,19.1578782
Tantra Rebirth,"Budapest, Géza fejedelem tér 8",ChIJmcI7CGjaQUcR6W35KqmL50U,47.5702024,19.1155686
Nika Masszázs Budapest,"Budapest, Ráday utca 34",ChIJVU7BVrbdQUcRDd1sl9JQBDM,47.4848525,19.0651869
Napraforgó Pilates Stúdió,"Budapest, Terv utca 37",ChIJuV_XA1LnQUcRnTgCunfD8jc,47.4083475,19.0018115
KSI vízitelep,"Budapest, Népsziget út 9",ChIJM-yt4tPbQUcR15yNb_uAOdY,47.55246440000001,19.0671815
Reborn Mozgásstúdió,"Budapest, Csalogány utca 40",ChIJG1PVaOjdQUcRX2Gsceqd7sg,47.507768,19.0303173
napi 666,"Budapest, Magyar Jakobinusok tere 4b",ChIJ98grET7dQUcRPT-sXmbCPK4,47.50193780000001,19.0232808
B Strongher fitness,"Budapest, Dessewffy utca 22",ChIJJxu-dwDdQUcRpc950U9pKcw,47.50534469999999,19.0570843
UTE Sportlövő Szakosztály,"Budapest, Mexikói út 21-23",ChIJA5L3Fb3dQUcR0_6dYWXOrRw,47.5067607,19.1084296
Jógabarlang,"Budapest, Etele út 35-7. emelet 24. (24. kapucsengő",ChIJ8TzsYr7dQUcRuyQXPRH0EZo,47.46313300000001,19.0372621
"Karate for kids, for adults, Women","Budapest, Áldás utca 1",ChIJyTKotK7eQUcRGAYAgdhMclg,47.5177749,19.0272383
Gravity Boulder,"Budapest, Lövőház utca 2-6",ChIJz4z-elPfQUcR_50-bOzJD7I,47.5085995,19.0259772
Pre-Fitt studio,"Ecser, Rákóczi utca 61",ChIJUQpvUenAQUcRsLd8r8m6RWA,47.44759570000001,19.3092102
Zsokavar,"Budapest, Gőzös utca 22",ChIJB5jjEI7HQUcRXbrD75iiVUc,47.4932323,19.2839264
Earthpuzzle Klub,"Budapest, Határőr út 40",ChIJuX8X1OrfQUcR6QtH6H1c8EU,47.504333,19.015332
Napsugár Infra Stúdió,"Kerepes, Napsugár Ház, Szabadság út 1/A",ChIJjYidrMfFQUcRdbuS3kRqFlg,47.5512321,19.2685983
CFCFit,"Budapest, Gyömrői út 118",ChIJVdkOMK3DQUcRYunTzGpzgyY,47.4567489,19.18231579999999
Sportcsarnok,"Solymár, Kollwentz Ede utca",ChIJLxKi6Zx3akcR2CqGwFDAhWM,47.59691249999999,18.9346113
Jáde Sárkány Mozgásközpont,"Budapest, Szinyei Merse utca 11",ChIJ6QuGUnHcQUcR_Y7McNRrLXc,47.5113157,19.0681886
Halmy József Kézilabdacsarnok,"Vecsés, Halmy József tér 7",ChIJZaxoMADBQUcRYpDCz_E4b34,47.4087176,19.2492495
Központ,"Budapest, Gazdagréti út 8",ChIJRzkZuTzdQUcRdqBE0Pi_N8U,47.46536819999999,19.00287519999999
TMS Jóga Budaörs,"Budaörs, Templom tér 20",ChIJeasV-TTfQUcR_s0AeNa7E18,47.46119899999999,18.9632314
Urban Oásis Pilates,"Budapest, Ormay Norbert utca 20",ChIJly4hsCzdQUcRZd5C8HaJm3U,47.4598294,19.0348239
Scitec Fitness Club Gold (Lurdy),"Budapest, Könyves Kálmán körút 12-14",ChIJbUnPP1rbQUcRLukTqARr0cg,47.4705397,19.0839902
Studio Harmony Solymár - Reformer Pilates,"Solymár, Meredek utca 17",ChIJ4-ww_KJ3akcRkOC0VZ0yYro,47.5882063,18.9216956
FitChicks Budafok - Gym for women,"Budapest, Nagytétényi út 88",ChIJTdiCMOrnQUcRbup4gnTWxBY,47.412445,19.0320707
Park Fitness,"Budapest, Terv utca 1",ChIJcbCn1wTnQUcRbxh0qTaDrb0,47.4127477,19.0068063
Zuglói Testépitö SE,"Budapest, Komócsy utca sarok",ChIJ5y5p5N7bQUcRSzmzNrlWriU,47.5198963,19.1208411
GYM jam,"Budapest, Szabadka utca 17",ChIJW9JxvBfCQUcR3zt1F5WUnos,47.4318757,19.1952184
Völgy Fitness,"Budapest, Völgy utca 8",ChIJw-3zgwfnQUcRNASoANiXJKQ,47.4107075,19.0196787
Wekerlei Mozgásműhely,"Budapest, Hungária út 28",ChIJI0bODdfDQUcRp5ueCrBs-Sw,47.4553071,19.1224611
Core12 Pilates és Bosu Stúdió,"Budapest, Böszörményi út 13-15",ChIJMVFczkHdQUcR5B3yX361ot4,47.49508059999999,19.0187718
Lavender Spa Center,"Fót, Kossuth Lajos utca 25",ChIJbXf1KzfQQUcRz44DnDnCjR0,47.60906,19.1945374
Thaibox Akadémia,"Budapest, Fehér út 1",ChIJc4xXEmTbQUcRRjwH9WCO1aA,47.5027719,19.1361101
Ambajoga.hu,"Budapest, Kis Rákos utca 29",ChIJe0eLV_vaQUcR-IisvEzDqRE,47.5515183,19.1314556
Pilates House - Reformer pilates studió Üröm szívében,"Üröm, Fő utca 36",ChIJoZ6STInZQUcR8UEzwgo8if8,47.5978633,19.015647
Öv utca 150,"Budapest, Öv utca 150",ChIJqS-nGwDbQUcRqH9OwAZByxM,47.5306651,19.1229795
BudaFitness (Bakos Sport Body & Fitness),"Budapest, Villa utca 1",ChIJpe42eqPnQUcR4FzT04Akxck,47.4158629,19.0357312
A Fitness Garay,"Budapest, Garay tér 20",ChIJC-wWc7PdQUcRGAbY6BYuzr4,47.50377629999999,19.0858672
Ferencváros Kosár Club,"Budapest, Közraktár utca 18",ChIJFSMjvZ3dQUcR19DGB_TWIsQ,47.48362269999999,19.0622496
Oxy Fitt Fitness,"Budapest, Timur utca 103",ChIJrYmpjx7FQUcR2Bt2Kv-AF4A,47.53696059999999,19.2030406
Sugár Fitness Bp,"Budapest, Örs vezér tere 24",ChIJdWhIBKrcQUcRxbJDbgJged4,47.5042245,19.1376322
Tempelfit 2 fitness terem,"Budapest, Dózsa György út 19",ChIJ7XDDn4fcQUcRmf8EQ_ToX5c,47.50565719999999,19.0872615
MyTimeBuda,"Budapest, Királyhágó utca 2",ChIJQwt4AnndQUcRXb1pMcDwXDM,47.4952812,19.0229935
Fitlady Mozgásstúdió,"Budapest, Erzsébet körút 19",ChIJ0ZvMeO3dQUcR5cTAJLmU20Y,47.50007189999999,19.0691597
Global Fitness Budapest,"Budapest, Soroksári út 166",ChIJsQvuapzdQUcRhkcx3Vf0ltA,47.4433534,19.0935352
Urban Dojo,"Budapest, Szív utca 11",ChIJnf8vYXDcQUcR9s0a1mibBWA,47.5080897,19.0708211
Angel Land Stúdió,"Budapest, Reitter Ferenc utca 132",ChIJ_av80SHbQUcRZjymUZefnxo,47.54049739999999,19.0908516
WonderShape - Fitness Óbuda,"Budapest, Lajos utca 93-99",ChIJXykJVUTZQUcRxbtsiY9Fl0c,47.5332179,19.0412854
Downdog Jóga Hűvösvölgy,"Budapest, Hűvösvölgyi út 203",ChIJGy30xcDZQUcRFRMMxs2lKu4,47.5411987,18.9655885
ABCvitamin,"Budapest, Melinda út 30",ChIJ44wnPIjfQUcRyzqv1n5n5ZU,47.4929149,18.9905673
kinezjoga,"Budapest, Torbágy utca 14",ChIJFQkCNnTeQUcROKz6LGl3xnc,47.47132,18.998342
Satyananda Yoga Központ,"Budapest, Szent István körút 12",ChIJB4mn-g7cQUcRgF135DhsQi0,47.5125123,19.0502923
Csömöri terepbringapalya,"Csömör, Palotai út 4",ChIJKdAW8Q3FQUcRG0yrjWxd4zY,47.5468211,19.2188423
BOS GYM,"Budapest, Radnóti Miklós utca 38",ChIJhSAxYgTdQUcRtMDrJXoX99I,47.5162501,19.0494706
Leung Ting Wing Tsun Kung-fu Iskola (18. kerület),"Budapest, Lakatos út 30",ChIJZyVf21bCQUcRCJegmTYy1-g,47.450841,19.1721754
Everflow pilates,"Budapest, Kelén utca 2",ChIJO-sIQJTbQUcRiVRiIsDw8Sk,47.5462201,19.0648963
Szórádi Rózsa - Flavon életmód és Üzleti mentor,"Budapest, Ugró Gyula sor 17-7/44",ChIJ1Qp23RLaQUcRjJkNljlMKtE,47.5788334,19.10548799999999
Tulasi Jógastúdió,"Budapest, Wass Albert tér 2 2-emelet 23",ChIJo6Q2g6HcQUcRBRMJ0Q6wQ1o,47.5107881,19.123273
Habit Personal Training Studio,"Budapest, Berzenczey utca 33",ChIJjx7X-kHdQUcRePrGS8Xpyic,47.4831461,19.0744033
F45 Funkcionális Fitnesz Budapest,"Budapest, Fiastyúk utca 4-8",ChIJdyHm0YPbQUcRuO3SkxghZeg,47.545562,19.073331
Crossfox,"Budapest, Böszörményi út 2/A",ChIJqXlOncfdQUcRnLcaSz3VNLw,47.4975363,19.0210856
Fitnext Alakformáló Studio,"Budapest, Homoktövis utca 112",ChIJ7-y6wKLQQUcRjzMXwvuvwAQ,47.59854889999999,19.1185226
Yoga Magic Budapest,"Budapest, Aradi utca 52/b",ChIJHYjJHB_dQUcR9xw01DJsWBk,47.5099402,19.0681491
Shitokai Hungary Headquarters,"Budapest, Pázmány Péter utca 47",ChIJMfW64H_bQUcRJBtgVL1YnyE,47.5571315,19.1099683
RSports Performance Studio®️,"Budapest, Nádastó utca 52",ChIJi_9mynrbQUcRUDh0u-PDur0,47.5417464,19.1326407
AllerGéniusz Egyesület,"Budapest, Zimonyi utca 74",ChIJDd97bafBQUcRe-yYERwJGHE,47.4705204,19.302873
POWER GYM & FITNESS,"Budapest, Könyves Kálmán körút 62-64",ChIJN8TU61bdQUcRpiN3JH0X9bo,47.4820791,19.1030168
FittSlim Speedfitness Stúdió,"Budapest, Nemes utca 117",ChIJobvQGv_BQUcRlegcia_qSoo,47.4147277,19.2031766
Himalájai Jóga Tradíció,"Budapest, Kiss József utca 4 III-16",ChIJoZ9WjbLdQUcRNWX9p1CLCkI,47.4973486,19.0745399
Namaste Jóga Stúdió,"Budapest, Polgár utca 5",ChIJySpaCG3ZQUcRYQlQ4S4vbQk,47.5412316,19.0438459
Újpalotai Sportcentrum,"Budapest, Drégelyvár utca 57",ChIJc4lCjxfbQUcRhvHA2ebY06g,47.5355646,19.13322369999999
Thor Buda,"Budapest, Bogdáni út 3",ChIJoWZ72GTZQUcRvpCGi7Sn3AQ,47.5502937,19.0461166
Ping pong asztalok,"Budapest, Pestszenterzsébet",ChIJ76KCEgDDQUcRy84yGw8X5h4,47.4359437,19.0968866
Kettlebell Dózis HQ,"Budapest, Temesvár utca 19-21",ChIJKWNf4JXdQUcRMM57Wj8WoR4,47.4524951,19.0418605
Kültéri fitneszpark,"Budapest, Ede utca 2",ChIJNeUGSQDHQUcRoJmJ9M-nOQM,47.4882965,19.2956759
Down Központ,Budapest Ilka utca 26 II. emelet 6. és 7/A. III.emelet 4. és 5,ChIJA85Sp4PcQUcRR6TA3ErFtGY,47.5078543,19.0982433
Flow and Breathe - Boutique Yoga Studio in Budapest,"Budapest, Király utca 28",ChIJK4J32QbdQUcR3JDG9M-Pcv8,47.499745,19.059188
Park Inn By Radisson Budapest,"Budapest, Szekszárdi utca 16-18",ChIJDQz-_szbQUcRx8EubQQRibc,47.5534576,19.0786493
You Can Fight Club / Cosmos,"Budapest, Kruspér utca 3",ChIJF1xkjbjdQUcRkPiNBBv1_98,47.4783777,19.0549787
Pilates Komplex,"Budapest, Bartók Béla út 19",ChIJMbyvU2PdQUcRMW8GdS42-dQ,47.4809955,19.0519833
Martos Kondi,"Budapest, Stoczek József utca",ChIJb3-ubwDdQUcR5ZtNW6bLdTU,47.478628,19.0555968
"Tűzmadár SE. Karate (gyerekeknek, felnőtteknek)","Budapest, Hargita tér 14",ChIJY3teqh_CQUcREX-C0r8z2VE,47.4291675,19.2068523
Visionbody Adele,"Diósd, Vadvirág utca 28",ChIJJ6Ro7DzhQUcR0pX0D8OcOkU,47.4137982,18.9323494
Spartan Fightclub Budapest SE,"Budapest, Nagybecskerek utca 32",ChIJ9yk_R4rBQUcRHs_jswBqJaU,47.43899709999999,19.2200271
Nap-Hold Mozgásstúdió,"Vecsés, Fő út 119",ChIJGTgjwTrAQUcRA_o23_HTdDo,47.4107112,19.2739127
Bestrong Streetworkout Kondipark,"Nagytarcsa, Gesztenye sor",ChIJjw1VzbTFQUcRHjrN55T_vQY,47.5277864,19.2725123
Fitness park,"Budapest, Nagyvárad tér 500",ChIJ2-drzSDdQUcRgwM4AynNiIk,47.4802253,19.0910971
Misogi Aiki Dojo - Aikido training,"Budapest, Baranyai utca",ChIJ2TtfPq7dQUcRgRCDS1Avnnw,47.4725686,19.0493703
TMS Pilates Andrássy,"Budapest, Andrássy út 53",ChIJherr_kLdQUcR1DRavLK5d4o,47.50557939999999,19.0645313
TripleX központ,"Budapest, Hercegprímás utca 13",ChIJH_jq7WLdQUcRRGFkWwjr65w,47.50192859999999,19.0530348
Helia Fitness Center,"Budapest, Kárpát utca 62-64",ChIJ_UTPkfDbQUcRfQpxUpS9Qfg,47.5252014,19.0556752
Olivalife,"Budapest, Váci út 9-15",ChIJYR89vRbbQUcRBhdukxFc6wA,47.5185521,19.0613236
Amazon Fitness,"Budapest, Pesti út 368",ChIJOyKh6e7BQUcRUE5CO7hnckU,47.4700082,19.29393869999999
Reka Gym,"Budapest, Batthyány Ilona utca 8b",ChIJ6b-LWEXEQUcRiyXlFrNROnw,47.5189979,19.2298852
Body Space Óbuda,"Budapest, Vályog utca 8",ChIJ_7r8WWLZQUcRetlOhjGysEA,47.5408288,19.0318753
Pető Rita - a fizikai és mentális trénered,"Budapest, Pozsonyi út 54",ChIJ-3UNWpPbQUcR4WAEv2jE5hk,47.5205263,19.0525439
Újlipót STK,"Budapest, Balzac utca 8-10",ChIJWQlZgXvdQUcRO2U7bkd0PLc,47.5149548,19.0574842
Marosvölgyi Noémi rúdtánc webshop és Workshop. RúdMánia - MN WEAR,"Budapest, Garay tér 13",ChIJBQoAC7_dQUcRBX7Q7W2x08M,47.5043598,19.0860903
Speedfitness Budapest - Idol Stúdió,"Budapest, Dolgos utca 2",ChIJSdgDqyncQUcRaUC9LvQAmYM,47.490997,19.0218445
Gabala Pilates and Yoga Studio,"Budapest, Bécsi út 314/C",ChIJjRRBiazZQUcRViJnvefijnQ,47.571985,19.016274
"Nagea Lifestyle Testalkat- szakértő, Pilates és kismama Pilates oktató","Budapest, Lónyay utca 18.a",ChIJ5febJJ3dQUcRSRlzfVqywuA,47.486552,19.0617432
Wellnest,"Budapest, Ilka utca 47-1-es kapucsengő",ChIJzSmci3_dQUcROftYlxR4sqA,47.5109238,19.095237
Kistarcsai Élmény és Mozgás Központ,"Kistarcsa, Szabadság út 52",ChIJ2Sa2w6zFQUcRMkMYYRUYfG4,47.545883,19.260604
Synergym,"Budapest, Hungária körút 130",ChIJ2VYcH9PdQUcRfTZsO-xmb0g,47.51017969999999,19.1001281
TMS Pilates Fő utca,"Budapest, Fő utca 77",ChIJtwT3RmTdQUcRiu-y2GKyCVs,47.5105854,19.0385601
Mandala Jóga Móricz,"Budapest, bejárat a belső udvarból, Bartók Béla út 57",ChIJARhA_lrdQUcRIUZUUQET-68,47.47708,19.0446931
Fortress - Az Erőd,"Budapest, Bérkocsis utca 12",ChIJQV6eI5zdQUcRsvS5J294L1Q,47.4937184,19.0716768
Fitness21,"Budapest, II. Rákóczi Ferenc út 107-115-D épület",ChIJTcBUNPLnQUcR2RyxubjXqs4,47.4276078,19.0668932
Kültéri kondipark,"Budapest, Kelenvölgyi utca",ChIJMTlooybnQUcRWy2Hn19hvFI,47.426944,19.0002986
Solymár Fitness - Hanker,"Solymár, Templom tér 5",ChIJDR_BBrp3akcRalTBuT3lJJM,47.5915122,18.929097
Esztyoga,"Budapest, Nyugati tér 9. 2-em. 5",ChIJV-OYHXPdQUcR1bf9DZ24sUk,47.509865,19.054794
BVSC Tatai GYM,"Budapest, Tatai utca 85",ChIJBxv1EtTbQUcRummc__NMsEg,47.53666810000001,19.0925194
"MyFit Speed ConCept Személyi Edző Stúdió - gyorsedzés, EMS edzés, ampli fitness, ampli train","Budapest, Alkotás utca 53",ChIJmwP-0qLdQUcR1c9VdQgQ_E0,47.4907309,19.023923
Bodyfocus,"Budapest, Tábornok utca 3",ChIJqcLqyDDdQUcRQpwqD3SQWHk,47.50134629999999,19.1089621
Szabadtéri fittness park,"Budapest, People's Park",ChIJH8irgYfdQUcRNpmPBj1_1tg,47.480874,19.1039155
Naliniyoga,"Budapest, Gém utca 4",ChIJS5I0miLDQUcR8iGyLY8hsEA,47.4708448,19.1209865
Bertók Andrea Hangtálmasszőr és gyermekjóga oktató,"Budapest, Városmajor utca 53/a",ChIJZVF8deHfQUcRwn7AsetaBok,47.5066388,19.0158189
Gobuda Fitness,"Budapest, Bécsi út 154",ChIJ7cAf0IPZQUcRkIxGzIDPS4Q,47.54647800000001,19.027705
Bhaktivedanta College of Theology,"Budapest, Attila utca 8",ChIJU9ClbW7cQUcRKVfFacwFODE,47.5850148,19.0476524
4% Fitness Garden Branch,"Budapest, Erkel utca 18",ChIJscNH7TXdQUcRu8OnuM2KaAE,47.4878537,19.0639765
Bhaktivedanta Jógastúdió Csillaghegy,"Budapest, Attila utca 8",ChIJiQunt7jZQUcRRr46GDqGKgA,47.58499339999999,19.0476781
Mozgástér,"Budapest, Donáti utca 40-42",ChIJbUnPP1rbQUcR8GaOffgo_yo,47.5060023,19.0350691
Roxy Studio - Zumba Fitness - Dance Classes - Aerobic - TRX,"Budapest, Tátra utca 4",ChIJu2mh4Q7cQUcRs28Nufwmsc8,47.51325179999999,19.0501041
SA Gym Krav Maga Kick Box Crossfit Edzés,"Budapest, Victor Hugo utca 6",ChIJ5eqDOcHdQUcR3BIimMhQeYI,47.5174166,19.0585679
Re-Gym,"Budapest, Szív utca 16",ChIJObeFW3DcQUcRHZBcRG9kEpA,47.5080706,19.0698639
Fitness Vision Hungary Kft.,"Budapest, lrodaház földszint, Váci út 29-31",ChIJ4UoGsp-xQkcRA658UIjEgGY,47.5239759,19.0646152
Anamé PEST,"Budapest, Eötvös utca 9",ChIJ034ZmmfcQUcRSsXteJ8c9p8,47.5052972,19.0655222
Robika Gym,"Budapest, Rákos út 123",ChIJ2Q999P_aQUcRAF-VIk1sCws,47.5500003,19.1168285
Aura Pilates Studio,"Budapest, Király utca 98/A",ChIJ5QwRW7fdQUcRET7GCHB2nQ8,47.5060582,19.0700666
Taiko Hungary,"Budapest, Berni utca 1",ChIJNxj4jbTbQUcRpIglv0Ec-4k,47.55071829999999,19.0932872
VIP Speedfitness Studio,"Budapest, Herzen utca 3",ChIJfVccQn_dQUcRxKe1J-HgzLc,47.5174425,19.051791
Smartfit,"Budapest, Váci út 10",ChIJ8SBoc2rcQUcRVW427Jpjt3c,47.5126836,19.0569889
Nagyi-Jóga 50+ Kistarcsa,"Kistarcsa, Szabadság út 52",ChIJR1aBQaLFQUcRhzkijSX7D_Y,47.5456126,19.2604144
Zenit Wing Tsun Kung Fu Iskola - Budapest,"Budapest, Wesselényi utca 38",ChIJkcQ8vE3cQUcRyADLqDgmuqs,47.4995147,19.066737
Team Fitness,"Budapest, Rákóczi utca 36",ChIJvQMAr-rZQUcR2jbRNWOx5YI,47.5807418,19.0496018
Budai Akrobatikus Sport Egyesület,"Budapest, Bécsi út 134",ChIJFfmcGGXZQUcRjk37jhzbydc,47.54118359999999,19.0288031
Vecsési Boksz Klub,"Vecsés, Kálmán utca",ChIJaXD5yyTAQUcR03kWhdaL30k,47.409335,19.2757038
Joy Pilates Studio,"Budapest, Pünkösdfürdő utca 42",ChIJlaBrqR_ZQUcRKLA6wnr7esc,47.59449619999999,19.0585411
GYM & FITNESS FIVE - BUDAÖRS,"Budaörs, Építők útja",ChIJ_4_vwJ3gQUcRMsfovrFOeQs,47.4537789,18.951783
GetFitFast,"Budapest, Üllői út 19",ChIJ0xnpVlrcQUcRggPSFSwSzvw,47.4889669,19.0634119
CrossFit 314,"Budapest, Bécsi út 314",ChIJH-_nXivZQUcRx9hiekSFLHE,47.5720152,19.0162857
Jazmin Pilates,"Törökbálint, Mályva utca 68",ChIJ6cuqGvXgQUcRSUKK1Is0r-I,47.4203328,18.9310734
Bushido Honbu Kempo Klub,"Budapest, Dózsa György út 128-130",ChIJ7UF3n4vbQUcR_WKAg3Xi9qs,47.52009,19.069932
Török Gyula Ökölvívó Terem,"Budapest, Eötvös utca 7",ChIJbVedguDCQUcRZAuzH9MtVqM,47.4598964,19.1428368
Kispesti Vasgolyósedzés Kettlebell Klub,"Budapest, Szabó Ervin utca 4",ChIJO39Gf8LDQUcRQnRPf7SOzvY,47.4592023,19.146498
Bodybuilder Gym,"Budapest, Árpád Üzletház, Árpád út 112",ChIJkebfQtrbQUcRnmSl2TZFLM8,47.5604962,19.0981902
szabadtéri fitneszpark,Budapest,ChIJXfj_s0nDQUcRk6hVFRkP_EE,47.480731,19.1440454
Mandala Jóga Újbuda,"Budapest, Bartók Béla út 55",ChIJc89kY8TdQUcRd4SGv8mOvjI,47.4772764,19.045244
EBMAS Wing Chun Kung Fu - Széll Kálmán tér,"Budapest, Attila út 135",ChIJKeIdDKDeQUcRQ6HUoS1-Yek,47.50456579999999,19.0249903
T-REX Fitness,"Budapest, Kis Salétrom utca 2",ChIJYXChv17cQUcRKIzcAOZND1c,47.491806,19.0704861
Street Workout Park,"Budapest, Dózsa György tér",ChIJI-QRU_TdQUcRHndEHlFwaoA,47.49317190000001,19.0379869
Zoé Workout Törökbálint,"Törökbálint, Nádasdy Tamás utca 2",ChIJRbyVH3zhQUcR2VZCrgco_ho,47.4391601,18.9320816
TFSE Vívószakosztály,"Budapest, Győri út",ChIJEQbIXy_cQUcRReIyIVrQ50o,47.49302269999999,19.0267003
Dávid Petra személyi edző,"Budapest, Márvány utca 17",ChIJCbQahX3dQUcRBLwYSamJBwc,47.4956945,19.0242571
AUM Jóga ASTORIA - K3,"Budapest, Károly körút 3-a 1/10",ChIJY9rpVELcQUcRhv7Bnvw3rME,47.4952577,19.0596813
PIT BJJ ZR Team,"Budapest, Eötvös utca 5",ChIJu5xPINbCQUcRLvFCXN1b5SI,47.4597613,19.1426622
Intuitive Pilates,"Budapest, Széna tér 7",ChIJl5_hoqDeQUcRmwZjayaIiQA,47.50729,19.026637
Ananda Jóga és Életmód Stúdió,"Budapest, Edömér utca 4. fsz./2",ChIJjfwDhW3dQUcRfKfgot6gldk,47.4765158,19.0395433
The Shala Buda,"Budapest, Krisztina körút 75-6. emelet 1-es ajtó 18-as kapucsengő",ChIJ5YOZ7jLdQUcR_R2FAiuzg50,47.4961387,19.0333599
Galaxy Shape Studio,"Budapest, Margó Tivadar utca 7",ChIJr6RNPF_DQUcRRDhdw6mY2Lo,47.4467217,19.167894
FinOm Yoga,"Budapest, Garas utca 3",ChIJSbrif8nfQUcRc-fO1ZK4e9c,47.5099031,19.0181769
Pont Neked personal training,Budapest Rákóczi út 59 Földszint 1,ChIJb6OSsevdQUcRtPnNyZItJrk,47.498321,19.075697
BFF Pilates Studio,"Budapest, Révész utca 23",ChIJrTh3hLnbQUcRCRCdMs9XJ14,47.5276463,19.0585017
Predator Gym,"Budapest, Domus Áruház, Róbert Károly körút 67-2. Emelet",ChIJsT-i8fzbQUcR163BfR7cjYg,47.525683,19.0770519
Dina's Pilates Studio,"Budapest, Jókai utca 4",ChIJGRqlCundQUcRtIYKOAKPYAo,47.5058057,19.0608438
Kriston Egészségműhely,"Budapest, Király utca 14 1-emelet 5",ChIJvRjAEWrcQUcRPgTQzcM4T8k,47.4988647,19.0573121
A Fitness Újbuda,"Budapest, Nándorfejérvári út 40/A",ChIJCbQVPqLdQUcRSiOy4fmhzGI,47.4606813,19.0455375
Sparta Gym,"Budapest, Bécsi út 267",ChIJ3wS6MW3ZQUcR30NABPyqwyg,47.5516812,19.0290785
fitness 2000,"Budapest, Serény utca 2",ChIJa9M3nlTdQUcRJxAw1tFkBqg,47.435771,19.0947338
T-Klub fitness és tánc,"Budapest, Dió utca 2",ChIJ7deAMefdQUcRZtWJaedn0CU,47.46437710000001,19.0059925
"CSODAALGA - az ""Életelixír""","Budapest, Váci út 49",ChIJs3HG5rnYQUcRD20zYSH-U3M,47.52970759999999,19.0659829
Kondi stúdió,"Budapest, Csikihegyek utca 26",ChIJYRqcqnbeQUcRYwZCwkwn1_0,47.47294159999999,18.996407
BP Lions SC,"Budapest, Szent László út 4",ChIJwdOit0XbQUcRmZvWfwM7QqA,47.5234041,19.0834302
Base Power Plate,"Budapest, Kiss János altábornagy utca 7",ChIJ2w23nLDdQUcRxHV2abEE-QQ,47.494249,19.025741
SMASHER TRAINING SYSTEMS,"Budapest, Margitszigeti Atletikai Centrum",ChIJo-tr2S7dQUcR5KPWofH-DC8,47.5170413,19.0436326
SteelGym,"Budapest, Üllői út 737",ChIJV1bvzfTBQUcRtpGiL0DcjpY,47.42975310000001,19.2155683
TopForma Speedfitness 13.kerület,"Budapest, Gömb utca 2b",ChIJ31DonuvbQUcR9A02xblr7Ao,47.5332647,19.07195309999999
focusonyou.hu,"Budapest, földszinti üzlethelység, Petőfi utca 20",ChIJe2bCQ07bQUcRLdA0MnGZw_c,47.56074280000001,19.0953483
FitBody Stúdió,"Budapest, Üllői út 692",ChIJrSVZDDLBQUcRxx0qkmWoeXM,47.42947,19.2177599
CrossFit Soulmate,"Budapest, Cinkotai út 26",ChIJxzGaULrFQUcRsE6oEO05loY,47.489849,19.2429282
Fradibox Fight-Club Küzdősport Centrum,"Budapest, Üllői út 66/a",ChIJLVIRw_ncQUcRs3bgfixeLxM,47.4839592,19.07581039999999
Star Pilates Stúdió,"Budapest, Lakatos út 61-63",ChIJkdD-h5bDQUcRkUmLB50uYI0,47.4533161,19.1742838
Victory Fitness- Hűvösvölgy,"Budapest, Hűvösvölgyi út 138",ChIJxU7pvBvZQUcRun06nwh3N-E,47.537693,18.9666862
PILATESBODY Boutique Stúdió,"Budapest, Budafoki út 13-Kapucsengő 24",ChIJKbc8iGzdQUcRHgaixV7BsE0,47.4817993,19.0535164
Rokko Gym,"Budapest, Barcsay utca 3",ChIJNxNDq_jcQUcR4SPBNWPb23w,47.4998813,19.0701248
SUHANJ! Fitness,"Budapest, Tátra utca 6",ChIJbRCg3w7cQUcRvWqX1Blulng,47.5134955,19.0502451
Flat Fitness Body & Soul Studio,"Budapest, Budafoki út 9-11",ChIJ8Wo2TrbdQUcRDzD4oSoTSX0,47.4821567,19.0537267
Kőszikla Mozgás stúdió,"Budaörs, Szabadság út 48",ChIJLUw9dCTeQUcRWPhc_Q35_os,47.4608491,18.9571105
sportpark,Budapest,ChIJmbFdV_TDQUcRn4Lbp15N8_4,47.4797081,19.1432483
KALAH SYSTEM Budaörs (Személyi önvédelmi edzés),"Budaörs, Építők útja 2",ChIJcQbueqbgQUcRRuqoMfG_5nU,47.4551588,18.9514818
Elevenyoga stúdió,"Budapest, Róbert Károly körút 36-I em",ChIJ_0wqinLbQUcRrYye1Mkl4v4,47.5314353,19.0692285
Kenguru Fitness,"Budapest, Victor Hugo utca 8",ChIJkW_WbArcQUcRy0SGXZj4P9I,47.517414,19.0585774
SHE Fitness Újbuda,"Budapest, Lágymányosi utca 17b",ChIJ3-sFP63dQUcR2tb7Z7hUQ-8,47.47733119999999,19.0531616
Yoga Liget,"Budapest, Jávor utca 3",ChIJC5ikWIPdQUcRale58VGIkTE,47.5098107,19.0949563
Pince Gym,"Budapest, Ihász utca 27 /A",ChIJ83UnlhTDQUcRvnQjssgGeZk,47.48184020000001,19.1391872
Spala Kori Jógastúdió,"Budapest, Szalay utca 2",ChIJTaDv4-XdQUcRVzh01YkpasA,47.5086915,19.0486107
Life1 Váci35 Fitness,"Budapest, Váci út 35",ChIJX9pEzT_bQUcR-gfU8IA9T4M,47.52528150000001,19.0648518
"Központi Budo Akadémia - Judo-, Jiu-Jitsu oktatás","Budapest, Krisztina körút 59b",ChIJTT21dSTcQUcRaKv5T8oaFEM,47.49749559999999,19.030251
Street workout park,"Budapest, Maderspach Viktor 41",ChIJuxROWFzFQUcR4gXf8xw4u_o,47.5089839,19.2074781
Halász Fight & Fitness,"Budapest, Maláta utca 10",ChIJD7Iqx2rDQUcRlYhd7VuS_xA,47.4899643,19.1421875
Szépvölgy Judo,"Budapest, Cseppkő utca 74",ChIJSfcusjPZQUcRlTNFjz3gtAM,47.531087,19.0037597
Fitlife Studio,"Solymár, József Attila utca 16",ChIJd_WIhy13akcRFmBr_w5Mr2Y,47.59241240000001,18.9358884
KRE-Konditerem Edző,"Budapest, Szabadság utca",ChIJkY2BAV3BQUcRiZnuwUgdrcU,47.4679939,19.24375999999999
Starfit,"Budapest, Királyhágó utca 81",ChIJ_wPMPqPBQUcRhVdSNVlebaA,47.42054719999999,19.2093685
Auraboost Jógastúdió,"Budapest, Üllői út 95",ChIJa3HvZQDdQUcRTvqn6L3boig,47.4816911,19.0811739
Oktogon Mozgás Akadémia,"Budapest, Eötvös utca 11a",ChIJzeT3QG7cQUcR5DK2S74Hlak,47.5054695,19.0653035
Budai Callanetics Stúdió,"Budapest, Margit Körút 48",ChIJBUThGR3cQUcRI4DnpOJMenk,47.5109234,19.0327458
Magyar Nyugdíjasok Egyesületének Országos Szövetsége,"Budapest, Szövetség utca 9",ChIJR0xYSGHcQUcRiEU_BNIdr3A,47.4991947,19.0744205
Bhaktivedanta Jógastúdió Blaha,"Budapest, József körút 8. 4-emelet 4",ChIJ3eaUysDdQUcRu9mZIx2w3X0,47.4957682,19.0711516
Ute Birkózó Csarnok,"Budapest, Megyeri út 13",ChIJba1evRjaQUcRmO7979ZOT9k,47.57459569999999,19.0828493
FullFitness,"Budapest, Igmándi utca 1",ChIJeV4xKJTdQUcRwshDmg94YwA,47.45732909999999,19.0191646
Brothers in Arms Budapest,"Budapest, Deák Ferenc tér 2",ChIJE9ZE0_ndQUcRLtd0xXbqPYs,47.4980357,19.0535959
Élj harmóniában - jóga | meditáció | életmód | gerincterápia,"Budapest, Benczúr utca 12",ChIJIUiAuXDcQUcRTd4rJw2QvMk,47.509934,19.072357
Csömöri Sports hall,"Csömör, Major út 7-9",ChIJub855Q3FQUcRZy7IuKZOyRs,47.5467477,19.2193054
Step by Step mozgásstúdió,"Budapest, Baka utca 2",ChIJJ9apAanfQUcRhmQDCsQGc1I,47.5120029,19.0260373
Megathlon SE,"Budapest, Bartók Béla út 61",ChIJiQRUDgDdQUcRn6Yip1xz5Jk,47.4768731,19.0439357
SXL Fitness and Gym Fogarasi,"Budapest, Fogarasi út 47",ChIJfyE6lVjbQUcRDjVSbotfVKw,47.50721009999999,19.1262421
Regenout Gym,"Budaörs, Munkácsy utca 9",ChIJlSf-LQDfQUcR9iCoEQT9xEQ,47.4570066,18.953384
Outdoor Gym,"Budapest, Szent Adalbert tér 1",ChIJM20b89ndQUcRreMWf6HuRwY,47.47419239999999,19.0110643
Chrisfit Gym,"Budapest, Eleven Center, Rétköz utca 7",ChIJn4jnfEbdQUcRteQmw6tXGaE,47.4667067,19.0062267
Egyensúly és Jóga,"Budapest, Szérű utca",ChIJf9VZf03FQUcRfQ47b_TZ6WE,47.506646,19.1829904
LevendulAroma Jógastúdió,"Budapest, Barázda utca 5/B",ChIJrZ_IO4zdQUcRPv2mTc2a_i4,47.4568357,19.0487575
Amazon Futballaréna,"Budapest, Galvani utca 2",ChIJzYYUd5ndQUcRHSJ09yBNOjg,47.45601389999999,19.0406922
EBMAS Wing Tsun kungfu Belváros,"Budapest, Gönczy Pál utca 2",ChIJHw-0M-LdQUcRSFJlg2hpRvw,47.487301,19.0599415
CrossFit Budapest,"Budapest, Hamvas utca 7-9",ChIJVynHXwLDQUcRWWl71FdRAx8,47.4632478,19.1335382
Szabadtéri fitneszpark,"Budapest, Zsélyi Aladár utca 7",ChIJBYVa7ijFQUcROVxa04xzz4g,47.509172,19.1931869
Bandha Works Astanga Jógaiskola,"Budapest, Frankel Leó út 18",ChIJA0IgaQPcQUcRZhN2cDFjeBQ,47.5141354,19.0373283
Hobbiboksz SE,"Budapest, Bezerédj utca 4",ChIJ1dnNyVncQUcRBVzvRp5nfsI,47.4965165,19.0729622
White Lotus Yoga Studio,"Budapest, Vécsey utca 3-2. emelet. 23-as kapucsengő",ChIJm7G9mRjdQUcR72Fy6BpboBY,47.5053952,19.0493696
Barkan jóga,"Budaörs, Szabadság út 86",ChIJ_VWRcT3fQUcRF63o2KXpksQ,47.4603962,18.9534229
Bravo Juggling,"Budapest, Frankhegy utca 5",ChIJQyFKc3XeQUcRi7eM02M8ofU,47.46966809999999,18.9992069
Mitra Jóga-sziget,"Budapest, Mester utca 46",ChIJJS83rvjcQUcRDjIODD4Mr_o,47.47862299999999,19.073896
Oldschool Headquarters,"Budapest, Baross tér 11",ChIJY_v2PCbdQUcRegzTkl_9U6w,47.5008533,19.0850471
Kültéri edzőpark,"Budakeszi, Kert utca 29",ChIJB6Ux2JvfQUcRrPHW1-_aKU0,47.5026339,18.9223063
Re-Form Stúdió Budaörs,"Budaörs, Budapesti út 123",ChIJg1i5TBDeQUcR71qUyONzj_0,47.46312139999999,18.9795918
Aquincum Fitness,"Budapest, Vízimolnár utca 2-4",ChIJJe28-JrZQUcRVdlEy-zqzVg,47.5679125,19.05122459999999
Arunachala Stúdió,"Budapest, Kuruclesi út 63",ChIJO_sH7SrfQUcRYFgY30a02cM,47.5270379,18.9728191
"SkillGym önvédelmi, harcművészeti és erőnléti központ","Budapest, Utcafronti bejárat, Thököly út 137",ChIJy6yOVOHbQUcREPsfgNJlYuE,47.5150498,19.1054432
Vitalabc,"Budapest, Árbóc utca 2",ChIJAX0LsO7bQUcRK-35V4QQB_s,47.5315351,19.0656277
Normafa Retreat Center,"Budapest, Eötvös út 52-54",ChIJc71p0j3fQUcRXa0fGEh6s2w,47.5009786,18.9661687
CrossGenesis - Ujpest,"Budapest, Munkásotthon utca 33-39",ChIJ2crgvUnaQUcRcO-U4-njRVc,47.5589201,19.0953261
Pilates Salon,"Budapest, Lövőház utca 31",ChIJN9EBpIffQUcRHjD1HEQxrtw,47.5104009,19.0242539
Garden-Fitt Kft.,"Budapest, Hűvösvölgyi út 54",ChIJ5Zu3udbeQUcR5I1TrZwrA1w,47.5242155,18.9862328
Csige Bogi Edző Terme,"Budapest, Vérmező út 10-12",ChIJ0bEEjsDfQUcR0VK05wL6FNA,47.5064459,19.0254774
A Fitness Pesterzsébet,"Budapest, Török Flóris utca 116",ChIJdU21hgXDQUcR6k3-hKTENHc,47.4343967,19.1112353
Fűzy Pilates Kft.,"Budapest, Lublói utca 4",ChIJ-elp8FPZQUcR7fTkvknMa-4,47.527065,19.0328385
Gyenko Gym 2.,"Budapest, Csengettyű utca 8",ChIJuzZvvSvdQUcRw0_3SVKioFg,47.4645799,19.1122979
Prana Pilates Studio,"Budapest, Erdősor utca 33",ChIJl5qIugTnQUcRPfy6b48BZDk,47.41448159999999,19.0638622
Maszat Gym,"Budapest, Villányi út 4",ChIJ--3zQ3TdQUcRSmrGZUfX9Yg,47.4778399,19.0455806
Limes Holding Zrt.,"Budapest, Fóti út 56",ChIJvZycKRTaQUcRi39q-7QjJns,47.5771848,19.0951832
Formál-lak Wekerle Mozgásstúdió,"Budapest, Hungária út 28",ChIJ95M_i7XDQUcRCYM6VXh1jd4,47.4552014,19.1225577
Infratrainer Golden Body Corvin Stúdió,"Budapest, Corvin sétány 1",ChIJHZLSoEPdQUcRfpjenYMLzIM,47.4855451,19.0755932
Budapest Systema,"Budapest, Győri út 5",ChIJlfz5hFrcQUcRcicG_XoB_jw,47.4943927,19.0264347
Rúdvilág Stúdió (RVS),"Budapest, Teréz körút 9",ChIJMUdPjIDcQUcRmJT8gFyRxZU,47.504507,19.06466529999999
Nia Enikővel,"Budapest, Folyondár utca 15",ChIJsQOQjE_ZQUcRBWFqTFZNXdI,47.5332277,19.0286899
A TEREM,"Budapest, Árpád fejedelem útja 80-81",ChIJ79RFV1jZQUcRhu-5OozLNws,47.5334388,19.0426985
Life1 Fitness Nyugati,"Budapest, Nyugati tér 1-2-II-III. emelet",ChIJTR9zbQ3cQUcR6IB2jE42KUM,47.5098338,19.0556877
Famászókás Játszótér,Budapest,ChIJc_vf4v7bQUcRCofbckQb940,47.5234959,19.0434004
Equal Stúdió,"Budapest, Lágymányosi utca 7",ChIJiVI_kGHdQUcRUd3nKxDuV1U,47.4779624,19.0507387
Zuglói Fitness Club,"Budapest, Fűrész utca 23",ChIJgei8_GjbQUcR0rXJWtz3VBI,47.5199071,19.120727
D.Upstairs,"Budapest, Arany János utca 55",ChIJV_jb9-nEQUcRDy3TWMPzw2E,47.5213082,19.1869217
"Body&Soul Jóga és Mozgásstúdió, Újbuda","Budapest, Kruspér utca 6-8",ChIJ38wfOUPdQUcRuYG7dVgKirk,47.4780884,19.0545703
Aikido Meikakukai,"Budapest, Lövőház utca 16",ChIJt9WALuvfQUcRHUPxTyqQvw8,47.50969550000001,19.024708
v30 Belvárosi Sportközpont,"Budapest, Vadász utca 30",ChIJ8Z4BU2PdQUcR4VcYb9CoxKY,47.5054848,19.0535042
Rákosmenti Karate Sportegyesület,"Budapest, Pesti út 195",ChIJ4U6_4k3BQUcRv-qs-V4uoBs,47.47822670000001,19.2607005
AGORA Mozgástér | Galéria | Café & Tea,"Budapest, Üllői út 6",ChIJHwel6dLdQUcRBisF4RHclwI,47.4889571,19.0634552
Tánya Háza az egészség háza,"Budapest, Rubin utca 7",ChIJMzbAmwXbQUcRLqVdlWKKgW4,47.5389543,19.1193421
Metropole Dance and Aerial Studio,"Budapest, Aradi utca 19",ChIJI3yhAQrdQUcRjBLAOEUlFY4,47.5072075,19.0641347
Train Lab Budapest,"Budapest, Wesselényi utca 49. Fsz. 1",ChIJt8BR4PzdQUcRcEVIsrJd9So,47.5009303,19.0697987
Calisthenics Home,"Budapest, Kuruclesi út 9/A",ChIJAd7Fce7ZQUcRKgcos_fncf0,47.5204297,18.985201
Kültéri edzőpálya,"Üröm, Gábor Áron sétány",ChIJazYUXajZQUcRpH8aTatMdmA,47.58930910000001,19.0093098
Zen Room Yoga and Pilates - Bikram Jóga Újbuda,"Budapest Bartók Béla út 105-113, Bartók Udvar 5-épület 1. emelet",ChIJT8mt2EfdQUcRMfbtccdeMOM,47.4721699,19.0314012
F5 Fitness & Gym,"Budapest, Madarász Viktor utca 4",ChIJO8F2nnrbQUcRNKzLJ-fGP-Q,47.54420870000001,19.0735311
Studio Gaia Buda Mozgásstúdió,"Budapest, Budafoki út 41",ChIJFWHGvULdQUcR3cWyCmMwRAU,47.4784857,19.0535378
Ute vívócsarnok,"Budapest, Király utca 71",ChIJwbnnp2_cQUcRTd4g94PbRkY,47.5040947,19.0671242
Fitness 5 & Gym KÖKI,"Budapest, Köki Terminál",ChIJX2BLfADDQUcRgpZqYd0ohi8,47.4623959,19.1465112
Rákoshegy Tekepálya,"Budapest, Bakter utca 1961",ChIJZRW_K1zBQUcR1eo0kdRVz7M,47.4682686,19.2455701
Pilates Fitness Studio,"Budapest, Lipcse utca 12",ChIJn8hdCLHEQUcRKTNoCqdsc1M,47.50928349999999,19.1714476
Mantra Yoga Studio,"Budapest, Margit Körút 31-33",ChIJ3RbjiB3cQUcRNznWGFodVy4,47.5117936,19.0337459
Brazil Jiu-Jitsu T9,"Budapest, Daróczi út 4",ChIJlZSKcQDdQUcR9S0aMNkXQII,47.4809747,19.0294606
One More Fitness Studio,"Budapest, Bartl János utca 2-BB épület",ChIJDzgJg6vbQUcRRXYNU3qJSgU,47.5229576,19.1256813
Amazon Women's Fitness Club,"Budapest, Kőrösy József utca 17",ChIJw44s3bHdQUcRUb-jvbgJUTY,47.4729548,19.0472049
Nemes Fitness,"Budapest, Nemes utca 103",ChIJnajNAgDqQUcR_ThokVLC97A,47.4134261,19.2013354
Time35 Fitness,"Budapest, Paulay Ede utca 9",ChIJ57KWF-ndQUcRJ6QEG-pyo5w,47.49954459999999,19.0563969
Angel Yoga Budafok,"Budapest, Kiránduló utca 103",ChIJNYOM2G3nQUcRla20N8lHNqs,47.4292354,19.0096674
"River Fitness - fitness, aerobik, fitness terem, konditerem, gym, személyi edzés","Budapest, Révész utca 29",ChIJ_717D_DbQUcRei-6uxXODJQ,47.52793399999999,19.057224
E-Fit Studio & Showroom,"Budapest, Szabadság tér 7",ChIJkyUXwZ_dQUcR3fZ3hABCyGs,47.5026264,19.0521274
108 Center - Lalita Ltd.,"Budapest, Szent István körút 6",ChIJtQjcGg_cQUcRKHpPaC04I8A,47.512867,19.049327
F5 Fitness & Gym,"Budapest, Szabadság tér 7",ChIJl69mwEXdQUcRaddx-zSCG0Y,47.5028034,19.0521024
Emsfit,"Budapest, Kadosa utca 58",ChIJU86Jm5DZQUcRopDFaGtUk-o,47.5704554,19.0515992
KSI csarnok,"Budapest, Istvánmezei út 3-5",ChIJBcq8GwDdQUcR54SAUTRJfRQ,47.50371599999999,19.0919786
Infratrainer Csepel,"Budapest, Kossuth Lajos utca 117",ChIJ2ZzXgDXnQUcRbp3gWFRhQrw,47.4201431,19.0666503
minimaltraining,"Budapest, Szobi utca 4",ChIJq_rtuHLcQUcRFDkMPoAIY4U,47.5091084,19.0596643
Daily Fitness,"Budapest, Pálya utca 9",ChIJ7-S-SiTcQUcRpaS2X6io4I8,47.4954628,19.0283966
Intimate Gymnastics Gottlieb Ildi,"Budapest, Gellért utca",ChIJpc6nkMXCQUcRvOEtTMF8TcU,47.4527163,19.1242997
Fűzy Pilates Budafok,"Budapest, Szent Mihály utca 16",ChIJoxJ9oWrnQUcRTqURTKINduU,47.4179425,19.0090701
Zsivora Park- köztéri Fitness Pálya,Budapest,ChIJebMzoqzEQUcR8X7K5h54dwQ,47.5081448,19.1484085
Purnam Jóga Akadémia,"Illaberek studio, Átmenetileg, Budapest, Nagy Lajos király út 205. 1142",ChIJtQ2TCcnbQUcRmaHgdbIsDAI,47.5569139,19.1281059
Barázda u. 1.,"Budapest, Kondorfa utca 18",ChIJVaolAwDdQUcRebvyTHMfvXc,47.4526471,19.042912
Thay Won Do,"Budapest, Somogyi Béla utca 13",ChIJl4223F3cQUcRFlezP6ZJoKQ,47.49442799999999,19.069523
Adrienn Női Mozgásstúdió,"Budapest, Margit Körút 36",ChIJdWMHKwPcQUcR1j0qHZlt0OA,47.5123166,19.0348336
Dori's Move,"Budapest, Bartl János utca 2",ChIJg11E_hjbQUcRszFYsu48fSA,47.5229562,19.1256587
Vitality Pilates Stúdió,"Budakeszi, Szüret utca 2",ChIJfdOtzi3fQUcRZwE2mrOrEUQ,47.5029698,18.918613
Animus Pilates Studio Sigma Budapest,"Budapest, Sütő utca 2",ChIJm5P4fg7cQUcRBQq2Uyx1pos,47.4967538,19.0541752
Antaranga Jógaközpont,"Budapest, Sasvár utca 91",ChIJVVUJjr_EQUcRMQ9hCoSPiLI,47.5169292,19.1802749
Anaya Mozgás- és Jógatér,"Budapest, Mesgye utca 21",ChIJz8YybgDpQUcRmNYKKQR74cU,47.4188753,19.1332028
CrossFit B'Bros 2.,"Budapest, Márton utca 4",ChIJPWLZ_PzcQUcRJrB-UBa5ST0,47.477023,19.0776977
Taekwondo and Kickboxing Organization (TKO),"Budapest, Ajtósi Dürer sor 15",ChIJT7gxWIfcQUcRRtSEKFxMEfE,47.508353,19.0882272
Toto Sport - Funkcionális edzések Budapesten,"Budapest, Szegedi út 48",ChIJzSs7Q43bQUcRjr3iKG_hPK4,47.5284861,19.0835226
Asztroporta-Tövissi Enikő-KarmaAsztrológus,"Budapest, Rákospalotai határút 21",ChIJaTufGgXbQUcR3bPNqSwFI1c,47.527012,19.1486541
Vibromove - Power Plate Zuglo,"Budapest, Bolgárkertész utca 25",ChIJXZGgC-zdQUcRauhNOFZh_K0,47.504553,19.1338149
VIDA Fitness & Gym,"Budapest, Telepes utca 37/ 39",ChIJ5eYmprzdQUcRc3qWCA5nc74,47.5230918,19.1137218
EvolutionFit & Rehab,"Budapest, Somfa utca 5d",ChIJuwUTx-bdQUcRlEYctbWx-34,47.4742197,19.1210616
"MovementAddict Mozgásszervi rehabilitáció, manuális kezelések, gerincjóga és pilates","Budapest, Üllői út 704.A",ChIJkepEM8_dQUcRNDeHkGQ_ouU,47.4288213,19.2194611
Igmándi utcai pingpongasztalok,"Budapest, Park, Mikes Kelemen utca 1",ChIJvTGTUwDdQUcRGXYIkVKtX_M,47.4565742,19.0192434
A funkcionális jóga terme,"Budapest, Garas utca 1",ChIJYdFjbQrcQUcRlYhieCjiPNE,47.5095394,19.0177459
MS MozgásStúdió,"Budapest, Podmaniczky utca 69",ChIJjzhVQ3TcQUcRRbewvFdk5J8,47.51340799999999,19.065973
F&M fitness and more,"Budapest, Csörsz utca 14-16",ChIJxflItS7cQUcRRaU5TDPLo9g,47.4899557,19.0227128
Kamala Mozgás és Életmódközpont,"Budapest, Bartók Béla út 10",ChIJP-72tiTcQUcRAGxrG2G0JlA,47.48229449999999,19.0530453
Korpácsi Éva - Gyógytornász Budapest - Személyi edző Budapest - Funkcionális edzés - TRX,"Budapest, Sopron út 19",ChIJef168unbQUcRgMlQmSzICQc,47.4679869,19.0457572
Forrás Ádám Wow! Women's Only Workout,"Budapest, Erzsébet körút 19-1 emelet",ChIJr6HKdwDdQUcRjgfujCTv3yM,47.49996729999999,19.06923609999999
Pilates Garden,"Budapest, Alacskai út 10",ChIJ89TjMhLBQUcRqLUTertvsG8,47.41495140000001,19.2088994
Millennium Wellness Kft.,"Budapest, Lechner Ödön fasor 8",ChIJ88tvLQLdQUcR7cVTFXcRFxE,47.4729243,19.0710443
Carlson Gracie Budoka Team - BJJ,"Budapest, Lipthay utca 10",ChIJC8TPvwDdQUcR4AmorQ3nXuw,47.5139953,19.0381379
Diamond Gym Muaythai Club,"Budapest, Volt Pólus Hotel, bejárat a Mc'Donalds felől, Szentmihályi út 131",ChIJqRN_3ZrbQUcRwbNZhRaDLyU,47.55006909999999,19.1385537
Frem Studio,"Budapest, Fehérvári út 130",ChIJR9uuTzHdQUcRinDopYrM6fw,47.4555053,19.0416103
Multisport Bázis,Budapest,ChIJVQFhlUTbQUcR2snNnrtP3yQ,47.580684,19.106728
Muaythai Mania Gym Budaörs,"Budaörs, Táviró köz 2",ChIJ_7fyiJ3gQUcRQzT791AIK04,47.45747639999999,18.93672819999999
MARGARET ISLAND YOGA,"Budapest, Nagyrét, Zielinski Szilárd sétány",ChIJ0U2CmOTbQUcRsyzAuLUUz7w,47.5316231,19.0522305
Infratrainer Óbuda Kerék u 28.,"Budapest, Lajos utca 49",ChIJu-wfHxrZQUcRb3DehaEEqGU,47.52907920000001,19.0392393
Studio Sissel,"Budapest, Bártfai utca 5",ChIJo1ixd6jdQUcRhNYBPYXEacM,47.4675344,19.0428961
Sándor Attila személyi edző,"Kistarcsa, Szabadság út 14",ChIJKdeGrtvFQUcR9t3m1ijIuGU,47.54283270000001,19.2560298
Downdog Jóga Oktogon,"Budapest, Eötvös utca 26/c",ChIJlXEoi23cQUcREkmKdylFW9g,47.507166,19.06251
Yogaterrace Studio Marina part,"Budapest, Úszódaru utca 2 1-em 2",ChIJ22o-cofbQUcRPoIXAd9M24M,47.5471605,19.0651245
Élan Beauty Stúdió,"Budapest, Istvántelki út 2",ChIJ5ds1O4rbQUcRnZ8qwspA8Tk,47.554702,19.1044351
Ráday Fitness Room,"Budapest, Ráday Gedeon utca 1",ChIJoxxHrsnDQUcRlrVKxk8t7ww,47.441444,19.188032
Nagy Sportágválasztó - A Sport Napjai,"Budapest, Maglódi út 12a",ChIJvUfptUHDQUcRV8aXN2ccgT8,47.48419529999999,19.15786499999999
TMS Pilates x Vízangyal Beauty,"Budapest, Garda utca 3",ChIJGbMkb1DdQUcRIhn6Pmtd-FM,47.4674119,19.0570495
TrendyDance Tánciskola - Bp.XVI.,"Budapest, Thököly út 12",ChIJ527crbzEQUcR96HgUjfQtq8,47.509029,19.1706411
Core Fitness Kerepes,"Kerepes, Szabadság út 102",ChIJP9xdy_PFQUcRY9oHazHRaLM,47.5553302,19.2756653
Harmónia Fészek,"Budapest, Kuny Domokos utca 9",ChIJB76z1uDdQUcROddNob-Uct8,47.4978543,19.0280853
Cutler,"Budapest, Könyves Kálmán körút",ChIJV85bXz7dQUcR9zfADBTsNuI,47.4699464,19.08431749999999
Hanumán Jóga,"Budapest, Erőd utca 16",ChIJHfpyqOzdQUcRysgOH0gz_B4,47.5099482,19.0316201
sportpark,Budapest,ChIJswcCUnHbQUcRput9rsrilNc,47.52036629999999,19.133447
Aréna Fitness,"Budapest, Duna Plaza Bevásárlóközpont Parkolóház, Váci út 178-V. emelet",ChIJKULrQcLbQUcR37t1lLKxH24,47.55100309999999,19.073599
Platina Jógastúdió,"Budapest, Platina utca 1",ChIJccaOhx7nQUcRr5wCwyEneys,47.4122581,19.0241699
"Adi Shakti Kundalini Jóga, Meditációs- és Oktatási Központ","Budapest, Bakáts utca 5",ChIJFVZq9VbcQUcRaJge2Qmvg3o,47.482583,19.065565
Chili Fitness 4,"Budapest, Kossuth Lajos utca 117",ChIJTfEH1-7nQUcRQgUcq6THayE,47.4206247,19.0670954
BVSC Birkózó edzőközpont,"Budapest, Tatai utca 85",ChIJv5149S3bQUcRMEqBZQ2ILNc,47.5364324,19.0935664
Óbudai Judo Club,"Budapest, Farkastorki út",ChIJS99jaxPZQUcRYyYhPuUOFAA,47.5504532,19.0258258
Matrix Holistic Center,"Budapest, Matrix Holistic Center, Hajós utca 32",ChIJf3wfwgrdQUcR6-c5DfHan4g,47.5052095,19.055851
Globus Shooting Club,"Budapest, Maglódi út 47",ChIJ9bY3rUHDQUcRX24rUX2x2WQ,47.4841264,19.1564214
Ensana Health Club Margitsziget,Budapest,ChIJcZkk6c3bQUcRVnfKBCPAOis,47.533554,19.052344
Bikram Jóga Központ,"Budapest, Károly körút 1",ChIJgb7uA0PcQUcR7aZO7Z-ssWg,47.49479349999999,19.0601405
All Out Boxing,"Budapest, Rottenbiller utca 34/a",ChIJLWXNMG_dQUcRb0cZOhjqEkU,47.50334530000001,19.0757357
Bibubell - Kettlebell (SFG) and Functional Training,"Budapest, Munkásotthon utca 33-39",ChIJD5Y6vknaQUcRVaMmlPMCr0o,47.5589909,19.0950991
RELOAD STUDIO,"Budapest, Izabella utca 76",ChIJseeEME3dQUcRHbB_H4fvN2s,47.5095591,19.0646606
Colorful Women's Gymnastics Studio,"Budapest, Kossuth Lajos utca 12",ChIJff9IkUPcQUcRKdydU55-KNw,47.4938728,19.057552
Budafok szabadtéri kondipark,"Budapest, Mementó Szmolenszkért, Hajó utca",ChIJPV4qOQDnQUcRmqoTbWt54Yw,47.42891199999999,19.0431606
REDGYM Hungary,"Budapest, Kresz Géza utca 24",ChIJqWdYlAvcQUcRsavKjjWdkBs,47.51439289999999,19.0565905
360 GYM Kraver,"Budapest, Rózsa utca 47",ChIJyQOvv1HdQUcRISaVt174Y1s,47.5060892,19.071171
KrokiKondi,"Budapest, Országbíró utca 38-42",ChIJF43vzZ3bQUcRza9SgBhS1So,47.53151320000001,19.0822582
Predator Gym,"Budapest, Róbert Károly körút 67",ChIJ3fzNWJHbQUcRw7b1_JBQMWc,47.525683,19.0770519
Sivananda Yoga Center,"Budapest, Szegfű utca 2",ChIJa2JozrjYQUcRP7T1ek_nmbQ,47.5489752,18.9649448
BodyShape,"Budapest, Arany János utca 62",ChIJE5-HVcLFQUcRH6Ju4WRSYsU,47.51774210000001,19.1904407
Testnek és Léleknek Masszázs Stúdió,"Budapest, Ezüsthegy utca 64",ChIJ76K5U_XXQUcRmN3tAM4opps,47.60193859999999,19.0474587
Jóga7 Stúdió,"Budapest, Rózsa utca 14",ChIJDbPKlgXFQUcR608tX-SWAAY,47.51460269999999,19.1564191
Coccinelle Pilates,"Budapest, Lovag utca 13",ChIJDTWC_2TdQUcRzPR4odCkFo4,47.5067397,19.05812
FIGHT CLUB Hidegkút,"Budapest, Gazda utca 1",ChIJ1Q0m-XPZQUcRRiAD0KLvF-o,47.5641374,18.9624578
Fitt Életmód Stúdió,"Budakeszi, Knáb János utca 8",ChIJw12HgmjfQUcRu7nwp-ScoH0,47.5167856,18.9303932
Életerő mozgásműhely,"Budapest, Margó Tivadar utca 33",ChIJfWonyVPDQUcRMiHyENQY87A,47.44301189999999,19.1696542
The Training Station - Gym & Fitness,"Budapest, Aradi utca 4",ChIJ66Gku23cQUcRX6IhtjVuQZY,47.50611809999999,19.0616031
Keleti Álmok Háza,"Budapest, Rozsnyay utca 9",ChIJ8SB3UMHbQUcR2wM2lVj8PGQ,47.5404733,19.0732689
Gilda Max Fitness Florian,"Budapest, Flórián tér 6",ChIJdeetcGfZQUcRSBe9zB4iSpQ,47.5425105,19.0404361
JOHN REED Fitness Budapest,"Budapest, Váci út 45",ChIJlSDI6O3bQUcRPO0_5TZdxZw,47.5279473,19.0664356
Airzone Jóga,"Budapest, Reményi Ede utca 3",ChIJI46FeZ7ZQUcRrwo-p0WBn-g,47.5557633,19.047892
WAKO EUROPE,"Budapest, Csikó sétány 3",ChIJr7RKONnnQUcRnlYm5MG-sdk,47.4083969,19.0720605
PilatesBase Reformer Pilates Stúdió,"Budapest, Lukács utca 2",ChIJ13M4EFbZQUcRik1az4bAWeg,47.5249126,19.0388231
B Silver Club,"Budapest, Hárslevelű utca 19-25",ChIJYyzYb4XDQUcRoYdzDbSD6oM,47.4848238,19.2036628
Sziszkatraining,"Budapest, Fogarasi út 125",ChIJXT8-pH3bQUcRZQncgevxTcc,47.5138635,19.1375942
"Családfelállítás Egyénileg személyesen és online, vagy csoportban AvVenturin Stúdió Budapest és Kiskunfélegyháza","Budapest, Jósika utca 29",ChIJmd5TdLjdQUcR-OyHlQRYv_E,47.506078,19.072639
INVERZ - Aerial Yoga & more,"Budapest, Ugocsa utca 5",ChIJBX3OvPLdQUcRolqyhu6rVRE,47.4940551,19.0215949
Justfit Marina,"Budapest Csavargyár utca 3 D épület1/115, kapucsengő: 4115",ChIJT3lL4QXbQUcRXb7_jX5myFk,47.5461852,19.0706437
Vasimádó Kettlebell és Funkcionális Edzőterem,"Budapest, Hídvég utca 4",ChIJITrp18fdQUcR8zYlVemFChc,47.4720906,19.0296487
TEK,Budapest,ChIJT1fhvH7dQUcRBNcE6bmjI04,47.4935948,19.1140559
UBT Unique Basketball Training,"Budapest, Kunigunda útja 68",ChIJ0VxVolXdQUcR_gEzdRcEhsQ,47.56067499999999,19.03492
Zen Pilates,"Budapest, X. utca 1",ChIJASjJYq_HQUcRR-wYOy9un5Q,47.4894349,19.2598516
Fit Exercise Studio,"Budapest, Batthyány utca 23",ChIJSVl7qB7cQUcRpllGYAJPel4,47.5070418,19.0337773
Sword and Yoga - Yoga Retreats in Europe,"Budapest, Király utca 28",ChIJGYsPqDLdQUcRBkcbS-emlyE,47.499745,19.059188
Nice Body Studio,"Budaörs, Otthon köz",ChIJYy7uoizeQUcRZYMshmCRhcg,47.46297059999999,18.93930779999999
Chili Fitness 5,"Budapest, Hengermalom út 19-21",ChIJv3AcWaDdQUcRBlN5cqiYnF8,47.4607124,19.051446
Kurdy Thai Box,"Budapest, Klauzál tér 13",ChIJQWbG5WjcQUcRIEs_qQizEjk,47.5003109,19.0641368
Westfit Gym,"Budapest, Jókai utca 15",ChIJEx_eZW3cQUcRPp8Kb6kZhB8,47.5073365,19.0592985
Liget Wellness,"Budapest, Ferihegyi út 27",ChIJQ9_JTqnGQUcRGqsjmyzqfKc,47.48922100000001,19.2593494
Glotz Mária Pilates,"Budapest, Hársfa utca 40",ChIJn6HRqA_cQUcRbZHzGF4Fgm4,47.502041,19.068903
Darshan Jógastúdió,Szófia utca 15. Fsz.1. 22-es kapucsengő,ChIJ83oes2_cQUcRjsZeaxgulyI,47.504872,19.0666773
"Manuálterápia, Pilates Budapest - Levivel","Budapest, Kapás utca 26",ChIJx_ZcPHHFQUcRMFMGT0eUc_Y,47.5098721,19.0334391
Stretchy Studio,"Budapest, Kerepesi út 1-5 F-lépcsőház 1. emelet 20",ChIJM0arkj3dQUcRnv6-f3FtpPg,47.4994046,19.0831075
300gym,"Budapest, Terv utca 1",ChIJ93hZ1gTnQUcReC0NDVBgjJU,47.41260039999999,19.0065931
Európa liget focipálya,"Budapest, Babits Mihály sétány 7",ChIJZcnxdL7dQUcR7379rg7MKgU,47.50493950000001,19.0327634
Mayfly Aerial Studio,"Budapest, Cziráki utca 24",ChIJ-ZJ3KGLFQUcRDmOa9ntO0II,47.5077334,19.1609436
Dora Yoga Outdoor,"Budapest, Margitsziget, Dora Yoga - Outdoor",ChIJpwfU6cnbQUcRQV7djbRNNnE,47.52498569999999,19.0437654
GYMtronic® Óbuda,"Budapest, Bojtár utca 53",ChIJH6HMG4HZQUcRjBRheIr8qE0,47.55928,19.0386192
Fitandrush Speedfitness Stúdió,"Budapest, Üteg utca 11/B",ChIJGZkLoZPbQUcRMjhoa9ysqWc,47.52912349999999,19.0760996
Yoga Labor Wellbeing Studio,"Budapest, Csata utca 31-A 402",ChIJ--iZVwjcQUcR9wWc6OfJ53g,47.5296278,19.0789873
Garage Gym,"Budapest, Hamvas utca 7",ChIJed_6XdjCQUcRXv78BCbENP4,47.4631659,19.1335176
Anamé Buda,"Budapest, Keleti Károly utca 2",ChIJ1e6Gah3cQUcRyoRR45Smr4s,47.51121819999999,19.0317987
Ogi Dojo Aikido Iaido Jodo,"Budapest, Pancsova utca 4",ChIJVU68rXrbQUcRRNoK5FkqGss,47.51918020000001,19.1092477
Valhalla Gym,"Budapest, Soroksári út 110",ChIJNdh7dZjDQUcRS_kTm8naUjQ,47.45902239999999,19.0836702
4% Fitness Spirit,"Budapest, Pozsonyi utca 17",ChIJ0bgRUwDbQUcR7CH7dovuXL4,47.5553629,19.0898572
GARMIN - Mókus kör,"Budapest, Budakeszi út 97",ChIJ12KI6dHfQUcRiUqjZXqFixg,47.528237,18.9549626
Fitness Zugló,"Budapest, Szugló utca 57",ChIJyXy4a4jbQUcRROQCwFlYWm0,47.5146969,19.112593
D'AEROBIC és Torna Sportegyesület,"Budapest, Kunigunda útja 60",ChIJqxGbz0PZQUcRs5FOy1_KnEU,47.5574831,19.0332693
Andrássy Fitness,"Budapest, Andrássy út 84",ChIJgbkb03zdQUcR4oOmM-uxHI8,47.5089565,19.068448
UTE Gymnasium,"Budapest, Szilágyi utca 30",ChIJq6rqAGnaQUcR4Y17h19XRaI,47.5725002,19.1131829
"Speedfitness Újpest, Speedfitness Káposztásmegyer, Speedfitness Edzés, EMS edzés","Budapest, Koszterna Gyula utca 22",ChIJSc4qLKPQQUcR5VAB5oxrpdM,47.59954159999999,19.116789
Kriston Intim Torna,"Budapest, Múzeum utca 9",ChIJeQpzzC3dQUcRaoPUbz_hrhY,47.4902443,19.0636147
Pénzügyőr SE teniszpályák bejárat,"Budapest, Zuhatag sor 2",ChIJj0VBFQ7fQUcRprDQVtPsOHw,47.5245969,18.9876689
Gruber's gym,"Budapest, Juhász Gyula utca 8",ChIJReytaODZQUcRENiT8VkIe60,47.59739020000001,19.0615081
Szalontaiworkout,"Budapest, Vitéz utca",ChIJsaoHWtndQUcRbYNPbt0QXqY,47.509187,19.0368005
Budai Partizán Krav Maga Klub,"Budapest, Ballagi Mór utca 3",ChIJM9bYkoPdQUcRvBAEtmByPzY,47.46942749999999,19.0275224
Babafészkelő,"Budapest, Mechwart tér",ChIJc-RppiPcQUcRSxpIE2Us6q0,47.511919,19.0333472
Infrashape Sasad,Budapest Nagyszeben út 9/A fszt. 4,ChIJm_By-uvdQUcRRP6L7UGv7TA,47.4676382,19.0053948
Young Wolf Chief Gym Muay Thai (Thai box) és Küzdősport Club,"Budapest, Kánai út 2",ChIJA2PNwpHdQUcRxM-5aVqDC-Y,47.4460682,19.000686
Life1 Fitness Etele,"Budapest, Etele út 68",ChIJG0lVI3bdQUcRfEXzSNZl9GE,47.4642333,19.0259304
BC Force Original Gym,"Budapest, Vadász utca 26",ChIJs4lZcCXdQUcRxQmYMGtYwtE,47.50519680000001,19.0535786
SPINALIS Magyarország Kft.,"Budapest, Bocskai út 71",ChIJ2zyUY8ndQUcRvY4OlrT9sL4,47.47786550000001,19.031151
Star Sportakadémia Box Club,"Budapest, Berettyó utca 10",ChIJV5rxh8fbQUcR853E6wfGqD4,47.5515906,19.0809345
Revive Studio,"Budapest, Aradi utca 13",ChIJWS4ayXDdQUcRhKE6Vyx8Me8,47.558839,19.0859844
Tállya kültéri fitneszpark,"Budapest, Fodor utca 88",ChIJ3XQYbOHfQUcRUVgVZDAF3RQ,47.4878975,19.0007164
Shitokai Hungary karate dojo Hunyadi Mátyás Iskola,"Budapest, Karikás Frigyes utca 3",ChIJw5q5rwPbQUcRXFy7OM0_Cac,47.5357519,19.06624619999999
Antaranga Jógaközpont,"Budapest, Bartók Béla út 34",ChIJZ2IqUE3cQUcRm1oy0anE2P8,47.47915499999999,19.0515476
Szabadtéri fitness park,Budapest,ChIJb22PAdDDQUcRzKz7L9c8_EY,47.42836690000001,19.130024
Kőrösi Csoma Yoga Association,"Budapest, Százados út 18",ChIJHaXleWfcQUcRh-Nn4WzDHTE,47.4954572,19.1074836
SHE Fitness Pannónia,"Budapest, Pannónia utca 30",ChIJIYWzSU3dQUcRVWRoBhMRdVg,47.5154332,19.0529495
Chili Fitness Budapest - Angyalföld,"Budapest, Szegedi út 56",ChIJt0sxvJDbQUcRNuwbyZ7KgI4,47.52749659999999,19.0853402
Nr1 Fitness Oktogon 24/7,"Budapest, Oktogon-ház, Aradi utca 8",ChIJWf7X8W3cQUcRPF1pShhGQR8,47.5065817,19.062644
Soter Fitness,"Budapest, Dohány utca 98",ChIJcdYmDWTcQUcRrPtCb0nLWEU,47.50138729999999,19.0745352
Swan Spa,"Budapest, Váci utca 36",ChIJ1yk6mOvdQUcR592lkfhviSU,47.4922293,19.0538116
InfraTrainer & HIEMT Alakformáló Stúdió,"Budapest, Nádasdy Kálmán utca 6",ChIJrzUn8MXbQUcRKq5AKLIHop8,47.582966,19.11081
Attitude Movement Studio,"Budapest, Városház utca 14",ChIJe-InXkHcQUcRmqYKmzvCyqk,47.49456499999999,19.055389
ZumbaCentrum,"Budapest, Tátra utca 4",ChIJTdMP4A7cQUcRQs9AK7F5fec,47.51325179999999,19.0501041
Studio BUT. Waterfront,"Budapest, Folyamőr utca 7",ChIJDdchaG7ZQUcRU0qGODdNvvA,47.54891089999999,19.0459846
Azurit Pilates és Gyógytorna,"Budapest, Ady Endre út 158",ChIJ7zhz6EPDQUcRyzGrx8R9Mpw,47.4487824,19.1488503
CrossFit Everybody,"Budapest, https://cf4everybody.motibro.com/login, Temesvár utca 19-21",ChIJdR_DaCbcQUcRp_Hi7xv2_Yc,47.4529479,19.0424503
Street Workout Kondipark,Budapest,ChIJpayrKLrbQUcRfsOKFgzYs14,47.5415228,19.0887349
InfraTrainer HappyFitt,"Budapest, Szent László út 117",ChIJD1gY_-XbQUcRpJjqJLHqgsM,47.5386915,19.0928954
"Kolibri Pilates Mozgásstúdió - gyógytorna, pilates, masszázs","Budapest, Kresz Géza utca 14",ChIJPSxp0pXdQUcRZMm__wcRqsc,47.5129354,19.0556533
Carlson Gracie Hungary - Central Hall,"Budapest, Csikihegyek utca 13-15",ChIJZ_V6G7_bQUcRktzv51ANbrI,47.4724459,18.9966637
LélekErdő Jóga & Természet,"Pilisborosjenő, Vár utca 7",ChIJtTpWZ0_ZQUcRM1592wXQ_wc,47.6045634,18.9907623
SHE Fitness Pasarét,"Budapest, Sodrás utca 6",ChIJwWT3vnrfQUcRMemlrr9UnmA,47.52218289999999,18.9919881
Rhino Ltd. Gym.,"Kistarcsa, Szabadság út 56/L",ChIJz4BMIpXFQUcRKRVjjed-uWg,47.5490714,19.267257
Sziszi Yoga Studio,"Budapest, Karinthy Frigyes út 26",ChIJiYtYD1LdQUcRdmqHuxEugyk,47.4764911,19.0526104
UNIQUE pilates studio,"Budapest, Kővári út 1-7",ChIJb6IP54XZQUcR1o_GQCz2R8A,47.5576585,18.969136
Street Workout park,"Budapest, Lőportár utca 23",ChIJ1W-Ms3bbQUcRJLLxfXU21jc,47.5207905,19.06519669999999
FitRoom - Életmód Stúdió,"Budapest, Dagály utca 13",ChIJtw2LqcLbQUcRvB8xrCnoraE,47.5377642,19.06379159999999
Anahita Jógaközpont,"Budapest, Falk Miksa utca 30",ChIJG5gXqQ_cQUcRfGZ2hjvq9kM,47.51203400000001,19.0486204
Ernszt Kálmánné Sportcsarnok,"Budapest, Könyves Kálmán körút 28",ChIJnRUfxx_dQUcR5gB3X-gjSKE,47.4711454,19.0888846
Colosseum Reebok Fitness,"Budapest, Késmárk utca 15",ChIJ_davgzDbQUcROx1dAvEVAMY,47.5291025,19.1501042
MOVE Mozgásközpont,"Budapest, Latorca utca 2",ChIJJZCIgIPbQUcR8eyEHAa__XU,47.5318175,19.0578039
Vezetett Meditáció,"Budapest, Sóska utca",ChIJbzoQCczBQUcRNSaY-1dTI48,47.46480469999999,19.2409082
Perfect Fight Club,"Budapest, Szlovák út 86",ChIJ6Rv3KtjEQUcRpdM_HpYII3w,47.5352123,19.1813786
Bro' Hill Freeride park,"Budapest, Testvérhegyi lejtő",ChIJo6rlmhzZQUcRp_JTzXD3Dp0,47.5606669,19.0131639
Bank Center Fitness,"Budapest, Szabadság tér 7",ChIJEatewBTcQUcR9A2UWVwafhY,47.5026264,19.0521274
GymTonic BudaPart Fitness Club,"Budapest, Bíró László József körút 4",ChIJ9d-MraTdQUcRlm2OpIlT1Dk,47.4662269,19.0583248
Pilates másképp,"Budapest, Szárnyas utca 3",ChIJIdTuyyrDQUcRcXEc9pf77-k,47.46879099999999,19.1199051
ProFITeam,"Budapest, II. Rákóczi Ferenc út 106-108",ChIJz50wgfHnQUcRXSvFDCvFptI,47.4271523,19.0678769
4% Fitness GYM,"Budapest, 16, Ráday utca",ChIJFVVHclrcQUcRx5GAe-78CsE,47.4873813,19.0633245
Ledényi Cross Training,"Budapest, Hatvany Lajos utca 7",ChIJl4JyLnvZQUcR4OcdD_pIFkw,47.601681,19.06692
Aikido Mori Dojo,"Budapest, Vándor Sándor utca 1",ChIJc5dwUQDDQUcRlKkn2QCTFCk,47.43423259999999,19.1721253
Sportpark A,Budapest,ChIJcRHMmXfDQUcRSyStEW_SXbY,47.4389252,19.1346102
Bókay garden,"Budapest, Szélmalom utca 33",ChIJxbWj8WnCQUcRlqLvgQ0KVPs,47.43568319999999,19.17741969999999
Color Fitness,"Budapest, Millennium Center, Váci utca 19-21",ChIJT_F6s0TcQUcR_Zji2T1R9Ck,47.4938735,19.0518093
Offline yoga,"Budapest, Bujákhida utca 6",ChIJwc3dFkrBQUcRVLu4k7t-njI,47.4784558,19.2578761
Újpesti Torna Egylet,"Budapest, Megyeri út 13",ChIJhZ38phjaQUcRwVhHKm8u494,47.5759273,19.0840354
MTK Magyar Testgyakorlók Köre Kajak- Kenu Szakosztály,"Budapest, Népsziget út 15",ChIJAd9t6tPbQUcRvqc-2So48iU,47.5531478,19.0683889
Egészségszerviz,"Budapest, Tátra utca 31",ChIJ31O3FtrdQUcRaCgT1hPozyg,47.5171699,19.0534298
Dominator Gym,"Budapest, Boglár utca",ChIJpbgh8ODZQUcR-YCZ_Sz-ZUg,47.5957737,19.0612196
Király Fitness Eötvös utca,"Budapest, Eötvös utca 2",ChIJYetakq7dQUcRlgXqHyZdVDk,47.5041496,19.0665562
UTE Taekwondo,"Budapest, Mildenberger utca 21",ChIJL6PdVvXbQUcR5RTe1NSaDOM,47.5723658,19.0874008
MAFC Ökölvívó Szakosztály,"Budapest, Kálmán Imre utca 15",ChIJn37kSYLdQUcRGtfDk8rq3nI,47.5067164,19.0526819
Gyrotonic Budapest,"Budapest, Kék Golyó utca 6",ChIJ0aMLKp7eQUcRY21Nmm5rzEY,47.5009082,19.0230998
Budapest Fighters kickboxing S.E.,"Budapest, Lakatos út 61",ChIJfXSz-FrCQUcRrWtSILHysvM,47.4533537,19.1743209
Victory Fitness GO Mátyásföld,"Budapest, Újszász utca 47/G",ChIJfUXi5STFQUcRSYOwaDa9wMI,47.5033259,19.2022704
Barrakk Fitness & Fight Club,"Budapest, Garay utca 3",ChIJQ4NmOGLcQUcRcgYoa1FmvSE,47.50049130000001,19.0791427
Napcsillag Jógastudió,"Budapest, Piroska utca 3",ChIJjVH1kknZQUcRuq428J17qh0,47.5878871,19.0671905
Solan - A Csendes Tér,"Budapest, Fehérvári út 38a",ChIJqWyOTD3dQUcRIOC8FSKCyz0,47.4715548,19.0463981
DARA gym,"Budapest, Károly körút 4",ChIJXcFTXEfdQUcRTtlr7TY7Gx4,47.494528,19.059437
fitneszpark,"Budapest, Törökvész út",ChIJXaP-q1vfQUcRiivFxCBzbn0,47.5204835,18.9998892
Yoga Park jógastúdió,"Budapest, Záhony utca 7",ChIJ8XMEpVvZQUcR2WYvReNrXL8,47.5605649,19.0530391
Budaörs Életmód és Egészség Kft,"Budaörs, Budapesti út 110",ChIJf4P0yzHfQUcR_sHY_FoqqHk,47.462605,18.9782041
Mátyásföld Fitness,Budapest,ChIJU9yYmJHEQUcRa5PHv4ll2mI,47.497912,19.040235
do Pilates Club,"Budapest, Hegedűs Gyula utca 8-4-2",ChIJGyJCqLHdQUcRRDPBZ1i-0b0,47.5131275,19.0529963
Csilli Pilates,"Üröm, Kölcsey utca 21",ChIJWT6w5zfZQUcREbWrzwJ3Pr0,47.6002639,19.0184699
Capoeira Arte Negra Budapest,"Budapest, Fehérvári út 132",ChIJJUrJvTXdQUcRRig00DVjSq4,47.4551246,19.0404132
Gerevich Aladár National Sports Hall,"Budapest, Istvánmezei út 3-5",ChIJ_SlowYXcQUcRLo-fwNe43z0,47.50275419999999,19.0928478
Edzi,"Budapest, Igmándi utca 1",ChIJNd5RZADdQUcR3amq1k-GEfk,47.4575559,19.019244
Emkettő Funkcionális Mozgásközpont,"Budapest, Köztársaság útja 29",ChIJQUx5i2_FQUcRek2gbGgCSt0,47.5231472,19.1641941
Fit & Fight,"Budapest, Margó Tivadar utca 33",ChIJZ64IAx3DQUcRg8tLf3HNFkY,47.4430298,19.1696579
Attila Aerobic Club,"Budapest, Attila utca 156",ChIJTb3h0BXaQUcRSCcf732rc-8,47.57409500000001,19.095913
BHG Tánc- és Mozgásstúdió,"Budapest, Sopron út 19",ChIJey5POaXdQUcR9U22Oko40I4,47.46798689999999,19.0457574
TMS Pilates Újpest,"Budapest, Árpád út 88",ChIJh7_EPxXbQUcRtGdDJP731K4,47.5602416,19.0923474
The Brick Functional Fitness,"Budapest, Visegrádi utca 43-45",ChIJndZsgozdQUcR_h8nsyIF5W8,47.517325,19.0577408
Pilates Revolution,"Budapest, Szerémi sor 12",ChIJV1h3_K7dQUcRQKfgoTD6ppw,47.4711296,19.0515476
- 20-22 - FITNESS,"Budapest, Szarvas Gábor út 20-22",ChIJ0y8D6fjfQUcR4we4ZPErnew,47.5142557,18.991287
Tanulható Egészség - Privát Edzőterem,"Budapest, Radnóti Miklós utca 4-6",ChIJ3dKMN6DdQUcROvCQyEhcwIk,47.513804,19.0567532
Bikram Yoga Club,"Budapest, Csömöri út 49",ChIJb5nZhUrbQUcRwE4tr3r_gWc,47.5217021,19.1530011
6ha Jóga Stúdió,"Budapest, Rupphegyi út 5",ChIJxQb35_bhQUcRj1b8nmmhjPM,47.46382029999999,18.9844474
Palotás tér,"Budapest, Palotás tér 12",ChIJZX1rIffbQUcR2Y3ZDlcQE-M,47.54964640000001,19.11466339999999
Body Mind Health Stúdió,"Budapest, Karton utca 10",ChIJHTwYaBvDQUcRS2zCLmXmur0,47.4349794,19.162052
Samadhi Jógastúdió,"Budapest, Dráva utca 17",ChIJvXYiffDbQUcRid2iH9CDw_0,47.5266786,19.0560641
TF Uszoda P,"Budapest, Alkotás utca 42",ChIJWZ66qCjcQUcR7nMp0yHVvn0,47.4932812,19.0242792
Gym Suleiman,"Budapest, Csokonai utca 3",ChIJi-D-7kXDQUcR1MizRCxmUiI,47.4570503,19.148366
ClubGym Zugló,"Budapest, Kövér Lajos utca 21-25",ChIJ38d-3jLbQUcRGTjBk7A8SKk,47.514492,19.1151314
Aloha Pilates,"Budapest, Szabolcs utca 19-21",ChIJ37-qpwLbQUcRqjZtLSIRFP4,47.5184943,19.0695961
Fight Ground Fót SE Muay Thai,"Fót, Dózsa György utca 1",ChIJUYm2wY3RQUcRUX6oSNYeGpY,47.6095682,19.1932654
LOFT Pilates Studio,"Budapest, Sütő utca 2",ChIJMXXnWgDdQUcRfwdYGSwiDkM,47.4966398,19.05389079999999
Hungarian Mecca Of Body Building,"Budapest, Béke utca 23",ChIJaSpG-ZXbQUcRaKV2vbi8yvg,47.5340893,19.0828915
BoxAkadémia Ökölvívás,"Budapest, Kresz Géza utca 24",ChIJZ72MnnbbQUcRF7-gsfHj0to,47.514471,19.056475
Kutír Jóga-sziget Budaörs,"Budaörs, Törökbálinti utca 3",ChIJ-45vXB_eQUcRY9ew9BAjsWg,47.45695070000001,18.9638534
Santosha Segítő tér,"Budapest, Köztelek utca 4/b-2/3",ChIJPYyFwP7dQUcRqMsu_0f4BeM,47.4865624,19.0650716
Monsoon Yoga & Pilates,"Budapest, Endrődi Sándor utca 12",ChIJYW0GDbjeQUcRx2t48xPYZ2U,47.5212173,19.0110669
My Shape,"Budapest, Nemes utca 119",ChIJz4srQ1vBQUcRPCTaCahzyuM,47.4151191,19.2038307
Berki Péter - Yoga & Massage ( Jóga és Masszázs ),"Budapest, Somlói út 58",ChIJdwjnk7zdQUcR3mxgg6q1hFA,47.4849684,19.0364107
Living Fitness Kft.,"Budapest, II. János Pál pápa tér 6",ChIJ445VE2DcQUcRuAuOWLdFVY8,47.49561559999999,19.076737
Albert David Training,"Mogyoród, Erdőalja utca 3",ChIJERI7fs3PQUcRRbEWatoXXK4,47.5918448,19.2228801
Polgárok Háza,"Budapest, Visi Imre utca 6",ChIJS6kdxe3cQUcR-555mMOcuiU,47.4878979,19.0903965
FittLiget Stúdió,"Budapest, Pálinkás Antal utca 2/A",ChIJcZDpIzfdQUcRU-rR-_OuZwM,47.46892769999999,19.0092722
Crosswolfit Training Studio,"Budapest, Vadász utca 28",ChIJ2daYu6jdQUcRmvxGKFR-Umg,47.505269,19.0534919
FITNESS17 Funkcionális és Speedfitness Stúdió,"Budapest, Berky Lili utca 10",ChIJKTVHg4zBQUcRtT-blL55bN8,47.470172,19.2891876
Nemcsakjóga Mozgásstúdió,"Budapest, Káplár utca 11-13",ChIJVzTvsKbeQUcRHi7hpEK8Xk0,47.5095888,19.0228464
KSI tornaterem,"Budapest, Istvánmezei út 3-5",ChIJIZbN2IXcQUcRXZ8EM3NqVUo,47.50371599999999,19.0919786
Glow Reformer Pilates,"Budapest, Vegyész utca 10-1.em/2",ChIJi6C9MHfdQUcROcmNpfofqPI,47.44398140000001,19.0384864
kundaliniyoga.hu - Navraj rendszeres kundalíni jóga és meditáció órái Budapesten és online,"Budapest, Bakáts utca 5",ChIJhxrBdzzdQUcR1FnczLaD0Lg,47.4827083,19.06560529999999
JÓGA Szaraszvatíval,"Budapest, Szent Gellért tér 3-3-emelet 14",ChIJtf06yAfdQUcRAK1No42vDf0,47.4831273,19.0534767
Levendra Yogaroom,"Budapest, Kiss János altábornagy utca 23",ChIJ0TbAsNfdQUcRZOj5diluZoo,47.4937379,19.0224419
BBGo Fitness és Mozgás Stúdió,"Budapest Budapest, Ázsia Center, Szentmihályi út 167",ChIJmQKsqmfbQUcRTj8JI5DAcM0,47.5489696,19.14772559999999
timgymworkout,"Budapest, Izabella utca",ChIJh0rHWsTdQUcRql-uyL5JU4g,47.50893079999999,19.0655279
Victory Pilates,"Budapest, Ménesi út 80",ChIJD3KvzrTdQUcR3gEb2XSur4g,47.4830698,19.0351168
Microcosmic Gym & Dojo,"Budapest, Budafoki út 70-B épület 2. emelet",ChIJEZ95-8bdQUcR9g61JCnGnS8,47.4566666,19.052374
Crossfit Training Park,"Budapest, Dózsa György út 5",ChIJT40QGJHdQUcRmNA4qBNkwJ8,47.50249119999999,19.0938501
Ducsai Dénes-funkcionális edző,"Budapest, mellett jobbra, Bartók Béla út 61",ChIJUVKqr7DdQUcR9qRlcAiU5Rw,47.4768731,19.0439357
Royal Reform Pilates Studio,"Budapest, Országbíró utca 38-40",ChIJh-qJU4bbQUcR4rQwggABIU4,47.5313532,19.0818785
GYMCITY OFFICE,"Budapest, Madarász Viktor utca 47-49",ChIJE-X05M7bQUcRvTOfSUvCVaM,47.5539512,19.0802497
"""Az, ami"" jógastúdió és meditációs központ","Budapest, Visegrádi utca 4. Fsz. 1",ChIJ3Q5USIbdQUcR4qoaVm1HExs,47.5121155,19.0536664
Diana lépcső,"Budapest, Diana utca 27-31",ChIJ4Tb6L_XfQUcR4OseweAmCdM,47.4993513,19.0034803
Trixiland Jógatér,"Budapest Csalogány utca 55. 4. em, Kapucsengő: 44",ChIJtUFmmArdQUcRnt-qwYqUboA,47.50823399999999,19.0283689
GI Boulder Club,Budapest Pesti Határút 1. HRSZ.: 103153/13,ChIJl0RFOZ_EQUcRBs1NDmVGjFY,47.50234820000001,19.1748201
24FitClub Budapest,"Budapest, Szemere utca 19",ChIJSw_LCg7cQUcRPjywMsNJhe4,47.51043860000001,19.0517487
Phoenix személyi edzőterem,"Budapest, Margit utca 9",ChIJvXD_WxLdQUcRkYglSbqKfFA,47.5147635,19.0345148
Kruj Iván Sportcsarnok,"Budapest, Mártírok útja 205",ChIJ0-tiGrnCQUcRyODGD7P8w1I,47.4363414,19.1318044
KaaTsu Hegyvidék,"Budapest, Alkotás utca 55- 61",ChIJPwEUAsfdQUcRUiQt3wvBjhM,47.4898744,19.02386779999999
Jóga a Margit-hídnál,"Budapest, ajtó, Árpád fejedelem útja 3",ChIJs5G_c3fdQUcRzClTfy_duBY,47.5168671,19.0375453
Toto Sport II,"Budapest, Késmárk utca 32",ChIJ5V0ki7_bQUcRRMlqnlx32js,47.5296351,19.1512594
THE YOGA Downtown,"Budapest, Báthory utca 20",ChIJSzzA8S7dQUcR6Bj8Tm7Wsgo,47.5062764,19.0528995
"Erdős Muaythai Sportegyesület- Kezdő/Versenyző Thaibox ,Női Thaibox","Budapest, Hungária körút 130",ChIJD6g7G_LdQUcR5Td8AB6nx1E,47.51017969999999,19.1001281
Aktív Sport Farm,"Budapest, Kis Károshíd utca 1",ChIJGUaTLubGQUcRu_RcUJyM6BU,47.4982014,19.2928201
Maximum Performance,"Budapest, Zalaegerszeg utca 106",ChIJcYvF5PnCQUcR62gxvE_5daQ,47.4442755,19.133712
Reiki Club,Csertő park 12 Zuglói Civil Ház Autóval megközelíthető a Vezér út 47 felől,ChIJu-5Zz1PbQUcRzxl6UB1h1KY,47.5107,19.1424221
Szépüljvelem.hu - Pearl Beauty Salon,"Budapest, Jókai utca 40",ChIJi_G7bA3cQUcR84nW0tP4VGw,47.509361,19.056188
Infusion Reformer Pilates Studio,"Budapest, Taksony utca 7-belső udvar",ChIJRSRUZ9bbQUcRQW3CQwqRMaA,47.5215623,19.0663484
Beautyrobic Központ,"Budapest, Hollán Ernő utca 9",ChIJJX3MKA_cQUcRA458pe4SWoI,47.51401440000001,19.0501783
Thalas Stúdió,"Budapest, Bogdáni út 2/a",ChIJl8zhZ6TZQUcRr2v16fJir-0,47.5493129,19.0464386
Kyra Tánc Stúdió & Treasure Box,"Budapest, Nagymező utca 14",ChIJMROjBmzcQUcRECjlYfcfZgs,47.50281589999999,19.0608435
Jancsó Ildikó edző - női mozgásmentor,"Budapest, Fáy utca",ChIJgytqmhbbQUcR_60oxfACsYQ,47.5349125,19.085136
SHE Fitness Westend,"Budapest Visegrádi u. 6 3. emelet 2. ajtó, 24. kapucsengő",ChIJM_JlmUDdQUcRVWDacb8T2fE,47.51223779999999,19.0538069
Avena Fitness (Hartel),"Budapest, Kolozsvár utca 46/b",ChIJXTNhKg_bQUcRsEMJFLJ6wyY,47.5366238,19.1149583
Korall Sportsziget,"Budapest, II. Rákóczi Ferenc út 69",ChIJgxFO5VnnQUcRnPOtmGNLJVU,47.4330858,19.0675829
KEK Tornacsarnok,"Budapest, -18,,, Szüret utca 2",ChIJKYG3fjXcQUcRBrHS5Uc753g,47.4826016,19.0414125
TMS Studio Infraslimx EMS-Slimx Üröm,"Üröm, Damjanich utca 4",ChIJjf-Uk-fZQUcRAEqxh5zgXDc,47.58915079999999,19.0078483
Power Fitness Budapest,"Budapest, Szigony utca 13",ChIJsZrE2vbcQUcRWtKyhPdGo4g,47.4872177,19.0790542
Fitness Center Movement Studio,"Budapest, Váci út 81",ChIJe9Vi7unbQUcRsX7ClvPJJk8,47.53546799999999,19.0683977
"Victory klub- Karate, Funkcionális személyi és csoportos edzések","Budapest, Kazinczy utca 6/b",ChIJx3sDr0LcQUcRcg_PvweNubE,47.49642,19.0637164
Bozai Box Club,"Budapest, Sopron út 19",ChIJUZhZ5CHdQUcRBiQbAIr3fQE,47.4680043,19.04562740000001
Pilates Hills Stúdió,"Budapest, Németvölgyi út 69a",ChIJU9U5b7XfQUcRWasgWn1OJic,47.4911006,19.0099233
Hocks Power Plate Stúdió,"Budapest, Timur utca 86",ChIJ6fwRth_FQUcR3gUDrIH9wG0,47.535976,19.1991467
"Revive - Alkotó, Életmód és Jóga Műhely","Fót, Barczag utca 5",ChIJDaQUI5_RQUcR0LOWfQ1LZFE,47.60539019999999,19.2072783
Gábriel Jógastúdió,"Budapest, Fő utca 6",ChIJt0_brmXdQUcRn-QAdiWvAIQ,47.4992446,19.0399516
Bliss & Body Fitness és Wellness,"Budapest, Ó utca 43-49",ChIJZ99lq23cQUcRd60IMOCFDec,47.50541889999999,19.0601417
"Karate, Önvédelem, Kravmaga, Küzdőjáték a Shuhari Dojoban","Budapest, Győri út 5",ChIJZZ0x5iXcQUcRe-s_0y1AyQA,47.4943458,19.02648529999999
Yogam Jógastúdió,"Budapest, Kútvölgyi út 66d",ChIJ23_qZMTfQUcResEmtpAFobQ,47.511457,18.983701
Ke- Ki Speedfitness Stúdió,"Budapest, Mehola Üzletház, Szilas park 10",ChIJW4fT2ALFQUcRpX_HLvuADJQ,47.5507796,19.1410773
Go Active,"Budapest, Holló utca 12-14",ChIJIwfUkmncQUcRqKGcrkFgACM,47.4988334,19.0593731
Mass Fitness Kft.,"Budapest, Bartók Béla út 61",ChIJtV74irPdQUcRiEpbWgM3XzE,47.4769668,19.0435981
Brie Well Studio,"Budapest, Hamzsabégi út 18",ChIJWwEGOADdQUcREcWjMbEpjF4,47.47137179999999,19.0474233
AppInGym,"Budapest, Esztergomi út 41",ChIJr3RgdRTbQUcRVIXekZ49Uco,47.532523,19.0640607
Wekerlei Fejlesztő-műhely,"Budapest, Zoltán utca 26",ChIJeSt4O8XCQUcR_8VmaJNv3a4,47.4545176,19.1317929
Czakó Street Outdoor Fitness Park,"Budapest, Czakó utca",ChIJX4QC_WrdQUcRZ32c0f6M1rw,47.4907402,19.0369915
Women's paradise Pole Studio,"Budapest, Ferenciek tere",ChIJf-hTCETcQUcRDEShy2b_Myo,47.4929926,19.0557268
Pegasus Flydance,"Budapest Újszász utca 45 Irodaház 1. emelet, lépcsővel szemben",ChIJC_6gXL_FQUcR97T381KdoEM,47.50454039999999,19.1943398
ChinMaya Mozgásstúdió,"Budapest, Átlós utca 17",ChIJ9cmk9LjdQUcRqqlwT5AADLs,47.4235998,19.1070019
Albert utcai sportpálya,"Budapest, Kelenföld",ChIJ5U_0aQDdQUcRk6jbetib4pU,47.4546638,19.038835
Stunt Base,"Budapest, Budafoki út",ChIJxVNainfdQUcRmUMHgafvV9o,47.4630517,19.0502776
Wing Tsun Kung-fu központi edzőterem,"Budapest, Üllői út 57",ChIJjRf5MPjcQUcRzAyo3H1yPvk,47.4842458,19.0737387
Street workout kondipark,"Budapest, Havashalom utca 49",ChIJoakrZJLFQUcRabCrigW9k8w,47.5150076,19.1682843
Kissyo T É R,"Budapest, Kiss József utca 7",ChIJT2kOIEDdQUcRXE4VQmHcwqc,47.4972782,19.0740261
City Gym Budapest,"Budapest, Marczibányi tér 13",ChIJe4PS9B7fQUcRWExzNfZRbI4,47.512218,19.02231429999999
3d Wellness Kft.,"Budaörs, Budapesti út 123",ChIJA5wxTRDeQUcRzbbJoEuQcZQ,47.4631413,18.9796855
Gópála Jóga-TEREM,"Budapest, Kerepesi út 1",ChIJUVLa2mLdQUcR-4MwJcqMGes,47.4993861,19.0830079
MERIDIÁNCLUB,"Budapest, EMKE Irodaház, Rákóczi út 42",ChIJA7otmm7dQUcRNdf43B5vhuA,47.4971188,19.0691047
Nympha Műhely Zugló,"Budapest, Komócsy utca 52",ChIJ41Ipun3bQUcR3avyecB8hhY,47.5213383,19.1225217
Sportpark,Budapest,ChIJN4CnMpvZQUcR7TFyGyjLOxk,47.5360484,19.0308596
Antré Mozgásstudió,"Budapest, Kmety György utca 15",ChIJFzDktnbcQUcRS7UVZapTiLU,47.5117223,19.0691909
YogaHome,"Budapest, Párkány utca 6",ChIJ5UB1xA7cQUcRe0YaZv5mZXw,47.52884969999999,19.0599739
OSU.HU - Genshitsu Shibu | Kyokushin Karate | Kick-box | Önvédelem,"Budapest, Victor Hugo utca 6",ChIJr8dMV_TbQUcRXCPzMDvgMgo,47.5174306,19.0585894
Lara AIR Yoga & Fitness,"Budapest, 1061, Bajcsy-Zsilinszky út 31",ChIJ9TbsqezEQUcRXJxHf4scSMg,47.504297,19.055297
Pilates Space,"Budapest, Veres Pálné utca 14",ChIJR6kpvBXdQUcRRp6savEaXv4,47.491473,19.0560701
Madhura Jóga-sziget,"Budapest, Daróczi út 54",ChIJU4sEXK3dQUcRs1irYWiKook,47.4760836,19.0314805
Kondipark,"Budapest, Vérhalom tér 7a",ChIJ9fWffwDfQUcRH6RvxWey5VQ,47.5214687,19.0235133
Street Workout Park - Egyetmisták Parkja,Budapest,ChIJ0U7XGijdQUcR4v_bGxxKo4k,47.4758743,19.060424
Rubin Fitness Edzőterem és Squash,"Budapest, Dayka Gábor utca 3",ChIJQ24FY5LdQUcRGrvOGZbnf2I,47.4726486,19.0189914
F5 by Fitness Five Örs,"Budapest, Fehér út 1/A",ChIJEwWSot7dQUcRKuQpy9olFDs,47.5024151,19.1356802
Atlant Sport Club,"Budapest, Frankel Leó út 7",ChIJFaGAcQPcQUcROzFkj97Vn4U,47.5136324,19.0378807
"Ninjutsu Self Defense Training in Budapest, NinjutsuBudapest.com","Budapest, Szentlélek tér 10",ChIJyy1XsWDcQUcRTbXsXNaZrXU,47.5404974,19.0452439
Power Gym Body & Fitness Studió,"Budapest, Üllői út 216",ChIJQ4V5oeDCQUcRzD2wfZsrJhs,47.4592487,19.1424562
FitLife Békásmegyer,"Budapest, Boglár utca 3",ChIJjcd49uDZQUcRyg1pHHE6Vp8,47.5964355,19.0619144
Tenchi Aikido Alapitvány,"Budapest, Farkastorki út 21",ChIJT85fCdPZQUcRfFblBUw3lmk,47.5505881,19.0254445
INFRASHAPE LUXX PESTERZSÉBET Alakformáló Stúdió,"Budapest, Török Flóris utca 79",ChIJ03luj7LDQUcRCVLVBZSMFqo,47.4384774,19.1069335
Edzőterem,"Budapest, Lónyay utca 6",ChIJi_FYEQDdQUcRRdoBBdIjZik,47.4876718,19.06123599999999
Kenshuu aikido,"Budapest, Pozsonyi utca 4/c",ChIJm7fauBjaQUcRp6DHWtNBIGM,47.5536508,19.0907235
Streetworkout pálya,"Budapest, Balogh Géza utca 1",ChIJVzas67XBQUcRIC-ZJKUT9CI,47.4223155,19.2074268
RÓMAI KERT Jóga & Életmódközpont,"Budapest, Nánási út 30",ChIJSZv7Y0nZQUcRnXrv2dRFu9o,47.57271039999999,19.0616144
Body & Fitness konditerem,"Budapest, Erdősor út 12b",ChIJkbmEhxHaQUcRO12CN5HEpjM,47.58024469999999,19.1002706
Mentor Gym Budapest,"Budapest, Pestújhelyi út 48",ChIJdayXzB3bQUcR5T2N0byqDJE,47.5396245,19.1283201
Self-Defense Training,"Budapest, Mária utca 2",ChIJF0FDKFzcQUcRfcSrrxanaQU,47.4928108,19.0693891
TotalFit Cross Gym,"Budapest, Munkásotthon utca 44",ChIJpQwbf2bcQUcRXu2qYpX_EG4,47.5593684,19.0932708
Zugló Fit Club - Thai Boxing,"Budapest, Szugló utca 57",ChIJVYqrE2TbQUcR_c-l924lhDY,47.5146999,19.112593
Dévi Jógastúdió,"Budapest, Kék Golyó utca 1/A",ChIJBUulJJjfQUcRAexD1p_3xuw,47.5015466,19.0231214
Prestige Fitness and Wellness (korábbi Oxygen Fay),"Budapest, Fáy utca 45",ChIJx7Ztwb_bQUcREUBlKlD1Lm4,47.535801,19.0797074
Allure Poledance Studio,"Budapest, Üllői út 511",ChIJVxzLLEHCQUcRqwSIpQiMraA,47.4404262,19.1843373
Mangó Fitness,"Budapest, Jász utca 36",ChIJfXO6rOvbQUcR0eDQiWEKut8,47.5314462,19.0835401
Mandala Jóga Szeged,"Budapest, Nagyajtai utca 4/a",ChIJYU2Nj7jeQUcRjs291wsHpbs,47.5144111,19.0035737
Fitness Five & Gym,"Budapest, Liget tér 1",ChIJZ4vlwsrcQUcRLHiec8QdbSQ,47.4839477,19.1280175
Street workout kondipark,Budapest,ChIJ64cxewHFQUcR2keYeekB7Rw,47.5195225,19.1826496
Yoginside Studio,"Budapest, Vámház körút 4. fsz. 4",ChIJI4OwrDvdQUcR022vICCyHM4,47.4876761,19.0583616
InfraSlim X RoseHill,"Budapest, Pentelei Molnár utca 17",ChIJhRxReRXfQUcRG3-jC2rVfsw,47.5216423,19.0212292
Honbu Dojo,"Budapest, Pál utca 6",ChIJ5XqCslncQUcRSmhj7ppzqhU,47.4877628,19.0693204
Dömping Fitness,"Budapest, Erzsébet királyné útja 111-113",ChIJi40ogYXbQUcRFSMKVWcorFM,47.5328612,19.1113088
Liget Fitness & Wellness,"Budapest, Nádorliget utca 5/B",ChIJ7c-IaKXdQUcRtDKAdRRD5pE,47.4685488,19.0474678
Sunlight Movement Studio,"Budapest, Hermina út 16",ChIJv_wX3cbEQUcRdModt_K3bSA,47.5214771,19.1767448
"Sipos Pálma - Reformer és Talaj Pilates, Barre Instruktor","Budapest, Alíz utca 6/b",ChIJe-vLa7bbQUcRwtmXZFXYZmg,47.45872319999999,19.04866819999999
Cosmos Boxing Boxterem,"Budapest, Kruspér utca 3",ChIJZ13oKozdQUcRFXc4cHbXIs0,47.47838429999999,19.0548398
Moszkva sétány Duna park,"Budapest, Moszkva sétány",ChIJy97gj_rbQUcRsUr_8S4c6Fg,47.5270646,19.0549329
Bellaslimx Marina,"Budapest, Sólyatér utca 4/a",ChIJQexJ46nbQUcRVq1aecdqxMY,47.54619499999999,19.0662849
Egressy Fitness,"Budapest, Egressy út 23-25",ChIJZ8VfYp7cQUcRFS1zWEghZxw,47.5066382,19.1099748
Super gym,"Budapest, Hajós utca 25",ChIJVZpJkmzcQUcREOgGczHvOXs,47.5042649,19.0571688
Aquafitness,"Budapest, Ó utca 43",ChIJH75IrG3cQUcRrzLWt7JD9tU,47.5053727,19.0601068
Pilates by Hajni,"Budapest, Alkotmány utca 16",ChIJMwMsHwjdQUcRGtJiyM5Bctk,47.50787319999999,19.05356249999999
Ironman Training,"Budapest, Sopron út 1117 19",ChIJ323bO6XdQUcRaNP28BQeC2Y,47.468029,19.0453414
Zumba Team Újpalota,"Budapest, Rubin utca 7",ChIJV7F7cObaQUcR38EJRaRcxTw,47.5389879,19.1193354
Matayoshi Kobudo Harcművészet - dojo,"Budapest, Ihász utca 24",ChIJ1zPQ9DbDQUcRaBFB8DF-xcI,47.4808521,19.1368771
Nitayoga Center,"Budapest, Vörösmarty utca 11/B",ChIJXaG-PmTcQUcRujcfI7xwadM,47.50405749999999,19.0703948
Pura Vida Jóga & Infrashape,Budapest Rákóczi út 19. 2.emelet 4a 45 -ös kapucsengő,ChIJT7swIwPdQUcR5s2zlh3frf0,47.495193,19.064719
Mozgásfalva,"Budapest, Szigligeti utca 33",ChIJC2GUtifDQUcRI8F884XCAnc,47.4506088,19.1154035
Step UP Gym,"Budapest, Budafoki út 97-103-3. emelet",ChIJb2xY_4TdQUcRb0VAgH8HlMA,47.4671654,19.05295749999999
Pilates in Budapest,"Budapest, Stefánia út 16",ChIJ7bnsfYTcQUcR5cHko0gBg6k,47.50606320000001,19.0969938
A-Z Jógastúdió,"Budapest, Csaba utca 18",ChIJLyXHVsvbQUcRcZ5qwT-wyDE,47.50413340000001,19.0193205
Pink Lotus Pilates,"Budapest, Lechner Ödön fasor 1",ChIJFZuksE3dQUcRCo2khPjQ1R8,47.4774132,19.067909
"Performance Táncstúdió - táncterem bérlés, óradíjas terembérlés, kiadó terem Budapest","Budapest, Ipar utca 3",ChIJTbOWNRzdQUcRfhgiRwxC3tw,47.477765,19.0696829
Zeke Box Team,"Kistarcsa, Berényi utca 10",ChIJe_q4YpHFQUcRZFmdbgvELEw,47.5515789,19.25888699999999
ProBody Pilates,"Budapest, Nádorliget utca 7B",ChIJEdJ1Pa7dQUcRpIXNDDGKXUM,47.4670157,19.0471937
Új Aranykori Jóga és Spirituális Gyógyító Központ,"Budapest, 501. utca 21",ChIJVVXB0IzDQUcR9lQIEWTiAt0,47.4834039,19.2178855
K3 Fitness,"Kistarcsa, Szabadság út 14",ChIJdTY8V77FQUcR2FgVJVZY7-E,47.5428656,19.2558643
Hercules Sports Club,"Budapest, Batsányi utca 2",ChIJWZo7o-3cQUcRCV5JoI73PT4,47.4799677,19.0927543
ErdőTekergő torna (ESMT),"Budapest, Közdűlő út",ChIJD-O3vj3DQUcRqDG9xMHe2BE,47.4281101,19.1769782
YogaOn Sárdi Evelin,"Budapest, Böszörményi út",ChIJkc7WxvPdQUcR9hAuze_jsi4,47.494648,19.018825
Budakeszi Bike park,"Budakeszi, 1103",ChIJf_NWkWPfQUcR80BAKh9FObs,47.5148663,18.9201978
SDK Jógastúdió,"Budapest, Pozsonyi út 16",ChIJ6ZpeWXndQUcRKGvAKF8qOZo,47.5159059,19.0496523
V-Line Fitness,"Budapest, Kajszi utca 6",ChIJzXu7l1bFQUcRD8k1paAHCEs,47.52932769999999,19.1984803
Astanga Jóga Óbuda,"Budapest, Laktanya utca 4",ChIJM8Yq017ZQUcRnwJSIeLI7bg,47.5421025,19.0455809
FTC Ökölvívó szakosztály,"Budapest, Vajda Péter utca 48",ChIJL6_FXVjdQUcRl4Oq_jno3OI,47.4764251,19.1134539
Zrínyi Miklós Kick-box Akadémia,"Budapest, Lovassy László utca 5",ChIJa9bbQMDdQUcRpAX6merDa4Q,47.49120300000001,19.0771287
Fitness & Health Club by Marriott Budapest,"Budapest, Apáczai Csere János utca 4",ChIJj6jpykDcQUcRth7_qmco6d8,47.4944842,19.0496352
Sport Placc,"Budapest, Tahi utca 69",ChIJ5fVsXLzbQUcRJng_jIdh9nA,47.536948,19.0882158
Fitness park,"Budapest, Magyarok Nagyasszonya tér",ChIJPUyZCfrDQUcRuofp_8p98gc,47.42694929999999,19.1191577
India Szíve Központ,"Budapest, Lajos utca 72",ChIJ-WzPLQDFQUcRsXbgTBdpU7k,47.524287,19.169532
Jóga és lélekműhely,"Budapest, 538. utca 19",ChIJcwoXYJjDQUcRb17F8bMuRLU,47.4790284,19.2176076
F2 Reformer Pilates Stúdió,"Budapest, Fürj utca 2",ChIJu5dDT8HdQUcRw9_KgfY6QFU,47.486571,19.0226361
Seijin Dojo - Ninjutsu and Self-Defense Center,"Budapest, Népszínház utca 17",ChIJcy5XsWDcQUcRYRQki86W69U,47.49565010000001,19.0726106
Vitális műhely,"Budapest, Üllői út 250",ChIJfw-tUvzDQUcRYAmm3vVOujs,47.454725,19.153295
fitneszpark,Budapest,ChIJYWEHsFHZQUcRNVUoNPnCNMY,47.5451868,19.0317162
Crossfox,"Budapest, Nagyszombat utca 3",ChIJcbg9QmXZQUcRtRQwStCkZj8,47.53240409999999,19.040232
Kertvárosi Vívó Sport Egyesület - KVSE,Budapest,ChIJX810IYrEQUcR2nMYycvQrFw,47.50844519999999,19.2044513
Fit Express,"Budapest, Ó utca 1",ChIJf61mamvcQUcR7EfQ5onPY8M,47.502341,19.0556
The Inhale Pilates Studio,"Budapest, Apor Vilmos tér 11",ChIJU73UNzrfQUcRxh8m0IfQ_-o,47.4910928,19.0115656
Infrashape Óbuda,"Budapest, Bécsi út 267",ChIJz8myKW3ZQUcRCsQckXoC7eY,47.5513858,19.028972
E-Fitness Zugló,"Budapest, Róna utca 141",ChIJNzm1xmTbQUcRamOll8-lYYU,47.51608499999999,19.10911
Névtelen Broadway Fitness,"Budapest, Ó utca",ChIJq8ISrG3cQUcR9uAtCFFlMxs,47.50543099999999,19.0600895
Viggo Gym,"Budapest, Hamzsabégi út 60",ChIJAw0jJ-3dQUcRMnaCdO77jF8,47.473077,19.0258228
JÓGA21,"Budapest, Ganz utca 5-7",ChIJWwumJmzdQUcR3AJL-Eo5mFw,47.51110599999999,19.037509
Mandala Jóga Bazilika,"Budapest, Hercegprímás utca 13",ChIJa0fNM2XdQUcRjHQVv7sUbxY,47.5019027,19.0531778
Infrasalon,"Budapest, Kövér Lajos utca 39-41",ChIJr1_Tz7bbQUcRcpBzO429Y1Q,47.5150781,19.1134655
KrokiKondi MOM park,"Budapest, Alkotás utca 53",ChIJL8v_n8DdQUcR0SMlSP3E9m0,47.4904637,19.0240791
Star Fitness Nagyrét,"Budapest, Nagyrét utca 22",ChIJJ_T_YTvZQUcRNYYR4sftEnE,47.5433171,18.9518857
Ago Med Art Stúdió,"földszint, Budapest, Kabar utca 3",ChIJCZyR96DZQUcR7-JBUytrdwk,47.5956313,19.0562696
LINKUP VR Egyesület,"Budapest, Hernád utca 12",ChIJ_XaKOrfdQUcRx3WrsWWgXV0,47.5032724,19.0838872
UP Pilates Studio,"Budapest, Bogdánfy utca 4-b Fsz. 1 37-es kapucsengő",ChIJEQL3tt7dQUcRr-GakjESRbg,47.4727379,19.055409
Kispesti Sport Nonprofit Kft.,"Budapest, KAC pálya, Katona József utca 3",ChIJC1WG4IvCQUcROCnnmTbuduY,47.43637439999999,19.1507235
冰冰普拉提馆JanicePilates,"Budapest, Jegenye utca 25",ChIJDzp2EQDdQUcRURyxnFxCnu4,47.4809652,19.123442
RMYoga Studio,"Budapest, Bécsi utca 1",ChIJB8YtWu7dQUcRh-kbb8b0scc,47.4958874,19.0524165
Nishu Yoga,"Budaörs, Orchidea utca 6",ChIJxXveRJbAaUcRToDZApzxGIM,47.45964050000001,18.9184991
TripleX gerincközpont Angyalföld,"Budapest, Frangepán utca 76",ChIJg2DiTQDbQUcR3Olbopc5EiU,47.53302679999999,19.0866133
Czike Stúdió,"Budapest, Dembinszky utca 28",ChIJHRywwTPdQUcRNQuzqFjCTzU,47.4425973,19.1645565
Kondi park,"Budapest, Petőfi utca 15",ChIJwzI2tdrDQUcRUvZIF14tvIY,47.4548101,19.1471304
Várnai Benedek Fitness & Gym,"Budapest, Petur utca 22",ChIJ-y--C5PZQUcRnKAC_hpqDDQ,47.5772011,19.0560715
ÓBUDAI WDSE,"Budapest, Mozaik utca 7",ChIJ16XPQ1nZQUcRczFx2ZatZkA,47.551007,19.0473849
InfraSpace Kispest Alakformáló Szalon,"Budapest, Ady Endre út 63",ChIJ9TanolXDQUcRVXOsRxxrjAY,47.4520644,19.1432228
FTC 2. Youth Center,"Budapest, Vajda Péter utca",ChIJIWAoUNDcQUcRgmUdXLJ4kbY,47.476404,19.112777
Gym Story,"Budapest, Izabella utca 29",ChIJd6rbBR7dQUcRmLL8cXsnQhg,47.5049876,19.0713516
Royal Fitness,"Budapest, Pozsonyi utca 4/F",ChIJH35EoUraQUcRjRhY9GgKits,47.5547549,19.0897719
Struve Fitness - Do It Together,"Budapest, Klapka utca 17-19",ChIJA9_pzfzbQUcR7SghODt471M,47.5255389,19.0704065
Budapest Top Team,"Budapest, Zsemlékes út 25",ChIJmweJ_mXEQUcRndwU82llClI,47.50556839999999,19.2189159
Perfect Fight Club,"Budapest, Fűrész utca 113",ChIJ_X_-L3TbQUcR-WTpFiDjamM,47.5263749,19.1042317
Klebelsberg Veronika Yoga & Massage - Energiaközpont,"Budapest, Teréz körút 32-1. emelet",ChIJYYt8DXrdQUcRIFJ01g-COlU,47.50676129999999,19.0608419
SportPont,"Budapest, Rózsa utca 50",ChIJpfFEOHDcQUcRsmPEIVTXw5c,47.50730919999999,19.0693039
EduYoga Stúdió,"Budapest, Nagyajtai utca 4/a",ChIJOfXz1sbfQUcR4kyISZ1wO00,47.5144111,19.0035737
MetaForma Pilates Stúdió,"Budapest, Eötvös út 47-53",ChIJ8fYARQ_cQUcRF-HF0Lqor8k,47.5005071,18.9706714
Sóterápium Kft.,"Budapest, Posztógyár utca 1",ChIJa0eHo-7nQUcRQDNXCFQOC4Y,47.42148099999999,19.0649291
Outdoor workout park,Budapest,ChIJDXytmkndQUcR3iSrrQNgIgY,47.50488289999999,19.0325711
Magyar Kuzdőszellem Sportegyesulet,"Budapest, Eötvös utca 35",ChIJ5_l7sJrdQUcR-sQ4j4hF-yg,47.5082263,19.0616334
Terembérlés Óbuda,"Budapest, Vihar utca 36",ChIJvykTwSvZQUcRRWk4OfF0M2g,47.5481226,19.0379046
Maradj Mozgásban edzőterem,"Budapest, Fő utca 99",ChIJ-3F6mAPDQUcRSQ0B-hrm_GM,47.4495183,19.1366337
InfraslimX Káposztásmegyer,"Budapest, Dunakeszi utca 6",ChIJ-fFoiiPbQUcRjCD6F01n88M,47.58361,19.1096047
KissLife Fitness & Gym,"Budapest, Tétényi út 63",ChIJ8TzsYr7dQUcRyFEo0dhkE0Y,47.46443439999999,19.0322748
Pit Bull team Soroksár,"Budapest, Bolgárföld dűlő 33",ChIJ12LHCPfpQUcR9trJzqIewBI,47.42636650000001,19.0960311
Fuego Lady Fitness,"Budapest, Kerepesi út 26",ChIJI8GAD_HdQUcRR6WvAtyKLqs,47.5005245,19.1089877
Minifit Stúdió a Nők személyi edzője,"Budapest, Fivér utca 6",ChIJ48trB7nbQUcR8fK6sn___tQ,47.5416432,19.0851958
HydraFitt Stúdió,"Budapest, Háromszéki utca 6d",ChIJKSyATfLBQUcRXgeqGuph76I,47.4260805,19.2197517
1stCLUB Fitness & Wellness,"Budapest, Csömöri út 227",ChIJjQj75dDEQUcR5k9AAf-2AW8,47.5320384,19.1754869
Wekerlei Mozgásműhely,"Budapest, Teleki utca 56. - a",ChIJq6qWoeHCQUcRpHMPBa65op8,47.4595832,19.1481813
Konditerem,"Budapest, Komócsy utca 36",ChIJxaosjivbQUcRWO5nOuqqG5c,47.5198555,19.12086
Bellaby Studio,"Budapest, Versec sor 6",ChIJLW0rHfLfQUcRPCfxyrXYQIE,47.524762,18.9867649
Tungsram SC Sportcsarnok,"Budapest, Megyeri út 6",ChIJNenv0GXbQUcRdymK8uXU6vg,47.57610709999999,19.0837388
EMS Revolution Fitness Stúdió,"Budapest, Jász utca 65",ChIJmyt25pfbQUcRLAh8iSR41BQ,47.5329699,19.0848594
FitFun Studio,"Budapest, Munkásotthon utca 44",ChIJiXFVblrbQUcRsl1uTqwQ6hk,47.55938889999999,19.0931765
Thor Gym,"Budapest, Nándorfejérvári út 40",ChIJCbQVPqLdQUcRvqAK0Dti_lk,47.4602583,19.0461268
Personal trainer Budapest,"Budapest, Eötvös utca 49",ChIJ02O2xvHdQUcRksIwn295lFM,47.50956699999999,19.0600288
Trainsmart Fitness,"Budapest, Pasaréti út 7",ChIJy61Qef3ZQUcRyRthcmdz57s,47.510847,19.0107561
Wekerlei Vasgolyósedzés Kettlebell Klub,"Budapest, Petur utca 7",ChIJTzY9hAzDQUcRjFiqpxJnlD8,47.4584477,19.1279216
Victory Fitness Újpest,"Budapest, Stop-Shop bevásárlóközpont, Árpád út 183",ChIJMaqsdUXaQUcRIsvoP0Zxh7E,47.5616709,19.1069
"Mandala Budaörs - Mozgásstúdió, Biobolt és Egészségpont","Budaörs, Lévai utca 29",ChIJCxfveSneQUcRdIt9wVuFJkQ,47.4591535,18.9430281
KOR-NO Mozgásstúdió,"Budapest, Lőcsei út 43",ChIJJU0Jzm_bQUcRvVExsdaAPGc,47.52138889999999,19.1125269
Kettlebell Zóna Újbuda,"Budapest, Villányi út 5",ChIJJ2w8yjfdQUcRxZtgXjS7pFo,47.4782059,19.0452303
Hapkidosuli - Diamond SE.,"Budapest, Jövőbarát Alapítvány, Pethe Ferenc tér 1-3",ChIJFfTqiHnZQUcRwGUgv7DMrRo,47.5569879,19.0437796
INVERZ - Aerial Yoga I. kerület,"Budapest, Hunyadi János út 3",ChIJ4xYfSgDdQUcRjdG4XokpYlM,47.4988618,19.0395067
Street workout park,Budapest,ChIJofGZApLpQUcRhlC69U4oS4Y,47.4157887,19.1158416
Felkelő Nap Háza Stúdió,"Budapest, Rákóczi út 36-2.em 3/a",ChIJNRH0gmfcQUcRap9sKkIshcA,47.49668279999999,19.0681316
Sanara Budapest,"Budapest, Szervita tér 3 25-Kapucsengő Fél emelet",ChIJT_LaVEXdQUcR3LGqrjFUrSk,47.49536159999999,19.0525399
Infratrainer Budafok,"Budapest, Gádor utca 142",ChIJIfkQ-T_nQUcRdgxy0UZfy7w,47.4258595,19.0124076
Pilates Plus Stúdió,"Budapest, Apostol utca 13/B",ChIJn3sWHKreQUcRJ0zPJRGXMIA,47.5180556,19.0336646
"Re-Form Alakformálás - Hypoxi Trainer, Nyirokmasszázs, Flabelos","Budapest, Bajza utca 68",ChIJFcBkadbdQUcRLsHuiIbtUo0,47.51411359999999,19.068139
Edzőtermek Kkt.,"Budapest, Jászberényi út 24",ChIJ3fdvk0_DQUcRrDtROKj74xc,47.491121,19.1484289
Realfit Kettlebell Klub,"Budapest, Soroksári út 158",ChIJZUA1s03dQUcRao5aI8AXNXo,47.447517,19.0914563
BeeZ Fitness,"Budapest, Dessewffy utca 35",ChIJM7uhWgTdQUcRouAEgfe7PxI,47.5057309,19.0580288
Helló Jóga,"Csömör, Vágóhíd utca 1",ChIJycYzhL3FQUcRbAzahAy33M8,47.54926829999999,19.2213196
Narayana Yoga,"Budapest, Károli Gáspár utca 29",ChIJZ4FEI_fnQUcRJ-eL9bsDYVY,47.42995889999999,19.0747171
Szécsényi Fitness Bt.,"Budapest, Somlói út 45",ChIJKQrmEzTcQUcRxMMZxbvh6hI,47.48531120000001,19.0364666
Victory Fitness World Mall (Asia Center),"Budapest, Ázsia Center, Szentmihályi út 167",ChIJGXwDRbPZQUcR6gGfQsuqwrg,47.5491179,19.147796
Pilates Boutique Újbuda,"Budapest, Bercsényi utca 14",ChIJc5Hj3OTdQUcRnTK2Jy8kKjA,47.4774734,19.0511171
Hamsa Jógastúdió,"Budapest, Maglódi út 16",ChIJl3F7tYDDQUcRgeRpoSHJ5Fo,47.48010499999999,19.1627958
Pilates otherwise STUDIO,"Budapest, Batsányi utca 2",ChIJD-N4PeTcQUcREJrvt_rYE44,47.4799677,19.0927543
Progresszív Pilates by Tasnádi Bea,"Budapest, Vigadó tér 3-4.emelet",ChIJGb-m0KrdQUcRT_QgeGpP73Q,47.496117,19.0485339
Dr. Jézus,"Budapest, Gyömrői út 63",ChIJNcgBqyPDQUcRouvspp7Bp1Q,47.46982939999999,19.1461128
Klinga László Birkózóterem,"Budapest, Eötvös utca 5",ChIJtRjvJ97CQUcRF4V7vlPKUes,47.4597613,19.1426622
Mantra Pedikűr Stúdió & Infraszauna,"Budapest, Kiscelli utca 74",ChIJNdKr8OXbQUcRSRQxt09lxgk,47.5386495,19.0341029
WodStock by CrossFriends,"Budapest, Tarpai tér 3525",ChIJ9-l8JMnbQUcRyEYlfzPYbrA,47.5803478,19.1201851
Wekerlei Mozgásműhely,"Budapest, Baross utca 48",ChIJlbdExdHCQUcRZrj8ccRxOtg,47.4571769,19.1214418
Buday Taekwon-do Team,"Budapest, Mosonyi utca 6",ChIJgcesHorcQUcRtxgYyxhQco4,47.4985705,19.0823493
"Body Angel Alakformáló Stúdió ( InfraTrainer, EMSzero, Wiener, G5 masszázs, Kavitációs zsírbontás)","Budapest, Kerék utca 28",ChIJy1_n8irZQUcRw47YOqwX-WM,47.5478881,19.0419283
Addicted to Pilates,"Budapest, Margit utca 15",ChIJLeGkzfvdQUcRyB7CebmNt-E,47.514912,19.033876
Egy Kiss Harmónia - Masszázs és Jóga,"Budapest, Érsekújvári utca 10",ChIJbzSYziTFQUcRSwWzPEdxo7k,47.5282355,19.1633562
Kundalini Yoga Narayan,"Budapest, Nánási út 2B-I 19",ChIJ_wtKKqjZQUcRQMeQSYT6vww,47.5658667,19.0613237
"Nováczki Éva - kundalíni jóga és meditáció oktatás - online egyéni és csoportos órák, segítő beszélgetés","Budapest, Henger utca 7",ChIJFYv0LDrdQUcRILaHkyEa-QU,47.51321309999999,19.0371501
Peace Of Mind Yoga - Barkóczy Barbara,"Budapest, Tahi utca 69",ChIJWfMojm7bQUcReuymRrPuV-o,47.5369296,19.0881978
Szertár,"Budapest, Vaskapu utca 1-E 1097",ChIJYb0V5V_dQUcRvwXZu5gBLz4,47.4795254,19.0698878
BKE - Judo training in Budapest,"Budapest, Tolcsvai utca 7",ChIJ9dllZ6PnQUcRYKvi2bypLG0,47.4148961,19.0324204
Holiday Fitness,"Budapest, Király utca 9",ChIJJTDfmzfaQUcRXEPJhWq83YY,47.56236,19.092078
Lantos Johnny Fitness,"Budapest, Üllői út 243",ChIJH2ksMtnCQUcRuAfjJvVwlW8,47.4611207,19.1347108
No Limit Boxing & Gym,"Solymár, Mátyás király utca 11",ChIJJ_U8UmN3akcR58cUH3Lw4VY,47.59205439999999,18.9378886
VM CrossTraining,"Budapest, Terv utca 1",ChIJGV4oABfnQUcRDuTm51QVr4M,47.4123795,19.006289
Athlete Factory,"Budapest, Park West, Szabolcs utca 23-25",ChIJJ1_oPPbbQUcRrhHhGEH95xU,47.51842569999999,19.0704948
Szonja Gerinctorna,"Budapest, Huszti út 41/A",ChIJERNKfDTZQUcR2fluF_duYQg,47.5630164,19.0442342
Studio BUT. Budaörs,"Budaörs, Ady Endre utca 59",ChIJd8uKZ-LfQUcR_PCokov6uec,47.4543798,18.959748
Fodormenta Gyógyászda,"Budapest, Százados út 39-41",ChIJ1-GRBJbcQUcRtu4Z0WNMqtA,47.4950245,19.1075208
BESTRONG Kondipark,Budapest,ChIJcVlI_0_DQUcR53kEMWWjcKc,47.4366687,19.181866
Classic Body Power Gym & Fitness Gym,"Budapest, Péceli út 156",ChIJvSe078nGQUcRKQCM4KyfZvI,47.4852837,19.2811278
Végtelen tér Jógastúdió,"Budapest, Kőfaragó utca 10",ChIJn6HCbmDdQUcRC4eKZgCIu2g,47.493638,19.0689187
Petanque pálya,"Budapest, Bikás Sétány, Budapest, Unnamed Road",ChIJJe1aQLLdQUcRPt4KZZtUyuQ,47.4655028,19.030285
Műfüves Focipálya,"Budaörs, Kolozsvári utca 52",ChIJVaN7d7rgQUcRcPL8WQcPus0,47.4395424,18.9647694
Be Kind Studio,"Budapest, Törökvész út 87-91-3.emelet",ChIJvdWEQTrZQUcRuqZF1rsUQL8,47.52898269999999,19.00549359999999
AUM Jóga - K1 terem,"Budapest, Károly körút 1-jobb lépcsőház 2/4",ChIJgb7uA0PcQUcRpJvNhPZpOOA,47.4947852,19.059959
Zone 33 fitness club,"Budapest, Búza utca 8",ChIJK2DAaXvZQUcRhOCgFpupiyU,47.5586081,19.0449316
PolePlay Pest Rúdsport és Légakrobatika Stúdió,"Budapest, Lehel utca 5",ChIJvw1WM3LcQUcRRlikC17kHxs,47.5176331,19.0634858
Tf Csörsz u,"Budapest, Csörsz utca",ChIJp4jvGgDdQUcR3pdnQzEw8Iw,47.4901292,19.0233092
Megatenisz,"Budapest, Komáromi út 8",ChIJc1JioQrnQUcRKHIFrAW4iI4,47.42106380000001,19.0267132
Inbound Yoga Budapest,"Budapest, Csengetni kell a Bharata kapuján, Tivadar utca 3",ChIJxd6POmTcQUcRno8OcSn0BvU,47.5012868,19.0724622
Fit factory,"Budapest, Soroksári úti Tesco áruházban, Koppány utca 2-4",ChIJZU9VLxrdQUcRBTcpGXXkCwk,47.46561349999999,19.0796032
R70 Fitness,"Budapest, Rákóczi út 70",ChIJQ7examHcQUcR1WXDUM83_58,47.4987484,19.0754141
Merkaba Yoga studio,"Budapest, Nemez utca 2-4",ChIJ46XNk6XpQUcRdjSVOkMaOt8,47.53056009999999,19.2131232
Prana Jóga és Életmód Központ,"Budapest, Vág utca 1",ChIJ821USQDDQUcRQoJx0j7qmdc,47.436715,19.1967547
Dollhouse Buda,"Budapest, Villányi út 6",ChIJ2TVlcLPdQUcRwGwIEg1Kdy8,47.47779060000001,19.0450364
Tárna Fitness,"Budapest, Tárna utca 2/B",ChIJjZuuFmjDQUcRzKn9w-EMC-M,47.4883479,19.1643704
Budafok Fitness,"Budapest, Kertész utca 2b",ChIJ_dJH9XPnQUcR-MX8_MaNM_Y,47.42625289999999,19.0230601
Fitness 5 and GYM kispest,Budapest,ChIJU0ADO-HCQUcRqPO8LLWcJrk,47.45804510000001,19.1465056
PolePlay Buda Rúdsport és Légakrobatika Stúdió,"Budapest, Bartók Béla út 79",ChIJXSxIXrbdQUcRmkWuaHyRg5I,47.4746174,19.0378715
APEX GYM - Budaörs,"Budapest, Repülőtéri út 2",ChIJjchK8YDhQUcRhucKPhKuxMA,47.44863549999999,18.9752442
Szattva Jógastúdió,"Budapest, Pesti út 41c",ChIJ8SNatv7DQUcRDkp2nQjijGY,47.4824197,19.2408095
Jóga Rebel,"Budapest, Ipar utca 3",ChIJoyBlMe7dQUcRnjUxyXsHBiE,47.477765,19.0696829
Peak Arena Gym,"Budapest, Kerepesi út 9",ChIJ65gplo7cQUcRKVpK2RtTGpw,47.4983551,19.0898455
Szabadtéri kondipark,Fót,ChIJx-O9CCPRQUcRHxn5BJ8jHAM,47.60527440000001,19.1982389
"Titan Gym- Budaörs (volt Terrapark Fitness, Pláza Fitnes)","Budaörs, Táviró köz 2",ChIJZfdg7vzhQUcRDvWhvxabF8c,47.45739709999999,18.9367121
Katana SE Shoryumon Karate Dojo,"Budapest, Angyal utca 7/a",ChIJEZ8TU__cQUcRBv-lDF7J1Co,47.4807427,19.0688073
NFGYM,"Budapest, Than Károly utca 19",ChIJa5RNEwDdQUcRq2laN3JIohY,47.4584193,19.0264002
Sunrise Pilates,"Budapest, Zrínyi utca 68",ChIJZ3j7w0rDQUcRMULP2U5kRFA,47.44997799999999,19.1481819
Experience Soul & Body,"Budapest, Kmety György utca 15",ChIJA6p5jDTdQUcRkOK5OfhLevE,47.5115542,19.0690768
Outdoor gym,"Budakeszi, Makkosi út 163",ChIJmVoZnyffQUcRBDAWaFzj5JQ,47.49798659999999,18.9456432
First Touch,"Budapest, Gizella út 25",ChIJLyIasoPdQUcRwRtlqvhqL-k,47.5069147,19.10186989999999
Szabadtéri fitneszpark,"Budapest, Egyenes utca 16",ChIJYaeXgOLFQUcRTKfOH6VBLS4,47.5074751,19.1571294
Maniti Jóga- és Mozgásstúdió,"Budapest, Petneházy utca 60",ChIJRXNu8YHbQUcRT6MkRRHdT24,47.53288000000001,19.0806311
Pilates Habit - Reformer Pilates Stúdió,"Budapest, Móricz Zsigmond körtér 14",ChIJQSSNzgbdQUcRnosDI_QGddQ,47.476701,19.0476519
Speedfitness,"Budaörs, Károly király utca 2-16",ChIJo4Z05SPeQUcRPFNhhdH7K-s,47.4596739,18.9587487
Frangipani Yoga Studio,"Budapest, Páva utca 19",ChIJzwC_fnndQUcR0X6kAfUqDZo,47.4815495,19.0722633
Napfonat Jógastúdió,"Budapest, Kő utca 45",ChIJgWiXVCzZQUcRozh-qQ3DUjI,47.5539374,18.9569485
Budapest Rowing Club,"Budapest, Népsziget 1-3",ChIJccdlRtHbQUcRYt7rHDtVDdU,47.55161679999999,19.0667327
Park Plaza Budapest,"Budapest, Bem rakpart 16-19",ChIJceAajRfcQUcRDVkN0SLIKHQ,47.5025948,19.0395694
New Pilates by AD Hegyalja,"Budapest, Hegyalja út 26",ChIJBWGUcMDdQUcROxtWyT1i224,47.4884202,19.031917
Muditayoga Ashtanga Jóga Stúdió,"Budapest, Győri út 2/B",ChIJwba_iiXcQUcR1N5VxvLECZ8,47.49316,19.027015
Hidasi Tobi Aztec Fitness Club (gold),"Budapest, Mechwart tér 1",ChIJ08XeYFXdQUcRu1RdTIqhg6I,47.51210599999999,19.031736
Greenshape,Budapest Báthory utca 15 fsz.3. üzlet,ChIJb9LY997CQUcRaFvXIRRwW3w,47.45607789999999,19.1429246
Izompark,"Törökbálint, Fakereszt, Csokonai utca 5a",ChIJDW4fK17hQUcR8g5U3NPs3ds,47.4360963,18.9184272
Shitokai Hungary Karate Dojo Kolozsvár Általános iskola,"Budapest, Kolozsvár utca 1",ChIJHwpDZsPbQUcRdOBkDFgKRQM,47.5410423,19.1199981
Global Fitness RSR,"Budapest, Pesti út 86-88",ChIJm8b9NR7BQUcRRzDCvOYq8qQ,47.4821835,19.2485498
Royal Station Sports and Leisure Center,"Kerepes, Szabadság út 102/B",ChIJ6VhYaPLFQUcRXfur7fvBO2A,47.5550665,19.2758143
vonZArt,"Budapest, Tói malom utca 4/B",ChIJF8RT1-bDQUcRP8Zso-Wdirs,47.48544039999999,19.2295159
TMS Pilates Vörösvári út,"Budapest, Raktár utca 52",ChIJIbiTWKzZQUcRuX_yaWyjb5c,47.5463951,19.0359366
HR Fitness,"Budapest, Ferihegyi út 27",ChIJ3WZYrXHHQUcRqLmEmT2_K_E,47.4893435,19.2593374
Jóga Paradise - Újpest,"Budapest, Istvántelki út 62",ChIJveVYkJfbQUcRAAp6kg4Joxc,47.56023870000001,19.1063909
Spinracing7 Cardio Indoor Cycling és Spinracing edzések a 7. kerületben,"Budapest, Nefelejcs utca 50",ChIJ5fJItjbdQUcRzjv-7CLdqhY,47.50561539999999,19.0791016
Maoli Hangtálterápiás Központ és Jógastúdió,"Budapest, Szőlő köz 1-9. em. 26 a",ChIJF6wcitnZQUcRhBqf51kQTMU,47.5382103,19.03979
Daksa yoga and more,"Budapest, Attila út 12",ChIJUVHPiMXdQUcRzfBZ21amKEg,47.4981076,19.0322784
Magyar Chan Wu Szövetség,"Budapest, Márga utca 9",ChIJX5QrEzrDQUcRhvjL3YExmKE,47.4772303,19.14127440000001
New Shape Studio,"Budapest, Timur utca 86",ChIJGe-yugjFQUcR6DssV414W6Q,47.535976,19.1991467
Yoga Home Buda,"Budapest, Maros utca 9",ChIJMQ-reDHfQUcR5Fwu94UzjtM,47.5036703,19.0229956
Bellváros Functional Fitness Gym,"Budapest, Károly körút 4",ChIJ9cusOkXcQUcRfu5jQUFtmBA,47.494528,19.059437
Chili Fitness 2,"Budapest, Etele út 57",ChIJeZ6grL_dQUcR0r7qbXLtxsQ,47.4641955,19.0308053
Kulcsár István - Személyi edző,"Budapest, Péceli út 156",ChIJbaI2QCzHQUcRuyzHdP7xFIk,47.4853951,19.2811109
Hold21 / Women's playground,"Budapest, Visegrádi utca 21",ChIJHcxJ6AvcQUcRCGX8UGx0EOI,47.5147087,19.0559628
GalamBOSS GYM,"Budapest, Raoul Wallenberg utca 2",ChIJY6xbLo7dQUcRTWZYzJ2VnW0,47.51443219999999,19.0520199
Virágvölgy Jóga,"Budakeszi, Virágvölgy utca 4",ChIJ7yVdk1vfQUcR52g1-4ftgMw,47.5119547,18.9375373
Ecseri Mocorgó,"Ecser, Zrínyi utca 7/A",ChIJx_z8cAHdQUcRmMMRwNj2BCs,47.4401319,19.319822
Árgyélus lovasudvar,"Budapest, Felsőbabád utca 12",ChIJpxBM2szBQUcRXsW59YBlqBE,47.4501504,19.2375911
Anima Body & Soul jógastúdió,"Budapest, Római tér 3",ChIJyZsd43rZQUcREjVZ5iUojIU,47.5685447,19.0499585
SuperDance Tánciskola,"Budapest, Révay utca 12",ChIJ6VdICGvcQUcRkAwQZKlvb7c,47.5015035,19.0565935
Träning,"Budapest, Hévízi út 1",ChIJM8Yq017ZQUcRlDUTJ05uRd4,47.5476902,19.0318112
Patkó Fitness Budaörs,"Budaörs, Patkó utca 3",ChIJ77ImFg_fQUcRFXxTyZR2DpE,47.459612,18.9407747
TMS Pilates BudaHills,"Budapest, Törökvész út 33-39",ChIJ7aHQq1jfQUcRqy-nCC9zW4I,47.5244241,19.0135835
Ászana Kuckó Jógastúdió,"Budapest, Frangepán utca 6",ChIJY-_W4unbQUcRiGACFF0kYqc,47.5363579,19.0700623
Yogasecrets Studio,"Budapest, Sümegvár utca 27",ChIJv98sb9zdQUcRQxuWG3jC9yA,47.46970419999999,19.0111106
Studio 63,"Budapest, Zápor utca 63",ChIJ0T_NhHCXGqQRF7zW0cU3LBE,47.54095479999999,19.0356932
Balkezeseszközök webáruház - átvételi pont,"Budapest, Keszkenő utca 40",ChIJxTEDHbvbQUcRztIse3sT5uU,47.5402353,19.09222819999999
Body&Yoga Studio,"Budapest, Uszoda utca 2",ChIJ56lPm-PDQUcRwcjI7L1xDlY,47.478951,19.2354425
Fitness Budapest,"Budapest, Frankel Leó út 21",ChIJBRlvKALcQUcR66cByRuYvcQ,47.4699025,19.1209672
EBMAS Wing Tsun kungfu Pesterzsébet,"Budapest, Baross utca 55-B épület",ChIJp_t2ep7CQUcRrzFb7J-HrEQ,47.43513309999999,19.1007188
Beverly Shape Infrashape Allee,"Budapest, Október huszonharmadika utca 17",ChIJE05yZmvdQUcR1w9PoGm4XgI,47.4735749,19.0493091
Dora Yoga,"Budapest, Dora Yoga - Healing Home, Pozsonyi út 54",ChIJIZUOk17dQUcRVlLvrA1mEBU,47.5205263,19.0525439
Kondipark,"Budapest, Monoki utca 32",ChIJL3w7dejFQUcRF9oO0_6KoGA,47.530537,19.199871
Csárda,"Budapest, Mészöly utca 35",ChIJXQLkJQDdQUcR-U6XMAKy48c,47.481092,19.0502973
Testközpont Kft.,"Budapest, Balzac utca 9",ChIJQ1Q9oAncQUcRJgGqgDgYn-k,47.5152495,19.0569701
Brill Fitness,"Budapest, Váci út 28",ChIJj474CQvcQUcR4ajj3OPeD_4,47.51484689999999,19.0587561
Rákosligeti Opti Tenisz Club,"Budapest, Hősök tere 3",ChIJQeaRPqnGQUcR3vQH1nnUDRM,47.4901688,19.2590961
Fitbody- Pilates & Szülés utáni regeneráló torna,"Budapest, Rezeda utca 8",ChIJp4K36d_DQUcRuOokvgZ7xQQ,47.43902050000001,19.1108311
Balance Pilates Studio PEST OKTOGON,"Budapest, Eötvös utca 29",ChIJ6R3ucHLcQUcR9WI0uHifCSw,47.5078152,19.062238
Bengym,"Budapest, Bartók Béla út 136",ChIJ62hQvmndQUcRu2aiRfVIhtE,47.469719,19.0270769
Yoga a magajoga,"Budapest, Népfürdő utca 21f",ChIJgSBnOrzbQUcRqH7u-DeRiSc,47.534156,19.0598968
Motilitás Fitness,"Budapest, Az épület alagsorában, Liliom utca 53/A",ChIJ8YZHGPjcQUcRjeO-TVO2Jwo,47.4846672,19.0727502
DanceFlow dance and movement studio for women,"Budapest, Széher út 1",ChIJZX1XmtDeQUcR7Rv17ldzyGo,47.5208766,18.9873258
Ghost Fitness,"Budapest, Perc utca 2-1. emelet",ChIJET0ajarZQUcRoEFtAjbhSaE,47.5362163,19.0428784
C-Body InfraShape alakformáló szalon,"Budapest, Szamos utca 2/c",ChIJD2ZYVYrfQUcR9AGnKs9gCFw,47.5069883,19.0177226
Élménymozgás Stúdió,"Budapest, Dessewffy Arisztid utca 17",ChIJYQX2BPTbQUcRO-dGOGJUkbY,47.55565929999999,19.1255265
ChrissFit - Jóga & Fitnesz,"Budapest, Kende Kanuth utca 94",ChIJTUYtgZjDQUcRpFltamEE-4o,47.4402134,19.1121333
aKözpont Yoga Studio,Budapest Széna tér 7. III/8,ChIJbUnPP1rbQUcRvUWqsSzX0lk,47.50738459999999,19.0267043
VIRGONC MŰHELY - mozgásstúdió,"Budapest, Istenhegyi út 49",ChIJJ22AjPTfQUcRygGUq6Wt0aI,47.50328469999999,19.0028903
Sterbinszky Amália Kézilabdacsarnok,"Budapest, Fáy utca 58",ChIJ0W1WQejbQUcRYGCtpQlK84k,47.53700349999999,19.0818604
Gal László,"Budapest, Thököly út 165",ChIJkcK-mKTbQUcRjdsUQGiuryQ,47.5177959,19.1100575
Grád Boxing Family,"Budapest, Koppány utca 2",ChIJh06jJBrdQUcRXAnQNkl6Rhs,47.4654177,19.07909889999999
Будапешт,"Budapest, Haller utca 27",ChIJ6YFiOgDdQUcRZY3Za6NHe7Q,47.4767987,19.083617
Budafoki Martial Arts Center,"Budapest, Tolcsvai utca 7",ChIJ84tMa6TnQUcRYPSGDdUIxGI,47.4144149,19.0325525
Pulzus Mozgásstúdió,"Budapest, Tói malom utca 4/b",ChIJEVhF1NfDQUcRICOVKYhCIkk,47.48555,19.2296918
Zuglói Fejlesztőház,"Budapest, Negyed utca 27",ChIJ3wsGgN7bQUcRhGNwtIwN7J4,47.519512,19.1448334
B-Active Mozgásstúdió,"Budapest, Hajnóczy József utca 5",ChIJ7zuponzfQUcRm8INjB4rTF8,47.50463149999999,19.0233493
Fitness 5 & Gym,"Budapest, Pesti út 237f",ChIJQ-Rh1EnBQUcRQaWaDQit-is,47.47386340000001,19.2715468
Jóga a Mindennapi Életben Swamiji Magyarországi Egyesülete,"Budapest, Baross utca 121",ChIJtdqZbfLcQUcRh4OGqziADHg,47.4891388,19.0879457
Mágikus Gyerekjóga & Felnőtt jóga -16.kerület,"Budapest, Menyhért utca 6",ChIJP0x2utrFQUcRlPIqkZWhSJI,47.53061539999999,19.2038386
Thor Gym Csepel,"Budapest, Lakatos utca 3",ChIJHUQDQwTFQUcRG93JO7rklxA,47.42924009999999,19.0588165
PRO Fitness GYM,"Budapest, Üllői út 200",ChIJeysbOxrDQUcRC4zZmRVHqvM,47.46141009999999,19.1369181
Power Lab,"Budapest, Izabella utca 81",ChIJPSzV58HdQUcRZwGDUuriS1U,47.5101748,19.0642052
Europe House,"Budapest, Margaret Island",ChIJyXlvAvnbQUcRQOGYozTFpuc,47.52251819999999,19.0484664
Jógasarok,"Budapest, Zichy Mihály utca 28",ChIJ0cbWP0_bQUcRgPNeYC_cnPA,47.5601411,19.1085543
Pilates + Intim torna,"Budapest, XI: Hotel Ventura, Fehérvári út 179",ChIJB62LJo3dQUcRhintleCIwNM,47.4541356,19.0389126
Wáberer-Movement Lab,"Budapest, Waberer Medical Center, Alkotás utca 55-61",ChIJgSf8XnPdQUcR6hdmDqemcXI,47.4899052,19.0238592
Downdog Yoga Studio - Blaha,"Budapest, Szövetség utca 9",ChIJs9UmSWHcQUcROyYEpI25Puw,47.4991673,19.0744669
Örökmozgó - funkcionális tréning,"Budapest, Tisza utca 18",ChIJeRNgvp3bQUcRRfRsZWN1ywU,47.5245273,19.0592639
Big fighters,"Budapest, Örs vezér tere M+H",ChIJByhwUpfdQUcRCI_YO-O-8Jw,47.5023875,19.135609
Pilates Lab by TEA,"Budapest, Bojtár utca 39",ChIJJysK3pfZQUcRwtMIvYzB5uI,47.5603469,19.031123
Zen Power Sportcentrum,"Budapest Bartók Béla út 105, 113 Bartók Udvar 5-épület, 1. emelet",ChIJHQ0GMfTdQUcRwdOYDLCpAvw,47.4726794,19.0314749
ST Fitness,"Budapest, Tátra utca 32",ChIJP3ZxrAncQUcRPxNE4cv4s5g,47.5169659,19.0529293
Sirius Lifting Grund Zero,"Budapest, Reitter Ferenc utca 132",ChIJE4qiJ_fbQUcRH4ISRb9p4H0,47.54049739999999,19.0908516
Fitness SunPalace,"Budapest, Nagyszombat utca 1",ChIJRw5PPFjZQUcRxdV_BK44vbI,47.53252399999999,19.0425283
Just You Speedfitness,"Budapest, Vértanúk tere 1",ChIJVzYc6nHcQUcR5H1mPpojisw,47.5054793,19.04779449999999
Bessimeon Központ,"Budapest, 515. utca 32",ChIJvwQ01_PDQUcRu533subWJOw,47.4825569,19.2250914
Foci pálya,"Budapest, Ecseri dűlő 10",ChIJv5_HD1zBQUcRgTUPo50iaO0,47.4653652,19.2806515
Szabadtéri edzőpark,"Budapest, Vizafogó",ChIJ0Q6_kjLbQUcRGlWno-OgLpU,47.5319,19.0619905
Vibrohome Szalon,"Budapest, Kökörcsin utca 19",ChIJgTXiwsndQUcRMyx1RO75wLU,47.475237,19.0338404
Játszótér,"Budapest, Király utca 23",ChIJXyf2d2ncQUcRpLZahUum8bk,47.50014199999999,19.06052069999999
Hėtholdház,"Budapest, Lövőház utca 24",ChIJ7SYqlabeQUcR_-FktXrspwM,47.5103038,19.0239217
Indria Jógastúdió,"Budapest, 7-es kapucsengő, Eötvös utca 26-b 1. emelet",ChIJdXxRed7dQUcRehjMabw987k,47.5073259,19.0625009
Fittkavalkád,"Budapest, Mag utca 3",ChIJ62Q6uurnQUcR3Ni46UyJcrw,47.4177912,19.0570888
Karuna Yoga Studio,"Budapest, Dózsa György út 12",ChIJoQWmZhXdQUcRtJscKQrAB7o,47.502581,19.0902377
Zion Team,"Budapest, Lónyay utca 16",ChIJyfRKGtXdQUcRAHWzOSbCo9M,47.4867612,19.0617112
Svájci lépcső,"Budapest, Svájci út 1",ChIJRSN5bfLfQUcR9Xuqp58dbf4,47.4957992,18.9832969
Óhegy park futópálya,"Budapest, Kőér utca 25",ChIJ4dK80DnDQUcRKfgXe1hjFjg,47.4803071,19.1424479
Pure Pilates Studio,"Budapest, Dalszínház utca 2",ChIJj6V76mvcQUcR0vWKSwj0NLg,47.501608,19.0589808
Jógaoktató képzés,"Budapest, Dráva utca 17",ChIJvXYiffDbQUcRyG0bbyPVgY4,47.5264663,19.0561507
4% Fitness Corner Konditerem és Edzőterem,"Budapest, Paulay Ede utca 25-27",ChIJkVy_9z7dQUcRtgi3Uk14A2Y,47.50094419999999,19.0584946
Granthill Fitness Studio,"Budapest, Lónyay utca 15",ChIJnfKPjlDcQUcRChtoEZMZ20c,47.48622100000001,19.0616569
Infraslim X & Beauty Co.,"Budapest, Károlyi István utca 21-23. B",ChIJVwT40K7bQUcRc6EBQ1Jy7ck,47.5633595,19.0847124
Powercat Training System - Kinizsi utcai terem,"Budapest, Kinizsi utca 33",ChIJD5HLZVfcQUcRKIHntbfZI-w,47.48575599999999,19.066806
Edzés Másképp - Polgár Viktor Kettlebell és Kaatsu edző,"Budapest, Törökvész út 95 A",ChIJG5r7y5LZQUcRnWKKVE9i7jo,47.52974279999999,19.0025798
Maou Pilates Studio - Újbuda,"Budapest, Alíz utca 6/B",ChIJZ45WcL_dQUcRsauQcmqPH_w,47.458056,19.0483314
Calisthenics Park,"Budaörs, Hársfa utca 6",ChIJt_JSFgDfQUcR40WitB4mhlI,47.4557669,18.9687136
TTS Fitt,"Budapest, Corvin körút 5-7",ChIJiUpByOfCQUcRW2O4OUmjQVc,47.4614383,19.1335684
Fit electro fitness,"Budapest, Szent László utca",ChIJwV0UKV3pQUcRz4Hflv2O5Ck,47.4143845,19.1347445
Studio Aeden,"Budapest, Szarvas Gábor út 8/d",ChIJP9-fJvDfQUcRHiLekvvR4AU,47.51277729999999,18.9943963
Personal Gym - Privát személyi edzőterem,"Budapest, Dandár utca",ChIJU2uKOfTdQUcRV4Lp3GVPCyw,47.4774166,19.0737541
Multifit & Food,"Budapest, Lázár utca 9",ChIJ_TxPuYXdQUcRsC_89ZTROOw,47.50216500000001,19.056253
UTE KARATE bejárat autóval,"Budapest, Baross utca 88-78",ChIJy3vodynbQUcRf70oHHajPdA,47.57306390000001,19.0886636
B4 Fitness,"Budapest, Dózsa György út 128",ChIJgQxLv4vbQUcRjffLXjpAf1M,47.51981309999999,19.0704098
PowerBuilder HQ,"Budapest, Budafoki út 95",ChIJNbEaE7LdQUcR4uktxohGROw,47.4674485,19.0527514
Art Of Body Gym,"Budapest, Lajtha László utca 2",ChIJHTsZzLTrQUcRNC2xpjS9aV8,47.443015,19.0964174
Flow Air Yoga,"Budapest, Üllői út 775",ChIJVewTDP7BQUcRy0Asqvd_SGQ,47.4273861,19.2222635
Tairyoku Branch,"Budapest, Gutenberg körút 6",ChIJ0Z-FtsTCQUcRfJKCqzXUrTA,47.4545131,19.1303349
"MyTime Studio - Alakformálás, Szépségszalon, kozmetika, Infratrainer, HIEMT RF, LPG, Endotight, nyirokmasszázs, edzés","Budapest, Fürj utca 7/A",ChIJDSjStdbdQUcRNmojmvtKy_I,47.48722739999999,19.0211681
wavepilates,"Budapest, Fő utca",ChIJ8-Y0PqTdQUcRpI8eyA4XNnE,47.50909619999999,19.0384163
Fit Forma Újpest,"Budapest, Király utca 13",ChIJeeLO6zfaQUcRqSFG8DBrQOA,47.56198,19.09359
Powercat Ráday Gym,"Budapest, Ráday utca 57",ChIJWUyFJNrdQUcR8p66UKkUJFc,47.48213,19.0662854
PlayGarden Gym,"Budapest, Fehérvári út 132",ChIJVxJSGpndQUcRkbdQ5tLNW4A,47.4551246,19.0404132
Strap Therapy Oktatóközpont,"Budapest, Budafoki út 22",ChIJnzvGByndQUcR32utyXWbvtw,47.4771838,19.0537391
Life1 Fitness Allee,"Budapest, Október huszonharmadika utca 8-10",ChIJNzhEHNLdQUcRj5NwdT1Fzmw,47.4751414,19.0493304
Játszó & Küzdőtér - Szabadtéri edzés Gaál Attilával,"Budapest, Garden of Philosophers",ChIJ34BWyf3bQUcRVkWZKqZev80,47.4892772,19.0394019
CrossFit Tesseract,"Budapest, Mexikói út 25",ChIJ60JoQ8XbQUcRT3z2VWcz6FU,47.507324,19.107525
Action Gym Budapest,"Budapest, Reitter Ferenc utca 166-174",ChIJy9-2Lt7bQUcRrX4mA8lw5dI,47.54368410000001,19.0927509
Pilates Judittal,"Budapest, Pannónia utca 18",ChIJfVgdlwjcQUcRRPHO2AiP1h0,47.51420479999999,19.0520101
Tüskecsarnok Fitness,"Budapest, Magyar Tudósok Körútja 7",ChIJiziFFKndQUcRUe4CT2Tvqn8,47.4713437,19.0566669
Zen Kert Mozgásstúdió,"Budapest, Fehérvári út 45-53/B",ChIJRVgUMUvdQUcRlg5bWUBUaI8,47.4696159,19.0439682
SzuperAnyuka Egészségtornák,"Budapest, Gyulai Pál utca 36",ChIJAx8ifyh3akcR5iH1ldhdb5U,47.55650869999999,18.9420975
Home Fitness,"Budapest Budapest, Ázsia Center, Szentmihályi út 167",ChIJl_J-SjvbQUcRIlxH-hDTJRw,47.54890489999999,19.1469122
River Flow Studio Budapest,"Budapest, Esztergomi út 70/A",ChIJHc6ZM5LbQUcRY8pvNsH0fcs,47.5398715,19.0663403
Asram Yoga,"Budapest, Csak előre egyeztetett időponttal, only with appointment, Tátra utca 5/b",ChIJ29Mo3A7cQUcRujn5IxPc1Bc,47.5133733,19.0506948
Jáma mozgásstúdió,"Budapest, Kresz Géza utca 11",ChIJTdvMbgzcQUcRktxs-PCfA1Y,47.51260509999999,19.0558445
Miroir Studio,"Budapest, Sasadi út 50",ChIJ0YxDxizdQUcR_Uu406PGxrw,47.4707277,19.0113337
Nr1 Fitness Vágóhíd 24/7,"Budapest, Vágóhíd utca 3",ChIJW3Dh17PdQUcRx-dTmHCTkRI,47.471314,19.0773817
B-SIDE fight & cross training,"Budapest, Lovag utca 19",ChIJtZkL82bbQUcR5RY1Rwh2_ko,47.5071038,19.0585791
Baross Egészségközpont,"Budapest, Baross Gábor utca 40",ChIJ2SDoVevEQUcRHga8sQ6NlpE,47.5161835,19.1894303
CoolFit Csepel,"Budapest, Vasas utca 31",ChIJYVm-S1jdQUcRQHFbU5PYm7k,47.4355944,19.079179
Duna Arena Open Air Gym,"Budapest, Népfürdő utca 36",ChIJ8510dITbQUcRvJOYMAOLc4A,47.5418467,19.0616907
Lakshmi jóga stúdió,"Budapest, Magyar utca 10",ChIJq5CT8KLCQUcRU5U78yuEWEc,47.43389939999999,19.1221221
PolePlay Rúdsport és Légakrobatika Stúdió - Király utca,"Budapest, Király utca 102 1-em./1",ChIJk3luQWXdQUcR2BcAm37W-ik,47.50659750000001,19.0709627
Peak Gym Gold,"Budapest, Üllői út 765",ChIJsfGIIPPBQUcRpfEOB28fPek,47.4279907,19.220574
KA Performance,"Budapest, Attila út 2",ChIJzRWxXvLdQUcRRImaHSXOAFQ,47.49328109999999,19.0396985
temple.hu -Yoga classes in English/breathwork/ meditation/pilates/ massage - Intercultural community,"Budapest, Bercsényi utca 5",ChIJY81r4w7dQUcREdyrSkD60pg,47.4786493,19.0511288
CrossFit B'Bros,"Budapest, Dunavirág utca 2",ChIJR1_kHIHcQUcReUHUj17A790,47.5353888,19.0600865
Zsuzsajóga,"Budapest, Margit Körút 54",ChIJCedFcx3cQUcRYs512bC8RsM,47.5105061,19.0314418
Balance Pilates Studio BUDA,"Budapest, Furulya utca 2-8",ChIJfQKadnLcQUcRGXEUBlS4cgU,47.5238517,18.9855954
BVSC Gym,"Budapest, Szőnyi út 2",ChIJ188QE0DbQUcRkG09yBvHCjQ,47.523053,19.0931017
ABC Fejlesztő és Diagnosztikai Stúdió,"Budapest, Könyves Kálmán körút 12-14",ChIJb2JSgR7dQUcRP2kxoEL8szs,47.4706157,19.0840637
Gymbox Fitness,"Budapest, Bíró Mihály utca 3",ChIJubjLIK3CQUcRTQpu67B1ZPw,47.4376536,19.0992859
Skatepark,Budapest,ChIJ_0_kmI7dQUcR5nealGFIgoc,47.5022011,19.09369149999999
Lite Wellness Club,"Budapest, Margit Körút",ChIJI3jUTafeQUcR3agcDOzNbdM,47.5087315,19.0270785
Sarasvati Alapítvány és Mozgásstúdió,"Budapest, Wesselényi utca 17",ChIJcfRnF2jcQUcRh56FlZSHFj0,47.4976029,19.0637242
Future Body,"Budapest, Ipar utca 2/A",ChIJPU7Ypv_cQUcRfPuGh4823Gc,47.4779575,19.0695509
Westend Sportarena,"Budapest, Hegedűs Gyula utca 14",ChIJHcgmrQ7cQUcR_ip0Wf62k8U,47.51397129999999,19.0535253
Force Gym in Budapest XIII.,"Budapest, Váci út 168",ChIJuXbDmpbbQUcRltrPDnF6os8,47.5444493,19.0705715
Tiger Dojo Martial Arts,"Budapest, József körút 15",ChIJzeT3QG7cQUcR5aguJcYCWPM,47.4948988,19.0706496
LoveYoga Buda Yoga and Health Center,"Budapest, Kunigunda útja 18",ChIJVVVVVQHZQUcRIj8i9NnJ574,47.5489249,19.0341144
Kondigépkarbantartás,"Budapest, Rózsás utca 88",ChIJIWksMtnCQUcR4IP992rep9s,47.4306666,19.1281773
4% Fitness Candy,"Budapest, Rákóczi út 47-49",ChIJByC5B5jdQUcRaU85VWXcvBI,47.49761360000001,19.072618
Kyokushin Karate Edzés | Honvéd Zrínyi SE. - Genshitsu Shibu,"Budapest, Hungária körút 9",ChIJYWVq1r3cQUcRGV-uXaMNLs0,47.49420679999999,19.1102434
AD Fitness Studio,"Budapest, Cinkotai út 22",ChIJEbk9PwDFQUcRntAtbqqVKjs,47.4894687,19.2423861
Test Tudat Ébresztő Módszer,"Budapest, Böszörményi út 3d",ChIJT72y6EPdQUcRfDVePObfNgU,47.49677920000001,19.0202841
FIT360 Fitness Studio,"Budapest, Lehel utca 68",ChIJj_0JjdXbQUcRWuIa73vjSSI,47.5284851,19.0794534
CrossFit Glasshouse,"Budapest, Nándorfejérvári út 40",ChIJXWrohrzdQUcRir4Uh9LeXsI,47.46073510000001,19.0462918
Infratainer,"Budapest, Királyhágó utca 75",ChIJ3Q6-IjLdQUcR04usM99N1NY,47.4952465,19.0201964
Healing Home Movement & Therapy,"Budapest, Pozsonyi út 54",ChIJx8pvnJ3bQUcRLiownlE-lK4,47.5204239,19.0524771
Baraka Jóga és Tudatosság Iskolája,"Budapest, Nánási út 5",ChIJgdODEQ_cQUcRklO9qYVxQkk,47.5677557,19.0617273
Fitness Room Mozgásstúdió,"Üröm, Gábor Áron sétány 1",ChIJlWlowr_ZQUcRnDHiGY_yDBw,47.5876031,19.0066617
Kismama jóga Kelenföld,"Budapest, Fejér Lipót utca 61",ChIJhYScPLDdQUcR5xY8AhSRXxQ,47.46583630000001,19.036058
JIAIDO Meditációs Központ,"Budapest, Vág utca 19",ChIJ6ePROfHbQUcRGQSKBN5FcyM,47.5239434,19.0585848
BRG STUDIO,"Budapest, Budaörsi út 109",ChIJb4PwsqvdQUcR3j5Cou2zZ00,47.4680145,19.0173395
Joydance Tánc- és Mozgásstúdió-Tánciskola,"Budapest, Kis utca 1",ChIJIWKSRvnDQUcRWt_LR0cI3bM,47.48277,19.2392369
Mayafitness,"Kistarcsa, Hunyadi utca 28",ChIJ7SUZeJXFQUcR2fYDBRCqiMM,47.5452495,19.2584798
"Rózsaliget Jóga, Harcművészet, Gong Hangfürdő,Tánc","Budapest, Tavas utca 1",ChIJQUsWMBvDQUcRPcoDcmKINC0,47.46645839999999,19.1616851
Queen Pole Sportegyesület,"Budapest, Hegedűs Gyula utca 103",ChIJ1QTrh0XdQUcRYTnKE3VhzEE,47.5248313,19.0600668
Nr.5 Pilates Stúdió,"Budapest, Nádorliget utca 5/B",ChIJ1QmFRMHdQUcRBGVlnA4xzYo,47.4682735,19.0474933
Novo Pilates Stúdió,"Budapest, Attila utca 12-18-A ép. fsz. 2",ChIJNTQnea7bQUcRx4ClTC4gxx4,47.56298,19.0815323
Jógaliget és Fitness Stúdió,"Budapest, Újszász utca 106",ChIJ1R7C82HEQUcR9gwiQgtFTn0,47.5078953,19.2065473
ASHLA jógaterem és mozgásterápia,"Budapest, Belgrád rakpart 19",ChIJ3Yqh-ZHdQUcRHW2JM-Vm5pI,47.4894996,19.0535551
SHE Fitness Buda,"Budapest, Laktanya utca 4",ChIJwbItvqjZQUcRQaXaD9A_aTs,47.542057,19.0456142
Palota Röplabda Sport Club,"Budapest, Sződliget utca 24",ChIJa0lm3lPbQUcRK9YfGjsnZSM,47.5658666,19.1152129
Krav Maga Akadémia/Preventive Mindset Program,"Budapest, Alig utca 9",ChIJIfr49fXbQUcRbBN0jJbyW3U,47.51818059999999,19.05865469999999
Edző-gépek,Budapest,ChIJ6zeyuSbdQUcRWPIGZBz7sMo,47.4767683,19.042295
Slim & Strong Private Gym,"Budapest, József körút 68",ChIJhaUeUqzdQUcR7wuuPr5RZsU,47.4877179,19.0707389
Red Muay Gym,"Budapest, Hídvég utca 4",ChIJo_3t-GfdQUcRaVvG50pHhfc,47.4721724,19.0298297
Sanflow PIlates Paris Studio,"Budapest, Bozókvár utca 3",ChIJx1L2bC3cQUcRoHNMY4NhkCs,47.46810539999999,19.0167566
RAM Power Plate and Personal Training Studio,"Budapest, Radnóti Miklós utca 25",ChIJ3QWFGAncQUcRDbJZ83IELXs,47.5154357,19.0524831
MayFly Fitness,"Budapest, Kondorfa utca 6",ChIJMyzuwO3dQUcR0tjhIfmsk1Q,47.4537279,19.0429823
Bukyukai Kyudo Dojo,"Budakeszi, Szanatórium utca",ChIJN7V781zfQUcRtaBkCHI8uvg,47.5232937,18.9315573
TMS Pilates x Serenity,"Budapest, Nánási út 24",ChIJLecRhtzZQUcRLaIyC_7p2ag,47.571637,19.0615131
Masszázsklinika,"Budapest, Pasaréti út 7",ChIJwZvlvLndQUcRy6qZdyRC2jo,47.510847,19.0107561
Central Gym,"Budapest, Kálmán Imre utca 15",ChIJP4lHVBLcQUcRoEeTDsfd0so,47.5067191,19.052712
Villanyi Fitness,"Budapest, Villányi út 27",ChIJhyxyHLXdQUcR6X3xu4va9kQ,47.4789058,19.0408444
Casada,"Budapest, Szentmihályi út 131",ChIJ_wqGgObaQUcRVv4DYVK0kz4,47.5523623,19.1406618
Atlantis - Atte,"Budapest, Pannónia utca 2",ChIJzcdE7g7cQUcRAN3nux6dKxA,47.51280389999999,19.0508881
Vérmező Sportpark,Krisztinaváros,ChIJlWrKEyDcQUcRuW2HRUJdGe4,47.5025274,19.0253075
Yogini Margarita,Budapest Hermina ut 63. III/5 (MAG meetplace,ChIJHVn-3wbdQUcRERcCRY4-oY0,47.5183288,19.086351
Stayfitbyefit,"Budapest, Álmos utca 21/B",ChIJjRTWTV7DQUcRVh67kvue33Y,47.4637012,19.1839793
"Életerő Mozgásközpont gyógytorna, gerinctorna, jóga","Budapest, Szent István körút 25",ChIJOfO0zg3cQUcRUxoIrY10_FM,47.51076210000001,19.05354269999999
"SHUHARI DOJO Lifestyle, Health & Martial Arts Center","Budapest, Győri út 7",ChIJZZ0x5iXcQUcRw6idyz30B6A,47.4944275,19.0263651
Ninja Barlang edzőterem,"Budaörs, Petőfi utca 2",ChIJsyvvUjrfQUcRUwwkH_N1OFs,47.4600436,18.953491
Edufit Gym,"Budapest, Falk Miksa utca 1",ChIJoeYI3xDdQUcRLlCPMkA0pko,47.50868939999999,19.0481871
Izgő-Mozgó Tornakuckó,"Budapest, Gábor Áron utca 102",ChIJjdZpR7LbQUcRDjLjjz26IDw,47.5486825,19.1218206
Ormai László Asztalitenisz Csarnok,"Budapest, Marczibányi tér 13",ChIJjbt8yD7fQUcRqqHCDFdnkuY,47.51208389999999,19.0225674
Flow Reformer Pilates,"Budapest, Szent Lőrinc sétány 4/b",ChIJka-PoaDDQUcRIay6_4bJuFU,47.44268049999999,19.1819075
Budakeszi Squash Klub,"Budakeszi, Szőlőskert út 5",ChIJw72Qi3jfQUcREmj7gVJYuJI,47.5028152,18.9173145
"""TRX"" Budafok Wolf Team.","Budapest, Kertész utca 2b",ChIJYVS_UwDdQUcRhxwLwFuKC3w,47.42600839999999,19.0231688
Pilates Palace,"Budapest, Nagyenyed utca 5",ChIJIfhrk5XdQUcR-f32AfbAZ28,47.49857979999999,19.0229189
Diamond Reformer Pilates,"Budapest, Csabaliget lakópark, Nemez utca",ChIJDzS6BpjFQUcRKV_o0oaltAg,47.53076289999999,19.2136971
DOfit,"Budapest, Lágymányosi utca 20",ChIJG7tgRIvdQUcRv6Yu0XuhCDU,47.4774732,19.0543002
DH Arena Premier Fitness - Fitness,"Budapest, Ifjúság útja 1-3",ChIJBVWq0ZncQUcRA4qVoRGDgr0,47.5006149,19.1037954
Zumba Fitness Budapest,"Budapest, Serény utca",ChIJSTlRa9_dQUcR8bV98SaqS2U,47.43545659999999,19.0938509
Infra Fit Vecsés,"Vecsés, üzletsor, Fő út",ChIJ42J-_1XBQUcRxWpMjyCyWTE,47.4155269,19.2595487
Légy Fitt Kft.,"Budapest, Rózsa utca 97b",ChIJhxBCwHPcQUcRFCQMoC_Tsq0,47.5107067,19.0649312
Szabadtéri kondipark,Budapest,ChIJpS6_OwDdQUcRWrlBSA3qrAw,47.4692729,19.1129551
Peak Gym Budaörs,"Budaörs, Forrás utca 8",ChIJtaQlw67fQUcRPCzeBK646mE,47.4536887,18.9625324
Fügefa Virága Jógaház,"Budapest, Patkó köz 12",ChIJqXGwzqjfQUcRX98Sif2TuK0,47.510667,18.9967107
Fazekas Sportklub,"Budapest, Rigó utca 16",ChIJ9_47t1jcQUcRSS8BlvhQAWo,47.48995499999999,19.0731106
Art of Living Központ,"Budapest, Visegrádi utca 48",ChIJw-hZBw_cQUcRQfjHxetyD6c,47.5177184,19.0575377
Hatékony Alakformálás szalon - InfraSlimX Kaszásdűlő,"Budapest, Búza utca 4",ChIJmSJJu3XZQUcRaGe0NV83XGo,47.5578141,19.0451522
movementality,"Budapest, Jósika utca 25",ChIJb-BYCVbdQUcRIXqMM64daCQ,47.50569939999999,19.0723059
Újpalota Fitnesz Centrum,"Budapest, Nyírpalota út 2-4",ChIJxcvz7RjbQUcRbY7Y6pa1lQ8,47.5387037,19.1361656
Bernadett Pilates,"Budapest, Fenyőerdő utca",ChIJmzhlh77ZQUcRPG-x0SsfYVk,47.5706532,18.9587744
Középpont Jógastúdió,"Budapest, Nevegy köz 2",ChIJyZzJOu3dQUcRbF82AmFYjE4,47.4653915,19.0028267
Testkultúra Terem,"Budapest, Őr utca 1",ChIJGbBxdVDcQUcRVOGplLD3Jc4,47.4909778,19.0754932
TopPilates Pilates STUDIO Budapest V.ker,"Budapest, Fejér György utca 8 Fsz 1",ChIJFSAuXeLdQUcRONhVw2Uj7HQ,47.4894582,19.0587464
Joola - Pingpong terem Tesco,Budapest,ChIJnzUdrFXrQUcR9hhhfY0tNEs,47.4275622,19.14682
Juta-dombi sportpark,"Budapest, Alsóteleki utca 40",ChIJvzHuQC_pQUcROdQmSFzQ0Ek,47.4225113,19.1091896
Barbell Bunker,"Budapest, Bogdáni út 1",ChIJa1rgkX_ZQUcRVnLhbc9sNGo,47.5500749,19.0461443
Kriya Jóga,"Budapest, V. utca",ChIJhz2RGarGQUcRKZs80SExQ04,47.48851569999999,19.2564039
Budai Judo Akadémia,"Budapest, Csikihegyek utca 13-15",ChIJA7VAGXTeQUcR4xNvZOkVnN4,47.4724459,18.9966637
"TRX, Pilates, Core Training","Budapest, Normafa út 9/B",ChIJ200kGzvfQUcRnaQrdqsyMRs,47.4990122,18.9860753
DiamondPilates Budapest,"Budapest, Szinyei Merse utca",ChIJvdQLWqHdQUcRQS_F8fHZta0,47.511294,19.0682295
Goldance Budapest Dance School,"Budapest, Csengery utca 68",ChIJ8RbGa3LcQUcRMqh7G_zi3Ow,47.50834499999999,19.062749
Fitness 5,"Budapest, Hunyadi János út 19",ChIJ2-2rcIHnQUcR0aCKp3WAYVo,47.43590340000001,19.0401716
Shanti Yoga Island,"Budapest, Budapest Hunyadi utca 87. Tetőtér, Hunyadi utca 87",ChIJ5xlVk8LCQUcROlgpYmi0H70,47.4525059,19.1356297
"Mahayana Yoga Room, Yoga Pestlőrinc","Budapest, Kossuth Lajos utca 60",ChIJZ2fdvUTCQUcRXiIgBcflQ9M,47.442699,19.1771693
Lido Fitness Club,"Budapest, Nánási út 67",ChIJp7SU3HfWQUcRjjiuCgpVh1s,47.5726848,19.0642694
Aerial Yoga Hungary,"Budapest, Bajcsy-Zsilinszky út 31",ChIJcQzp4cndQUcRyHC971irgSw,47.504297,19.055297
AST Fitness,"Budapest, Árendás köz",ChIJjzXN4yDbQUcRwm6P7mICWfY,47.5419156,19.1457119
Fanettfit Csoportos Alakformálás,"Budapest, Mezőkövesd út 10",ChIJJ_ZKmPjdQUcRWxZOkvN-kw8,47.4411897,19.0399384
Energia Fitnesz,"Budapest, Ráday Gedeon utca 27",ChIJ0y_AFkjCQUcR0nUqOdHs0d0,47.4454832,19.1908904
Petanque Csarnok,"Budapest, Zsilip utca 9",ChIJFR5jvy7aQUcRYEBp95qDwGU,47.5624982,19.0745939
Budai Pingpong Klub,"Budapest, Zilah utca 3",ChIJRwe7J7reQUcRaXVMsGJGktI,47.514931,19.0107051
Budapest Boxing Club,"Budapest, Bezerédj utca 4",ChIJx_WR-2zdQUcRLvY_AXrSuSw,47.4965165,19.0729622
Ortosolve-med kft,"Budapest Üllői út 250 1186, sólyom U 54",ChIJU77JJsXDQUcRP1aHFeOZZAU,47.4547354,19.1532761
"Gyógytorna, Manuálterápia, Pilates Budapest - Levivel","Budapest, Kresz Géza utca 14",ChIJ7bZDUMndQUcRKHmoDt7YWlE,47.5130685,19.0556185
Erőtér gym,"Budapest, Egressy út 23-25",ChIJYamNAR_dQUcRPLEaulPFOE4,47.5067828,19.109943
Flex Gym Budapest,"Budapest, Márvány utca 17",ChIJuZv-WibcQUcR9Br6rII-PJg,47.49570469999999,19.0244654
Active Pilates,"Budapest, Csata utca 30",ChIJg40XWXvbQUcRh8NWmSncpdM,47.5298683,19.0788153
Normafa kondipark,"Budapest, Eötvös út 59",ChIJkTdVRv3eQUcRqoH8QVg2ETM,47.5028204,18.9663555
SzadiGym,"Budapest, Szentendrei út 89",ChIJpV75fUbZQUcR98Yf5EnB4MA,47.55598949999999,19.0458008
Jelen-Lét Stúdió,"Budapest, Báthory utca 86a",ChIJbb5RHwDDQUcRoJoB2FU3LUc,47.4520777,19.1374174
WALKenergie Kőrösi Kőbánya,"Budapest, Szent László tér 7-14",ChIJ-yVMitLDQUcR7TdEC4m6eoM,47.4854084,19.1329502
Nomád Jóga,"Budapest, Szérűskert utca 33",ChIJjcjfCZfZQUcR-r8A9zAGf5M,47.55594989999999,19.0431278
Tiens,"Budapest, Berend utca 13",ChIJlckCUgfZQUcRNAytNO-dQbI,47.5484065,19.0372736
Gyöngy Fitness,"Budapest, Fadrusz utca 5",ChIJG8Lu-7PdQUcRoAVdYrlP_Io,47.4755139,19.042849
Bikepolo pálya,"Budapest, Dózsa György út 5",ChIJ6aFwVgDdQUcRoXcGXCVJTu0,47.5015364,19.0950407
Speed Fitness Újbuda,"Budapest, Rétköz utca 45",ChIJt32btd_dQUcRImEGBZHYChY,47.472018,18.999834
inSpirál Jóga és Önismereti Stúdió,"Budapest, Bánki Donát utca 60-62",ChIJAagBu7TbQUcRULdMXVB5Lqo,47.5057017,19.1341964
Csánk Bernadett,"Budapest, Timur utca 86",ChIJ6fwRth_FQUcRittbozO4fUE,47.535976,19.1991467
Szabadtéri kondipark,"Budapest, Tátra tér",ChIJy3zjfADDQUcRr-zCOq1QyDU,47.44074699999999,19.1142809
POLE STUDIO Liza Szabo,"Budapest, Teréz körút 10",ChIJ4d4dim7cQUcRWvqu70K65Bo,47.50448009999999,19.0639553
HArmónia Pilates Stúdió,"Budapest, Vezér utca 74-2. emelet",ChIJRz1I81fbQUcRmGaLNgrbnk0,47.51328849999999,19.13662889999999
Spirit Yoga Stúdió,"Budapest, Natasa utca 18 szám",ChIJM0JVMTrFQUcRohSTY1YcPt8,47.50736080000001,19.2115274
Pilates4all,"Budapest, Ördögárok utca 146-I. emelet",ChIJN8H1n8XZQUcROp704hV6OOU,47.5530645,18.9467197
Flow Form Pilates,Budapest Ráday utca 30 (Bejárat a Biblia utca felől,ChIJESMiMEjdQUcR0thlfKjUyPk,47.4857147,19.0649949
SUP Budapest,"Budapest, Kossuth Lajos üdülőpart 81",ChIJTZjHPvLZQUcRDOV2YaeVo9w,47.5879606,19.0685239
Pilates Corner,"Budapest, Váci út 4",ChIJxQnZqvbbQUcRIaNrVJZTqCg,47.511478,19.05611619999999
Shitokai Hungary Karate Dojo Károly Róbert Általános Iskola,"Budapest, Bogáncs utca 51",ChIJOeS4rnrbQUcRC4H5aJQoBao,47.5751775,19.1251032
KMO Mozgásműhely,"Budapest, Szabó Ervin utca 4",ChIJZYJXA-HCQUcRvsN4ULRsABo,47.45921490000001,19.1466624
Team9 Egészség és Mozgásközpont,"Budapest, Daróczi út 4",ChIJ04JeaYzdQUcRGd__5B0qe1g,47.48096,19.0294076
Move Now Fitness,"Budapest, Pentelei Molnár utca 17",ChIJ-wDEZrLeQUcRtJWWyk4kASA,47.5216685,19.0212239
Erőmester Funkcionális Edzőterem,"Budapest, Angyal utca 7/B",ChIJ5cviI1bcQUcR0eHgy5sHwIs,47.48076080000001,19.0689248
Lotus Private Fitness,"Budapest, Ipar utca 2/A",ChIJU_ySNEDdQUcRcuS4M_Mmhx0,47.4782259,19.0695344
Baltakör,"Budapest, Pannónia utca 112",ChIJwQ2uaQDbQUcRIhfJpt7XNqg,47.5266347,19.0584935
Easy Fit Speedfitness,"Kistarcsa, Homok dűlő 134",ChIJSU858obFQUcRIoBEDFildWo,47.5620967,19.2544715
Boutique Fitness Mozgás Stúdió,"Budapest, Batthyány utca 38",ChIJ-34TZR7cQUcRzU6PTo4RjmM,47.5070706,19.030219
Gömöri Éva - Funkcionális és Rehab edzés,"Budapest, Budafoki út 9-11",ChIJeQoRNo3dQUcRBaof8k4MRK0,47.48220739999999,19.0537227
Outdoor workout gym,"Budapest, Kelén utca 3",ChIJ_VhFQrfbQUcRLDPWce0lS6I,47.5452245,19.0635454
Kültéri fitneszpark,Budapest,ChIJG30Pj83bQUcRMpuWrG0U1jM,47.5235386,19.0563277
"Bagua tanya, Pilates studio, Baguaquan alapok, és Yumeiho masszázs","Budaörs, Zöldfa utca 8",ChIJowy4PH7gQUcRRG8eC-PXwog,47.4551605,18.9311283
Beast Company - Red Wolf Gym,"Budapest, Bolgárkertész utca 29",ChIJibVM2qncQUcRU6vtuXJnp0k,47.504625,19.134386
BSK,"Budapest, Szentendrei út 89",ChIJb5eJjHnZQUcRiegH1n3Eyu8,47.5571335,19.0475019
TJ's FightFamily,"Budapest, Donáti utca 40-42",ChIJS2uhc-KjeKQR9zikfUT6O_4,47.50599649999999,19.0351415
Főnix Sport Club,"Budapest, Újszász utca 45/b",ChIJ4bkZqIjEQUcR3qxsg6gizm8,47.5044002,19.1968921
The Playground,"Budapest, Sopron út 19/A",ChIJ06PlNP7cQUcRuDO5v8xcdZQ,47.46825979999999,19.0459578
Tracktime,"Budapest, Bosnyák utca 1",ChIJgc3efsnbQUcRHW3zIHd54-w,47.5165208,19.108604
Street Workout Park,Budapest,ChIJ9yjqkFvdQUcRsRdKXdlf99c,47.4629641,19.0182573
Kültéri fitness park Street workout park,"Budapest, Rácsos utca 2",ChIJB-1K4HDHQUcRylqD5Q09KZo,47.4932233,19.276891
Budapesti Honvéd Kézilabda Csarnok,"Budapest, Klapka utca 12",ChIJn5Hx-XXbQUcR12-Vig1nZw0,47.52610550000001,19.0702079
Self Store Plaza,"Budapest, Pünkösdfürdő utca 52-54",ChIJg_GWKdzZQUcR7Z3ngOG3Iio,47.594597,19.0544031
Sai-Bai Thai Massage,"Budapest, Bartók Béla út 42",ChIJPy-6yrLdQUcRrQVvNzz5V0c,47.478831,19.050251
Gymhome,"Budapest, Ond vezér útja 1",ChIJ05BqjoLbQUcREvJCWGeUvRI,47.5059887,19.1403641
Life1 Fitness Corvin,"Budapest, Futó utca 48-50",ChIJ4YY0h_fcQUcRnj_BfzyrhzM,47.48535019999999,19.0748395
Egyensúly Könnyedén,"Budapest, Kvasz András utca 41",ChIJ_yv6JLTDQUcRWT9oiQUPGmY,47.4677596,19.2255207
FunctionalFit Egészségközpont Újbuda - Gyógytorna - Személyi edzés - Masszázs - Jóga,"Budapest, Galaxy Irodaház, Petzvál József utca 46",ChIJ6VWP5qvdQUcRA5em3ReUG6w,47.4649246,19.042091
Bandha Jóga Központ,"Budapest, Árpád út 77",ChIJuUikRjbaQUcR8GeFYaz17vA,47.56006740000001,19.0916599
Spirit power plate mozgasstudió,"Budapest, Ady Endre út 97",ChIJ8zU5vDjDQUcRvhMnuqBPA18,47.44796830000001,19.1490464
Szabadtéri kondi park,"Budapest, Albert utca 45",ChIJjWWvjJrdQUcRsK1XU745l9A,47.45291719999999,19.03592339999999
4 Elements Gym,"Budapest, Szív utca 39",ChIJETZgoJjdQUcRYzFMCiheOjw,47.5101545,19.0671621
DorkaFittStudio,"Budapest, Zsibói utca 4",ChIJbUTFMl3fQUcRiP41e1HOipM,47.5055264,18.999324
Pilates-Art,"Budapest, Felső Zöldmáli út 94",ChIJbXmPEw_cQUcRAL_20VnMdmY,47.5285948,19.0107167
PRC Pilates oktatóképzés- Timár Gabriella,"Budapest, Bartók Béla út 19",ChIJ9-8RMw7ZQUcRXk6luTxe7eQ,47.4809955,19.0519833
Mentha Pilates & More,"Budapest, Felvinci út 21",ChIJ5cbj34ffQUcRxPileA5CgOo,47.51585,19.01930789999999
Victory Fitness Jégpalota,"Budapest, Jégpalota Budapest, Homoktövis utca 1",ChIJBegfsp_QQUcR05yHGX3x5fY,47.5911487,19.1186117
iloveyoga,"Budapest, Széchenyi István utca 92/B",ChIJqXsKIiTcQUcRsv6fzXnxD_0,47.4232928,19.0878763
Street Workout Edzőpark,"Budapest, Hungária út 14",ChIJ8arS4wnDQUcRoRyln0TDB5g,47.45558259999999,19.130605
Mālā Yoga & Āyurveda - Törökvész,"Budapest, Törökvész út 33-39",ChIJUXscIFPfQUcRjCjTEBMMcQo,47.5244241,19.0135835
Tüske külső kondipark és street wourkout pálya,"Budapest, Budapest, Magyar tudósok zsákutcája 7",ChIJq_kBf4PdQUcRKGI4HMh0e4A,47.4724666,19.0587983
Millennium Fitness Wellness Stúdió,"Budapest, Pápay István utca 2",ChIJmavOZQDdQUcRLKYKJ9tQhRI,47.4740632,19.0712913
New Pilates by AD - Decker Anna Stúdió (Hűvösvölgy),"Budapest, Hűvösvölgyi út 77",ChIJVe7lwKzfQUcRtfOVCZdJnkw,47.52460259999999,18.9866409
Moon In Water Massage,"Budapest, Csanády utca 13",ChIJg-ykiQncQUcRra-5ekYdmDY,47.516906,19.0561444
Királymajor Magánrendelő,"Budapest, Széchenyi István utca 92/B",ChIJtUDOSmHDQUcR0DA-P3RTN_o,47.4233009,19.087872
TMS Pilates Budaörs,"Budaörs, Templom tér 20",ChIJse9KUmjfQUcRf-ZuxHXIDNw,47.46119899999999,18.9632314
AproGym Sportegyesület - Gyerektorna,"Budapest, Berni utca 1",ChIJH9hsBwDbQUcRUp2-unRkkbg,47.5502049,19.0940598
Professional Pole Dance Stúdió,"Budapest, Jókai utca 26",ChIJWbDwTW_cQUcRRWizDd3Eor4,47.50773270000001,19.058251
SHE Fitness WestEnd,"Budapest, Csanády utca 21",ChIJO7JkJ-XdQUcRF0AJ5VFpDT4,47.5173424,19.0548189
Down Alapítvány Rehabilitációs és Sportcentrum,"Budapest, Márga utca 28",ChIJP6KYCTzDQUcR8nkyVARifBQ,47.4785368,19.1426838
Heartless Studio,"Budapest, Csömöri út 52",ChIJdUtjBvnbQUcRUgfuE04FkiA,47.5231685,19.1549452
The Spa at Four Seasons Hotel Gresham Palace Budapest,"Budapest, Széchenyi István tér 5-6",ChIJLQijKj7cQUcRIIVVrU7jcR4,47.4996403,19.0480183
Eddzhatékonyan Gym,"Budapest, Lomb utca 34",ChIJj8lp58PbQUcRjMQeDkrQZaU,47.5400892,19.0718964
PULL FITNESS,"Budapest, Podmaniczky utca 75",ChIJu-QMSnTcQUcRgM6BIj4P5gU,47.5139413,19.0669119
Balzac Barbell Club,"Budapest, Balzac utca 21",ChIJNzNWKL_dQUcRu-LiQOjQxyk,47.5162133,19.0540408
Equinox Személyi Edző Studio,"Budapest, Klauzál tér 4",ChIJ2TWMSN_dQUcRuMLVS6p83Pw,47.49908749999999,19.0635039
Newpilatesbyad Pasaret Pilates studio,"Budapest, Pasaréti út 49",ChIJ01HOKkXfQUcRllAfsGXG7Y4,47.516144,19.004646
Urban Oásis Pilates,"Budapest, Lenhossék utca 11",ChIJ68YuRwDdQUcRuLQLz50uNwQ,47.4783873,19.077819
Kondi park,Budapest,ChIJQ26yLUTFQUcRdB8v71A9i_c,47.5304164,19.2137136
GYM & FITNESS 5 SALLAI,"Budapest, Cziffra György utca 15/b",ChIJp1XFxhTCQUcReEq2UJkvmAY,47.4325857,19.1782602
Exxxtreme Fitness,"Csömör, Rákóczi Ferenc utca 30",ChIJ-8_ug3LFQUcRttSUcqPMakM,47.5530371,19.22317319999999
BEAC,"Budapest, Bogdánfy utca 10-B I. lépcsőház, 2. emelet",ChIJRc_dV6ndQUcRVgO_sLsncVA,47.473038,19.0568292
Klein Dóri jógaoktató,"Diósd, Pacsirta utca 29",ChIJEULyyiHhQUcRp3RGhfXN1OY,47.409263,18.9388397
NISHI Studio,"Budaörs, Szabadság út 44",ChIJYyz00xHfQUcRThOfp7h8yXg,47.46110139999999,18.9587218
RX NATION,"Budapest, Kassák Lajos utca 78",ChIJGVwe8ezbQUcRWZ10dwMTtRs,47.52987479999999,19.0694289
Butterflow Reformer Pilates Studio Solymár,"Solymár, József Attila utca 16",ChIJaT_XWgB3akcRPCCa200oWoI,47.5925666,18.9358687
SHAPE,"Budapest, Hársfa utca 27",ChIJu4tFTV3dQUcRKRGyid_JqSc,47.50069149999999,19.0707514
DiVa Pilates Stúdió,"Solymár, Terstyánszky Ödön utca 60",ChIJPTkRijd3akcRrUzPiCYfywU,47.5955967,18.933394
360 gym,"Budapest, alagsor, Liliom utca 50",ChIJWWLHYPjcQUcRE_w4IZUf0PA,47.48312240000001,19.0717197
Felnőtt kondipark,Nagytarcsa,ChIJjzA1pj7FQUcRKbJZMTNQQSA,47.5277923,19.2725126
Fourelle Pilates,"Budapest, Alkotmány utca 21",ChIJOwY-2WXdQUcRFIxyZTPIUU0,47.507418,19.052829
Kültéri fitness park,"Budapest, Lukács György utca 1",ChIJ91PpPqDZQUcRlI5bAdtL4YU,47.5992933,19.0537306
Sóterápiás és Sós levegő készülék,"Budapest, Taliga utca 29",ChIJ7bXLk_XZQUcRrnaY4Vb2a6U,47.5751087,19.0263761
